id;millesime;num_site;name;name_impression;description;animations;condition_acces;unesco;monument_historique;musee_national;parcours;adresse;logo;tarifs;www;accessibilite;info_mail;info_tel;resa_mail;resa_tel;meta_datcreat;meta_datmaj;meta_datsupp;meta_insee;meta_siren;meta_source;meta_licence;meta_observations;meta_genealogie;meta_mairie_quartier;geocod_methode;geocod_fiability;geocod_real_address;meta_actif;nom_fic;lamb93_x;lamb93_y;gps_x_long;gps_y_lat;latitude;longitude
268;2021;6;« Avignon, eau vivante, eau cachée »  un parcours dans la ville;;"Cette promenade urbaine, en partenariat avec les musées et les archives d’Avignon, vous invite à découvrir la ville à travers le prisme de l’eau.
Vous déambulerez dans les rues à la recherche d’indices toponymiques et visuels.
Ce parcours sera ponctué de présentation d’œuvres d’art appartenant aux différents musées, grâce à des QR Code.
Laissez-vous porter au fil de l’eau !";Le topoguide du parcours sera disponible à l'Office de Tourisme d'Avignon et en téléchargement;libre;;;;Se cultiver;8 rue Frédéric Mistral, en bas des locaux de l’association Volubilis;;gratuit;https://www.volubilis.org/les-parcours-urbains/;;;;;;20210723114506;20210824162233;;84007;218400075;Mairie Avignon / Modernisation;LO;;;;manuelle;1;;t;84007-semaineDeveloppementDurable2021;844991.9165284354;6317958.302409728;4.806176722325766;43.94570285629341;43.94570285629341;4.806176722325766
267;2021;1;Eco-Logis;;"Un appartement témoin pour découvrir les gestes et produits éco-responsables

inscription à partir du 1er août";Un temps fort autour du développement durable et de l'habitat avec des conférences et des ateliers pour petits et grands;Du 6 septembre au 2 octobre;;;;Consommer;MAIF, Espace Etoile, 139 avenue Pierre Semard;../media/photos/logos/logo-MAIF.png;Gratuit;maif-evenements.fr/programmation-84;;;;;;20210723091912;20210824162233;;84007;218400075;Mairie Avignon / Modernisation;LO;;;;manuelle;1;;t;84007-semaineDeveloppementDurable2021;847448.1478388326;6316426.476703985;4.836319579317059;43.93141092212603;43.93141092212603;4.836319579317059
266;2021;5;Exposition "La nature, la nuit";;Dans cette exposition, on trouve des présentations d’animaux naturalisés, pour apprendre à les reconnaître, ainsi que des plantes. Les explications sur leur mode de vie et sur l’impact des activités humaines sur ces espèces permettront de mieux vivre ensemble, dans une vision plus durable;;Du samedi 18 septembre 2021 au 5 mars 2022, Ouvert du mardi au samedi, de 10h à 13h et de 14h à 18h;;;;Se cultiver;Muséum Requien – 67 rue Joseph Vernet;../media/photos/logos/avignonmusee.png;Entrée gratuite pour toutes et tous;;;museum.requien@mairie-avignon.com ;04.13.60.51.20;;;20210723091547;20210825100748;;84007;218400075;Mairie Avignon / Modernisation;LO;;;;manuelle;1;;t;84007-semaineDeveloppementDurable2021;844771.0078223475;6318060.186795975;4.803454783575608;43.946664975508746;43.946664975508746;4.803454783575608
270;2021;2;Les ateliers participatifs du Plan Climat Local;;Ateliers participatifs d’élaboration du plan climat local ouverts au public;Accroches vélos à disposition;Du 7 au 21 septembre, de 18h à 20h;;;;Tous les axes;CVL Barthelasse, 8 chemin de la Barthelasse;../media/photos/logos/logo pcl.png;gratuit sur inscription;https://jeparticipe.avignon.fr/;Non;;;;;20210723151054;20210729100308;;84007;218400075;Mairie Avignon / Modernisation;LO;;;;manuelle;1;;t;84007-semaineDeveloppementDurable2021;844404.3289765464;6318983.336173277;4.799150519979533;43.9550461101122;43.9550461101122;4.799150519979533
274;2021;9;Conférence gesticulée « Tout sur ma mer »;;Révoltée par l’invasion du plastique en Méditerranée, Anaëlle décide de transformer son indignation en action positive. Elle parcourt 1000km en kayak et à vélo en solitaire sur le littoral méditerranéen en organisant des ramassages de déchets tout au long de son parcours. Dans ce « seule en scène », Anaëlle restitue son aventure avec poésie et humour pour sensibiliser à la protection de l’environnement;"Tout public - sur inscription 
durée 1 heure";Dimanche 19 septembre, 15h;;;;Consommer;Dans le cadre des 1000 pagaies, base de loisirs de la Barthelasse, entrée par l'allée Antoine Pinay - Ile de la Barthelasse ;../media/photos/logos/azur.jpg;gratuit ;www.projetazur.com;;;;;;20210728162051;20210818144805;;84007;218400075;Mairie Avignon / Modernisation;LO;;;;manuelle;1;;t;84007-semaineDeveloppementDurable2021;844503.9831400675;6318770.482527936;4.800331238849144;43.953110555652586;43.953110555652586;4.800331238849144
279;2021;14;10 km de la cité des papes;;Le Club Athletic Sport Avignonnais (CASA) met en place depuis maintenant plusieurs années une matinée de course hors stade avec comme point d’orgue le 10km de la cité des papes. Cette manifestation se tiendra avec une course enfant, une course de 4.5km et une de 10km;Renseignements, Inscription et horaires sur le site ;Dimanche 26 septembre;;;;Se bouger;Ile de la Bartelasse allée Antoine Pinay, centre aéré;;;http://www.casavignon.net/cite-des-papes;;;;;;20210728165137;20210824100711;;84007;218400075;Mairie Avignon / Modernisation;LO;;;;manuelle;1;;t;84007-semaineDeveloppementDurable2021;844516.4101149198;6318817.745937138;4.800499433490801;43.953533250139884;43.953533250139884;4.800499433490801
273;2021;8;1000 Pagaies;;"Le Jeune Canoë Kayak Avignonnais organise en collaboration avec le Service des Sports de la Ville d'Avignon et le Comité Départemental de Canoë Kayak de Vaucluse, pour la 21ème année consécutive, la manifestation des « 1000 Pagaies ».
Il s’agit d’une journée de promotion du canoë-kayak ouverte à tout public dans un esprit convivial et familial, au fil de l’eau, le long du Rhône avec comme décor le Palais des Papes, les remparts et le Pont St Bénezet";Accès : vélo, navette fluviale, transport en commun ou à pied (appuis vélo à disposition);Dimanche 19 septembre, de 13h30 à 18h ;;;;Se bouger;Allée Antoine  Pinay - Ile de la Barthelasse ;../media/photos/logos/logo_JCKA.png;La manifestation est totalement gratuite et sans réservation;;;;;;;20210728161220;20210824162233;;84007;218400075;Mairie Avignon / Modernisation;LO;;;;manuelle;1;;t;84007-semaineDeveloppementDurable2021;844473.8121130575;6318726.8283073;4.7999430819664735;43.95272397408648;43.95272397408648;4.7999430819664735
283;2021;19;Journée Accueil des Etudiants (JAE);;"Hôtel de ville 9h30-11h30
Rocher des doms 12h-1h
Palais des papes 18h-22h	
";Voir programme joint;Jeudi 30 septembre;;;;Bien vivre;Hôtel de ville 9h30-11h30 Rocher des doms 12h-1h Palais des papes 18h-22h;;Entrée libre sauf Atypik Festival sur inscription;;;;;;;20210728170335;20210824162233;;84007;218400075;Mairie Avignon / Modernisation;LO;;;;manuelle;1;;t;84007-semaineDeveloppementDurable2021;844930.2826814015;6318353.778819557;4.805521839065547;43.94927375290647;43.94927375290647;4.805521839065547
277;2021;12;à la découverte des abeilles citadines au rocher des Doms;;"L’association Car elles butinent vous invite à découvrir le monde des abeilles, de très...très près. Équipé, d’une
combinaison, et d’une paire de gants, ouvrez une ruche accompagnée d’un apiculteur.";"En famille ou entre amis
Atelier de 30 min accessible à partir de 4 ans et par groupes de 7 personnes maximum
Pour être sûr d’avoir une place, réservation par mail";Les mercredis 22 et 29 septembre, ainsi que le mercredi 6 octobre, de 14h à 17h;;;;Se nourrir;Jardin du rocher des Doms;../media/photos/logos/logo-carellebutinent-01.jpg;Gratuit !;www.carellesbutinent.org;;;;lise@carellesbutinent.org;;20210728163429;20210818144953;;84007;218400075;Mairie Avignon / Modernisation;LO;;;;manuelle;1;;t;84007-semaineDeveloppementDurable2021;845110.5093656196;6318725.494804636;4.807872299595068;43.95258108358237;43.95258108358237;4.807872299595068
278;2021;13;Expédition dans une forêt « sauvage » aux portes d’Avignon;;Vous n’y croyez pas ? Et bien suivez-nous sur la piste des castors, pics épeiches, chauves-souris… abrités dans l’une des dernières forêts alluviales du Rhône aval;"Inscription obligatoire, lieu et horaire par téléphone à CEN PACA 
Attention : Inscriptions limitées en raison de la configuration du site et de son statut de protection
Durée : 3h";Vendredi 24 septembre, 13h30;;;;Se cultiver; Islon de la Barthelasse;../media/photos/logos/LOGO-CENPACA_JPEG.jpg;;https://cen-paca.org/participer/agenda/evenement/expedition-dans-une-foret-sauvage-aux-portes-davignon/;;;;;04.42.20.03.83;20210728164919;20210818145008;;84007;218400075;Mairie Avignon / Modernisation;LO;;;;manuelle;1;;t;84007-semaineDeveloppementDurable2021;845600.8722196384;6322315.147165828;4.815007167878541;43.98477731037256;43.98477731037256;4.815007167878541
290;2021;23;Comme un arbre dans la ville;;En partenariat avec la mairie d’Avignon, France Nature Environnement Vaucluse propose une balade en famille dans le parc de l’Abbaye de Saint-Ruf et le parc Campo Bello afin de (re)découvrir la place de l’arbre en ville et notre lien avec lui;"Inscription obligatoire par mail 
Durée : environ 2h";Samedi 2 octobre, 9h30;;;;Bien vivre;Parc Campo Bello (6 rue Campo Bello);../media/photos/logos/fne.jpg;gratuit;;;;;justine.bati@fne-vaucluse.fr;;20210729092612;20210818145422;;84007;218400075;Mairie Avignon / Modernisation;LO;;;;manuelle;1;;t;84007-semaineDeveloppementDurable2021;845406.4999183945;6316335.709565249;4.8108759486632975;43.931018575030954;43.931018575030954;4.8108759486632975
287;2021;24;Le pique-nique des Chefs ;;"Le Pique-Nique des Chefs valorise les produits locaux et de saison et les circuits courts.
Sur place un marché de producteurs et une buvette agrémentent la manifestation";16 Chefs du Grand Avignon vous proposent un menu de saison à réserver sur le site ;Dimanche 3 octobre, de 11 h à 17 h;;;;Se nourrir;chemin de halage, île de la Barthelasse;;;http://www.lepiqueniquedeschefs.fr/;;;;;;20210728172502;20210818145450;;84007;218400075;Mairie Avignon / Modernisation;LO;;;;manuelle;1;;t;84007-semaineDeveloppementDurable2021;844551.3421559855;6318813.375153539;4.800933251764308;43.95348675612645;43.95348675612645;4.800933251764308
286;2021;22;Rencontre « Les enjeux alimentaires du 21e siècle »;;"Écologique
Les enjeux alimentaires concernent l’ensemble des pays du monde ainsi que leurs citoyens. Si 1 milliard de personnes souffrent actuellement de la faim et de la soif dans le monde, les inquiétudes concernant notre propre capacité à nourrir chacun d’entre nous en France sont grandissantes. Cette rencontre prend place dans ce contexte et invite à une réflexion d’ensemble sur nos choix en tant que société, en tant que structure mais aussi en tant qu’individu";"Accès piéton, train-bus-tram, accroches vélos disponibles
Public adulte";Samedi 2 octobre, de 15h30 à 17h;;;;Se nourrir;Bibliothèque Ceccano - 2 bis, rue Laboureur ;../media/photos/logos/logo cie.png;Gratuit. Entrée libre dans la limite des places disponibles;http://bibliotheques.avignon.fr/;;mailto:bm.webmaster@mairie-avignon.fr;;;;20210728172111;20210824162233;;84007;218400075;Mairie Avignon / Modernisation;LO;;;;manuelle;1;;t;84007-semaineDeveloppementDurable2021;845015.5122093267;6318004.486723245;4.806483712978339;43.946113531778586;43.946113531778586;4.806483712978339
275;2021;10;Balades urbaines « un regard croisé sur la nature en ville » : entre balade à Avignon et visite du Muséum Requien ;;"Dans la continuité de l’Atlas de la Biodiversité Communale, « un regard croisé sur la nature en ville : entre balade à Avignon et visite du Muséum Requien »

Découvrez le développement de la nature en ville intramuros, une sorte de trame verte, de jardin en jardin, confortée par les plantations des places, des rues et de jardins privés. Dans la continuité, au Muséum Requien, l’observation de spécimens issus des collections de la Ville d’Avignon ou de la Fondation Calvet permettra de compléter la sortie sur le terrain";"Niveau : facile 
Durée : +/- 1h30 de balade et 1h de visite du musée
Equipement : basket, bouteille ";Les lundis 20 et 27 septembre, 9h00;;;;Bien vivre;Le lieu de rendez-vous est communiqué à l’inscription;../media/photos/logos/aparecme.png;Réservation : CPIE Pays de Vaucluse ;;;;;;04.90.85.51.15;20210728162550;20210825100748;;84007;218400075;Mairie Avignon / Modernisation;LO;;;;manuelle;1;;t;84007-semaineDeveloppementDurable2021;844971.7499061031;6318335.675427566;4.806033094593044;43.9491023377682;43.9491023377682;4.806033094593044
293;2021;4;Greenfest 2021 - Festival de musique électronique - édition spéciale;;"Concert 

";"NHAR live
TILAK live
DIESE live";𝗦𝗔𝗠𝗘𝗗𝗜 𝟭𝟴 𝗦𝗘𝗣𝗧𝗘𝗠𝗕𝗥𝗘 de 𝟭𝟵𝗵 - 𝟬𝟭𝗵;;;;Se cultiver;𝗟𝗲 𝗧𝗶𝗽𝗶 – 𝗟𝗶𝗲𝘂 𝗳𝗲𝗿𝘁𝗶𝗹𝗲 𝗲𝘁 𝗲́𝗰𝗼𝗹𝗼𝗴𝗶𝗾𝘂𝗲, 57 Av. Einsenhower;;"Gratuit
CB (buvette) accepté, Foodtruck/espace restauration

Stand de tests antigéniques
Solution hydroalcoolique en libre-service
Sites accessibles aux personnes à mobilité réduite.
Écocups consignés (1 €)
Co-voiturage entre amis :
 http://bit.ly/2oTHr5t";https://www.facebook.com/inooveproduction;;;;;;20210818144240;20210818150300;;84007;218400075;Mairie Avignon / Modernisation;LO;;;;manuelle;1;;t;84007-semaineDeveloppementDurable2021;844185.4228636415;6316601.866925224;4.79574942831756;43.9336641917818;43.9336641917818;4.79574942831756
284;2021;20;Exposition « Araignées de Provence »;;Dans une salle du Muséum Requien, pendant un mois, l’arachnologue Anne Bounias-Delacour (« fils et soies ») vous présente ses photographies d’araignées provençales. Petits ou grands, ces animaux à 8 pattes ont des formes, des couleurs et des mœurs bien étonnants, qui sont expliqués par des textes rédigés par cette passionnée;;Du vendredi 1er au dimanche 31 octobre, du lundi au samedi, de 10h à 13h et de 14h à 18h;;;;Se cultiver;Muséum Requien – 67 rue Joseph Vernet ;../media/photos/logos/avignonmusee1.png;Entrée gratuite pour toutes et pour tous;;;museum.requien@mairie-avignon.com;04.13.60.51.20;;;20210728170645;20210825100748;;84007;218400075;Mairie Avignon / Modernisation;LO;;;;manuelle;1;;t;84007-semaineDeveloppementDurable2021;844784.782253927;6318060.997056656;4.8036265465380765;43.9466694344839;43.9466694344839;4.8036265465380765
285;2021;21;Fête de la Science : exposition « l’émotion de la découverte »;;"En 2021, c’est la 30e édition de cette Fête de la Science, partout en France, du 1er au 11 octobre ! A Avignon, c’est notamment le samedi 2 octobre qu’on retrouvera le Village des sciences, sur la Place de l’Horloge et dans le péristyle de l’Hôtel de Ville : des laboratoires, des institutions et des associations viendront vous présenter leurs recherches, pour mieux comprendre les avancées et les questionnements de la Science. Un moment à découvrir en famille, où diversité rime avec convivialité.
La thématique « l’émotion de la découverte » est déclinée à travers une exposition de photographies, et des vidéos à retrouver au fil de l’eau, sur Internet";;Samedi 2 octobre;;;;Se cultiver;Village des Sciences, place de l’Horloge;../media/photos/logos/fete.png;Manifestation dont les événements sont gratuits;;;;;;;20210728171707;20210825100748;;84007;218400075;Mairie Avignon / Modernisation;LO;;;;manuelle;1;;t;84007-semaineDeveloppementDurable2021;844968.103733038;6318387.12698082;4.806002344630194;43.949566012775804;43.949566012775804;4.806002344630194
289;2021;26;Conférence « Les araignées de Provence »;;En partenariat avec la Société d’Etudes des Sciences naturelles de Vaucluse, le Muséum Requien vous invite à une conférence de l’arachnologue Anne Bounias-Delacour. Cette passionnée, qui vit en Vaucluse, vous aidera à mieux connaître;"Durée : environ 1h30 (présentation + questions
Réservation recommandée ";Mercredi 6 octobre, 18h00;;;;Se cultiver;Muséum Requien – 67 rue Joseph Vernet ;../media/photos/logos/avignonmusee3.png;Conférence offerte pour toutes et pour tous;;;;;;04.13.60.51.20;20210728172945;20210825100748;;84007;218400075;Mairie Avignon / Modernisation;LO;;;;manuelle;1;;t;84007-semaineDeveloppementDurable2021;844788.8335573327;6318047.222625077;4.803673078408295;43.946544669293715;43.946544669293715;4.803673078408295
291;2021;16;Visite Bibliothèque éphémère;;Mise en avant du mode constructif de la bibliothèque basé sur des containers maritimes recyclés permettant un démontage « facile » pour être implantés sur autre site tout en proposant un confort d’usage élevé;;mardi 28 septembre, 17h00;;;;Produire et travailler;Parc du Clos de la Murette;;;;;;;;;20210729101231;20210818145114;;84007;218400075;Mairie Avignon / Modernisation;LO;;;;manuelle;1;;t;84007-semaineDeveloppementDurable2021;846466.3450958773;6315935.4564865595;4.823955340269109;43.92719792513036;43.92719792513036;4.823955340269109
282;2021;18;Visite de la coulée verte « comestible »;;"Cette visite guidée et commentée permettra de découvrir une coulée verte intitulée comestible dans le quartier ouest de la Ville. Espace paysager reconstitué en milieu urbain, résultat d’un véritable « travail de couture » visant à mobiliser des espaces et à les renaturer, bien souvent avec le concours des citoyens. 
Dés-imperméabilisation , végétalisation des remparts et des actions liées au budget participatif , gestion durable des espaces de nature, cheminements doux, stationnements perméables, végétalisation des pieds d’arbres, jardins partagés et micro-ferme urbaine « Le TIPI », parcs urbains naturels et ouverts…, cette balade urbaine « comestible » vous ouvrira les portes du retour de la nature en ville, à travers une vision globale illustrée de nombreux exemples";"Durée : 3 heures
Déroulé de la visite sous forme de déambulation de la Porte Saint- Charles jusqu’au parc de la Laïcité
Nécessite une bonne condition physique (4,5 km de marche avec arrêts commentés) 
Prévoir des chaussures de marche, un sac à dos, une gourde d’eau
Taille du groupe en fonction du contexte sanitaire / Inscription obligatoire
Retour libre";Mercredi 29 septembre, de 14h00 à 17h00;;;;Se nourrir;Porte Saint- Charles;;;;;;;patrice.henon@mairie-avignon.com;;20210728170038;20210818145149;;84007;218400075;Mairie Avignon / Modernisation;LO;;;;manuelle;1;;t;84007-semaineDeveloppementDurable2021;844759.3514520375;6317658.73606281;4.803195443965895;43.9430554090306;43.9430554090306;4.803195443965895
292;2021;4;Greenfest 2021 - Festival de musique électronique - édition spéciale;;Comme le disait Nietzsche autrefois "Sans musique la vie serait une erreur". Cette année, nous vous proposons un format adapté à la situation sanitaire afin que nous puissions tout de même nous retrouver autour de ce qui nous rassemble et illumine nos esprits : la musique et les artistes. Au programme de cette édition spéciale : une conférence/table ronde sur la transition écologique dans le secteur culturel avec intervention de David Irle et plusieurs associations avignonnaises, des ateliers gratuits de production musicale assistée par ordinateur, un buffet offert pour échanger sur le Green Fest de demain, une soirée dans une ferme urbaine et écologique et la diffusion d’un live exceptionnel enregistré sur l’esplanade du rocher des Doms avec des images sublimes du palais des papes. Plus que jamais on compte sur vous !;"𝟬𝟵𝗵 - 𝟭𝟮𝗵
Conférence/table ronde sur le thème de la transition écologique dans le secteur culturel. Intervention de David Irle et des associations avignonnaises Éco-Lab' Environnement et les jeunes pousses, avec le soutien de Greenpeace France.
Inscription : https://docs.google.com/.../1FAIpQLSd8HeG0xFFmLL.../viewform
𝟭𝟮𝗵
Cocktail dînatoire offert aux participants, festivaliers et membres d'Inoove Production : échanges sur le Green Fest de demain et les attentes artistiques des publics.
𝟭𝟰𝗵 - 𝟭𝟳𝗵
Atelier de création assistée par ordinateur (MAO musique électro) avec deux intervenants professionnels : Nicolas Borel et Franck Turrel
Inscription : https://docs.google.com/.../1FAIpQLSc0Z6.../viewform
Limité à 18 personnes maximum. Tous public à partir de 12 ans.";samedi 18 septembre, 9h à 17h;;;;Se mobiliser;𝗧𝗵𝗲́𝗮̂𝘁𝗿𝗲 𝗱𝗲 𝗹'𝗢𝘂𝗹𝗹𝗲 // 𝗟𝗮 𝗙𝗮𝗰𝘁𝗼𝗿𝘆, 19 Pl. Crillon;;"Gratuit
Stand de tests antigéniques
Solution hydroalcoolique en libre-service
Sites accessibles aux personnes à mobilité réduite.
Écocups consignés (1 €)
Co-voiturage entre amis : http://bit.ly/2oTHr5t";https://www.facebook.com/inooveproduction;Oui;;;;;20210818143345;20210818150353;;84007;218400075;Mairie Avignon / Modernisation;LO;;;;manuelle;1;;t;84007-semaineDeveloppementDurable2021;844714.2103646876;6318440.724516346;4.802855701610297;43.95010045624488;43.95010045624488;4.802855701610297
280;2021;15;Festival « C’est pas du luxe ! »;;"La culture, c’est d’abord le droit de s’exprimer librement, d’exercer ses propres pratiques culturelles, de développer et partager des connaissances. Au-delà d’un toit, des besoins vitaux, la culture n’est ni superflue, ni un supplément d’âme. Elle apparaît d’autant plus fondamentale, qu’elle est un puissant levier d’émancipation, de dignité et de citoyenneté. 
Cette conviction anime le Festival C’est pas du Luxe ! pour accompagner des projets artistiques et culturels au long cours, imaginés et construits entre artistes professionnels, personnes en situation de grande précarité et institutions culturelles.
Tous les deux ans, C’est pas du Luxe ! organisé en partenariat avec la Fondation Abbé Pierre, La scène nationale La Garance, et l’association Le Village regroupe ce foisonnement d’œuvres le temps d'un festival à Avignon. Trois jours de fête où sont présentées expositions, spectacles, concerts, films, dans plus d’une vingtaine de lieux de la ville. L’objectif ? Valoriser ces démarches et ceux qui les portent, inviter chacun à rencontrer l’autre, et faire évoluer le regard sur la précarité.";Programmation et infos pratiques sur;du vendredi 24 au dimanche 26 septembre;;;;Bien vivre;accueil Square Agricol Perdiguier, Jeudi de 14h à 19h  Vendredi de 10h à 21h  Samedi de 10h à 19h  Dimanche de 10h à 17h ;../media/photos/logos/1136_cest_pas_du_luxe.jpg;;http://cestpasduluxe.fr/;;;;;;20210728165452;20210824101156;;84007;218400075;Mairie Avignon / Modernisation;LO;;;;manuelle;1;;t;84007-semaineDeveloppementDurable2021;844963.2112960226;6317822.075587462;4.805780462044222;43.944483095082255;43.944483095082255;4.805780462044222
288;2021;25;Conférence « Les mouches »;;Les mouches sont des animaux souvent méconnus : pollinisatrices, nettoyeuses, inspirantes… elles ont des qualités qui pourraient vous les faire apprécier ! Au cours de cette conférence, le conservateur du Muséum Requien vous emmène à la découverte de ces diptères, et vous fait partager son intérêt pour les sciences naturelles;Durée : +/- 1h30 (conférence et questions);Mardi 5 octobre, 18h00;;;;Se cultiver;Musée Calvet, 65 rue Joseph Vernet;../media/photos/logos/avignonmusee2.png;Entrée offerte à toutes et à tous;;;;;;;20210728172712;20210825100748;;84007;218400075;Mairie Avignon / Modernisation;LO;;;;manuelle;1;;t;84007-semaineDeveloppementDurable2021;844772.6283437097;6318045.602103714;4.80347081495632;43.946533419851164;43.946533419851164;4.80347081495632
