id;millesime;num_site;name;name_impression;description;animations;condition_acces;unesco;monument_historique;musee_national;parcours;adresse;logo;tarifs;www;accessibilite;info_mail;info_tel;resa_mail;resa_tel;meta_datcreat;meta_datmaj;meta_datsupp;meta_insee;meta_siren;meta_source;meta_licence;meta_observations;meta_genealogie;meta_mairie_quartier;geocod_methode;geocod_fiability;geocod_real_address;meta_actif;nom_fic;lamb93_x;lamb93_y;gps_x_long;gps_y_lat;latitude;longitude
1430;2022;;Tom Bird;;https://www.tombirdchanson.com/;;Samedi 17 et Dimanche 18 septembre / 10h et 14h30 / Jardin;f;f;f;CHANTS pour CHANT#1;Abbaye St Ruf (Avenue de la Cabrière);https://lirp.cdn-website.com/e360ffe9/dms3rep/multi/opt/Bandeau-Chants-pour-chant-1920w.jpg;CONCERTS GRATUITS / ENTRÉE LIBRE ;https://www.chantspourchant.fr/programme-des-17-et-18-septembre;;;04 86 34 27 27;;;;;;;;;;;;Avignon Nord rocade;;;;t;84007-journeesPatrimoine2022;845575.2483566174;6316485.094290817;4.813019493073132;43.93232777087014;43.93232777087014;4.813019493073132
1431;2022;;David Lafore;;https://www.davidlafore.com/;;"Samedi 17 et Dimanche 18 septembre / 10h et 14h30 / Cloître Saint-Louis
- Petite scène";f;f;f;CHANTS pour CHANT#1;Cloître Saint-Louis (20, rue du Portail Boquier);https://lirp.cdn-website.com/e360ffe9/dms3rep/multi/opt/Bandeau-Chants-pour-chant-1920w.jpg;CONCERTS GRATUITS / ENTRÉE LIBRE ;https://www.chantspourchant.fr/programme-des-17-et-18-septembre;;;04 86 34 27 27;;;;;;;;;;;;Avignon Intra muros;;;;t;84007-journeesPatrimoine2022;844860.3145182754;6317758.950884833;4.804481175432419;43.94393631319686;43.94393631319686;4.804481175432419
1432;2022;;Louise O’sman ;;https://louiseosman.com/;;Samedi 17 et Dimanche 18 septembre / 10h45 et 15h15 / Jardin du Rocher des Doms;f;f;f;CHANTS pour CHANT#1;Jardin du Rocher des Doms (2, Monts des Moulins);https://lirp.cdn-website.com/e360ffe9/dms3rep/multi/opt/Bandeau-Chants-pour-chant-1920w.jpg;CONCERTS GRATUITS / ENTRÉE LIBRE ;https://www.chantspourchant.fr/programme-des-17-et-18-septembre;;;04 86 34 27 27;;;;;;;;;;;;Avignon Intra muros;;;;t;84007-journeesPatrimoine2022;845097.6245637265;6318754.75626451;4.807720173704043;43.95284701238534;43.95284701238534;4.807720173704043
1433;2022;;Mymytchell;;https://www.mymytchell.fr/;;Samedi 17 et Dimanche 18 septembre /  11h30 et 16h / Place de l'Amirande;f;f;f;CHANTS pour CHANT#1;Place de l’Amirande;https://lirp.cdn-website.com/e360ffe9/dms3rep/multi/opt/Bandeau-Chants-pour-chant-1920w.jpg;CONCERTS GRATUITS / ENTRÉE LIBRE ;https://www.chantspourchant.fr/programme-des-17-et-18-septembre;;;04 86 34 27 27;;;;;;;;;;;;Avignon Intra muros;;;;t;84007-journeesPatrimoine2022;845078.2223979463;6318430.179588974;4.807385990603379;43.94993069642025;43.94993069642025;4.807385990603379
1434;2022;;Hector ou Rien;;https://hectorourien.com/;;Samedi 17 et Dimanche 18 septembre /  12h et16h30 / Square Agricol Perdiguier;f;f;f;CHANTS pour CHANT#1;Square Agricol Perdiguier;https://lirp.cdn-website.com/e360ffe9/dms3rep/multi/opt/Bandeau-Chants-pour-chant-1920w.jpg;CONCERTS GRATUITS / ENTRÉE LIBRE ;https://www.chantspourchant.fr/programme-des-17-et-18-septembre;;;04 86 34 27 27;;;;;;;;;;;;Avignon Intra muros;;;;t;84007-journeesPatrimoine2022;845019.5847413669;6317852.253744277;4.806491049710682;43.94474301241031;43.94474301241031;4.806491049710682
1435;2022;;Corentin Grellier;;https://www.corentingrellier.com/;;Samedi 17 et Dimanche 18 septembre /  11h30 et 16h / Cour du Petit Palais;f;f;f;CHANTS pour CHANT#1;Cour du Petit Palais (Place du Palais);https://lirp.cdn-website.com/e360ffe9/dms3rep/multi/opt/Bandeau-Chants-pour-chant-1920w.jpg;CONCERTS GRATUITS / ENTRÉE LIBRE ;https://www.chantspourchant.fr/programme-des-17-et-18-septembre;;;04 86 34 27 27;;;;;;;;;;;;Avignon Intra muros;;;;t;84007-journeesPatrimoine2022;844999.4064889557;6318689.737451187;4.806478407638629;43.95228224577671;43.95228224577671;4.806478407638629
1436;2022;;Davy Kilembe;;https://fr-fr.facebook.com/davykilembe/;;Samedi 17 et Dimanche 18 septembre /  12h15 et 16h45 / Verger Urbain V;f;f;f;CHANTS pour CHANT#1;Verger Urbain V;https://lirp.cdn-website.com/e360ffe9/dms3rep/multi/opt/Bandeau-Chants-pour-chant-1920w.jpg;CONCERTS GRATUITS / ENTRÉE LIBRE ;https://www.chantspourchant.fr/programme-des-17-et-18-septembre;;;04 86 34 27 27;;;;;;;;;;;;Avignon Intra muros;;;;t;84007-journeesPatrimoine2022;845152.5542508455;6318503.476659701;4.8083326021518085;43.95057485680257;43.95057485680257;4.8083326021518085
1440;2022;;Lily Luca;;https://www.lilyluca.fr/;;Samedi 17 et Dimanche 18 septembre /  12h15 et 16h45 / Cour du Châtelet;f;f;f;CHANTS pour CHANT#1;Cour du Châtelet;https://lirp.cdn-website.com/e360ffe9/dms3rep/multi/opt/Bandeau-Chants-pour-chant-1920w.jpg;CONCERTS GRATUITS / ENTRÉE LIBRE ;https://www.chantspourchant.fr/programme-des-17-et-18-septembre;;;04 86 34 27 27;;;;;;;;;;;;Avignon Intra muros;;;;t;84007-journeesPatrimoine2022;844931.4557928017;6318759.930175389;4.805652131341501;43.95292777732757;43.95292777732757;4.805652131341501
1441;2022;;Arbas;;https://www.arbasmusic.fr/;;Samedi 17 et Dimanche 18 septembre /  13h et 17h30 / Palais du Roure;f;f;f;CHANTS pour CHANT#1;Palais du Roure;https://lirp.cdn-website.com/e360ffe9/dms3rep/multi/opt/Bandeau-Chants-pour-chant-1920w.jpg;CONCERTS GRATUITS / ENTRÉE LIBRE ;https://www.chantspourchant.fr/programme-des-17-et-18-septembre;;;04 86 34 27 27;;;;;;;;;;;;Avignon Intra muros;;;;t;84007-journeesPatrimoine2022;844924.2985494253;6318255.905024347;4.80541944202335;43.94839438538191;43.94839438538191;4.80541944202335
1442;2022;;Lula Heldt;;https://www.lulaheldt.com/;;Samedi 17 et Dimanche 18 septembre /  13h et 17h30 / Jardin du Cloître des Carmes;f;f;f;CHANTS pour CHANT#1;Jardin du Cloître des Carmes;https://lirp.cdn-website.com/e360ffe9/dms3rep/multi/opt/Bandeau-Chants-pour-chant-1920w.jpg;CONCERTS GRATUITS / ENTRÉE LIBRE ;https://www.chantspourchant.fr/programme-des-17-et-18-septembre;;;04 86 34 27 27;;;;;;;;;;;;Avignon Intra muros;;;;t;84007-journeesPatrimoine2022;845574.1417552828;6318581.947641304;4.813605408781356;43.951193873314175;43.951193873314175;4.813605408781356
1443;2022;;Emma Daumas;;https://emmadaumasofficiel.com/;;Samedi 17 septembre /  20h30 / Rouge Gorge Théâtre;f;f;f;CHANTS pour CHANT#1;Rouge Gorge Théâtre;https://lirp.cdn-website.com/e360ffe9/dms3rep/multi/opt/Bandeau-Chants-pour-chant-1920w.jpg;CONCERTS GRATUITS / ENTRÉE LIBRE ;https://www.chantspourchant.fr/programme-des-17-et-18-septembre;;;04 86 34 27 27;;;;;;;;;;;;Avignon Intra muros;;;;t;84007-journeesPatrimoine2022;845121.5970174458;6318457.256389224;4.807933885297889;43.95016537872441;43.95016537872441;4.807933885297889
1405;2022;24;Musée Vouland;Musée Vouland;;"Le 17 septembre à 14h30, 15h30,16h30 : Ateliers d’écriture animés par Isabelle Ronzier, médiatrice culturelle I 
Autour du thème « Patrimoine durable », Isabelle Ronzier vous propose trois ateliers d’écriture au jardin, en prélude au cycle d’écriture « Le Bonheur du samedi » qui ont lieu un samedi par mois au musée Vouland en 2022/23. 
14h30  Tiges, feuilles, fleurs et fruits
15h30 Les murs ont des oreilles 
16h30 Côté rue, côté jardin 
Des ateliers brefs de 40 minutes, pour goûter et tâter de l’écriture, avant de prolonger l’exercice tout au long de l’année !                  
                                                                                                                                                Le 16 sur RDV (scolaires), les 17 et 18 septembre de 13h à 18h : Les oiseaux de nos jardins
Ligue de Protection des Oiseaux I 
Ici, à côté des collections, nous protégeons la nature et le monde vivant : patrimoine ou bien commun ?
Venez découvrir quels sont les oiseaux que l’on peut observer au jardin. La Ligue de Protection des Oiseaux vous accueille autour de l’exposition « Les oiseaux de nos jardins » et vous initient à l’écologie et à l’ornithologie. Silence, on observe et on écoute !
Nous vous expliquerons aussi l’histoire du jardin du musée Vouland traversé par le Canal de Vaucluse, pourquoi il est Refuge de la Ligue de Protection des Oiseaux depuis 2021, et ce que cela implique.
                                                                                                                                          Visite accompagnée le 18 septembre à 14h30 : Un artiste, un collectionneur
Les œuvres du peintre paysagiste Marius Breuil né à Avignon en 1850, présentées dans l’exposition pas à pas auraient-elles été conservées sans la passion d’un collectionneur qui les a cherchées pendant plus de trente ans ? 
Cette visite met l’accent sur l’oubli et la découverte du patrimoine, sa conservation et sa transmission.
Venez à vélo : le musée est labellisé Accueil Vélo !

Visite-dialogue le 16 sur RDV (scolaires), les 17 et 18 septembre à 16h : Changer pour durer ?
Hier, aujourd’hui, demain 
Quelle que soit sa nature, le patrimoine se réfère à un héritage et au passé ; il induit la durée. Or, face aux enjeux contemporains, le thème « patrimoine durable » relie le patrimoine au développement durable. Comment développer des pratiques responsables et solidaires dans la conservation, la gestion et l’animation du patrimoine ? 
Nous proposons une visite-dialogue qui aborde patrimoines (bâti, matériel, culturel, immatériel, naturel) et nouvelles pratiques à partir du musée Vouland. 
Ce musée avignonnais a 40 ans cette année et conserve une collection d’Arts décoratifs des XVIIe et XVIIIe siècles, réunie au XXe siècle par Louis Vouland dans son hôtel particulier du XIXe siècle !
On en reparlera dans dix ans ?
                                                                                                                                        Venez à vélo : le musée est labellisé Accueil Vélo !                                                       ";Participation libre et solidaire.                                      Sur inscription au 04 90 86 03 79 ou à musee.vouland@wanadoo.fr;f;f;f;AUTRES MUSEES ET SITES PARTENAIRES;17 rue Victor Hugo 84000 AVIGNON;;Gratuit;www.vouland.com;;musee.vouland@wanadoo.fr;04 90 86 03 79;musee.vouland@wanadoo.fr;04 90 86 03 81;20220718155022.711834;20220718155022.711973;;84007;218400075;Mairie Avignon / Pôle Vivre Ensemble / DPT Culture;LO;;Tableau XLS du service métier, intégration et gécodage SIG;Avignon Intra muros;manuelle;1.0;;t;84007-journeesPatrimoine2022;844541.0460147109;6318127.149762244;4.800610094596972;43.94731468698438;43.94731468698438;4.800610094596972
1382;2022;1;Visites guidées du chantier de la Piscine Jean Clément ;;"
Dans le cadre du plan Avignon Ambition Piscine, des grands chantiers de réhabilitation des piscines municipales sont lancés depuis 2021. Ce vaste programme de rénovation apportera également une réponse qualitative sur le plan environnemental, la maîtrise des coûts de fonctionnement et s'orientera autour de cinq axes principaux :  remettre aux normes le parc aquatique, répondre aux besoins d'apprentissage, améliorer le confort des usagers, dynamiser l'attractivité des piscines de quartiers et le développement de leur fréquentation, maîtriser l'énergie et les coûts de fonctionnement. La Piscine Jean Clément sera rénovée intégralement en intégrant les problématiques tel que la gestion de l’enveloppe thermique, traitement des eaux et de l’air…";Visite guidée;Visites guidées par groupe de 20 personnes maximum avec deux visites le samedi 17 et le dimanche 18 septembre : de 14h à 14h30 et de 14h30 à 15h. Réservation au 04 90 80 80 07 ;f;f;f;VISITES INEDITES 2022;305 Chemin de la Martelle                84140 AVIGNON;;Gratuit;;;;;;04 90 80 80 07;20220718155020.158699;20220718155020.158832;;84007;218400075;Mairie Avignon / Pôle Vivre Ensemble / DPT Culture;LO;;Tableau XLS du service métier, intégration et gécodage SIG;Avignon Montfavet;manuelle;1.0;;t;84007-journeesPatrimoine2022;850805.8437264697;6317433.610369194;4.878419057782721;43.93976146252416;43.93976146252416;4.878419057782721
1383;2022;2;Visites guidées du chantier de la Bibliothèque Jean Louis Barrault ;;La future Bibliothèque Jean-Louis Barrault est à l’image de l’arbre. Comme lui, ce nouvel équipement puise dans ses racines et dans son environnement pour mieux s’adapter et permettre la construction d’un réseau de connaissances. Cabanes haut perchées pour certains, lectures ombragées en quête de cimes pour d’autres, la Bibliothèque Jean-Louis Barrault incarnera un espace d’évasion, de rencontre et d’inspiration au travers d’une ambiance singulière empreinte de symboliques. Le développement durable tient une place principale dans ce grand renouveau.;Visite guidée;Renseignements et réservation au 04 90 80 80 07 ;f;f;f;VISITES INEDITES 2022;6 rue Perrin Morel 84140 AVIGNON;;Gratuit;;;;;;04 90 80 80 07;20220718155022.619742;20220718155022.61988;;84007;218400075;Mairie Avignon / Pôle Vivre Ensemble / DPT Culture;LO;;Tableau XLS du service métier, intégration et gécodage SIG;Avignon Nord rocade;manuelle;1.0;;t;84007-journeesPatrimoine2022;846244.450663205;6316241.879178902;4.821281053219375;43.93000094150648;43.93000094150648;4.821281053219375
1401;2022;20;Archives départementales de Vaucluse;Archives départementales de Vaucluse;;"Escape Game aux Archives
Les Archives départementales proposent de vous laisser piéger dans les parties du palais des Papes qu’elles occupent. Saurez-vous en échapper ? Vous n’aurez qu’une heure pour résoudre les énigmes, obtenir les amulettes et récupérer la clé de la liberté !";"Durée 1h – Equipes de 6 personnes maximum – Entrée libre
Inscriptions Obligatoires archivess84@vaucluse.fr - 04 90 86 16 18 – https://archives.vaucluse.fr";t;t;f;CONSEIL DEPARTEMENTAL DE VAUCLUSE ET HOTEL PREFECTORAL DE VAUCLUSE;Palais des Papes    Place du Palais      84000 AVIGNON;;Gratuit;http://archives.vaucluse.fr;;;04 90 86 16 18;;04 90 86 71 72;20220718155022.69052;20220718155022.690612;;84007;218400075;Mairie Avignon / Pôle Vivre Ensemble / DPT Culture;LO;;Tableau XLS du service métier, intégration et gécodage SIG;Avignon Intra muros;manuelle;1.0;;t;84007-journeesPatrimoine2022;845059.5939915865;6318543.987034513;4.807186442116591;43.95095849211742;43.95095849211742;4.807186442116591
1384;2022;3;Avignon : ville historique à engagement durable;Parcours de visites avec Avignon Tourisme;"Samedi 17 septembre à 14h30 et dimanche 18 septembre à 10h30 
Avignon, ville historique marquée par son patrimoine exceptionnel, inscrite au patrimoine mondial par l’UNESCO est également résolument tournée vers l’avenir et soucieuse de celui-ci. La Ville a mis en place un Plan Local pour le climat qui propose des actions simples à mettre en œuvre.
A travers cette balade d’1h30 environ, votre guide vous racontera l’Avignon d’hier-d’aujourd’hui-de demain.";Visite guidée;"Samedi 17 septembre à 14h30 et dimanche 18 septembre à 10h30.     RDV Lieu de départ : Office de Tourisme Se présenter 10 minutes avant le début de la visite. 
La visite se déroule en extérieur. 
Inscription obligatoire auprès de l’OFFICE DE TOURISME – www.avignon-tourisme.com ";t;f;f;VISITES INEDITES 2022;41 Cours Jean Jaurès 84000 AVIGNON;;Gratuit Palais des Papes ;www.avignon-tourisme.com;;www.avignon-tourisme.com;;www.avignon-tourisme.com;;20220718155022.623527;20220718155022.62362;;84007;218400075;Mairie Avignon / Pôle Vivre Ensemble / DPT Culture;LO;;Tableau XLS du service métier, intégration et gécodage SIG;Avignon Intra muros;manuelle;1.0;;t;84007-journeesPatrimoine2022;844954.9040969418;6317870.475128161;4.805690801480807;43.94492026816027;43.94492026816027;4.805690801480807
1386;2022;5;Visite de l’église et du cloître des Célestins;Visite de l'église et du cloître des Célestins;Découverte du cloître des Célestins, haut lieu de la ville d’Avignon et symbole des relations tumultueuses entre la Papauté d’Avignon et le Royaume de France.;Visite guidée;"Samedi et dimanche de 10h à 12h et de 14h à 16h :

Réservation au 04 90 80 80 07 ou à culture@mairie-avignon.com par groupe de 20 personnes 
Rendez-vous Place des Corps Saints.";f;t;f;VISITES INEDITES 2022;Place des                    Corps Saints            84000 AVIGNON;;Gratuit;;;;;culture@mairie-avignon.com;04 90 80 80 07;20220718155022.629909;20220718155022.630001;;84007;218400075;Mairie Avignon / Pôle Vivre Ensemble / DPT Culture;LO;;Tableau XLS du service métier, intégration et gécodage SIG;Avignon Intra muros;manuelle;1.0;;t;84007-journeesPatrimoine2022;845115.371478024;6317732.922163146;4.807649812791179;43.94364962881959;43.94364962881959;4.807649812791179
1388;2022;7;Manutention;;"Du 8 au 25 septembre 2022 : SOCIETE FRANÇAISE DE L’AQUARELLE « Ponts et déchirures »
L'aquarelle est une écriture ""d'eau et d'âme"", une écriture de la trace, de l'évocation, et si l'on y associe d'autres écritures : celle des mots avec la poésie de René Char, des graphismes avec la calligraphie, et celle en devenir des jeunes de nos écoles, nous avançons dans une ECRITURE SENSIBLE, un support relationnel, lien, un pont universel pour dépasser nos déchirures …et entrer en résilience. Ainsi, notre rôle d’artistes contemporains, nous conduira lors de cette exposition au Cloître St Louis à développer cette recherche à travers la réunion des œuvres de nos meilleurs artistes aquarellistes français, témoins et acteurs de notre actualité, dans la grande diversité de leurs écritures.   Par ailleurs, la ville d’Avignon par la symbolique de ses ponts, nous a amené à rechercher des liens locaux, des ponts que nous allons créer et développer avec les acteurs du passé et du présent avignonnais : l’œuvre du poète René Char, les enfants de la classe de CM avec leur institutrice Maud Bertrand de l'école St Roch d'Avignon qui exposeront à nos côtés ainsi que la prestation d'une artiste calligraphe avignonnaise.  Un calendrier de rencontres avec le public sera établi. ";;Tous les jours de 14h à 18h30, sauf les lundis ;f;f;f;LES EXPOSITIONS DU QUARTET, PARC ET JARDINS;4, rue des Escaliers Sainte-Anne            84000 AVIGNON;;Gratuit;;;;;;;20220718155022.642129;20220718155022.642221;;84007;218400075;Mairie Avignon / Pôle Vivre Ensemble / DPT Culture;LO;;Tableau XLS du service métier, intégration et gécodage SIG;Avignon Intra muros;manuelle;1.0;;t;84007-journeesPatrimoine2022;845184.0576373492;6318607.236631035;4.808754543968864;43.951501922496796;43.951501922496796;4.808754543968864
1389;2022;8;Exposition « Trois héritages d’exception »;;La ville d’Avignon a reçu consécutivement entre 2016 et 2018 trois legs ou donations de la part de trois femmes : Elizabeth Pommer, Michèle Azémar et Françoise Taillandier. Les Bains Pommer et l’Hôtel de Beaumont sont classés partiellement ou en totalité monuments historiques tandis que les œuvres de Yvon Taillandier offrent une collection protéiforme et unique. Les Bains Pommer et l’Hôtel de Beaumont sont en cours de restauration pour devenir à terme des lieux de découverte culturelle.;;;f;f;f;LES EXPOSITIONS DU QUARTET, PARC ET JARDINS;Square Agricol Perdiguier                  Cours Jean Jaures 84000 AVIGNON;;Gratuit;;;;;;;20220718155022.644872;20220718155022.644962;;84007;218400075;Mairie Avignon / Pôle Vivre Ensemble / DPT Culture;LO;;Tableau XLS du service métier, intégration et gécodage SIG;Avignon Intra muros;manuelle;1.0;;t;84007-journeesPatrimoine2022;844963.8722091245;6317827.704131597;4.8057902951986815;43.9445336005747;43.9445336005747;4.8057902951986815
1387;2022;6;Cloître Saint-Louis;;"Du 8 au 25 septembre 2022 : SOCIETE FRANÇAISE DE L’AQUARELLE « Ponts et déchirures »
L'aquarelle est une écriture ""d'eau et d'âme"", une écriture de la trace, de l'évocation, et si l'on y associe d'autres écritures : celle des mots avec la poésie de René Char, des graphismes avec la calligraphie, et celle en devenir des jeunes de nos écoles, nous avançons dans une ECRITURE SENSIBLE, un support relationnel, lien, un pont universel pour dépasser nos déchirures …et entrer en résilience. Ainsi, notre rôle d’artistes contemporains, nous conduira lors de cette exposition au Cloître St Louis à développer cette recherche à travers la réunion des œuvres de nos meilleurs artistes aquarellistes français, témoins et acteurs de notre actualité, dans la grande diversité de leurs écritures.   Par ailleurs, la ville d’Avignon par la symbolique de ses ponts, nous a amené à rechercher des liens locaux, des ponts que nous allons créer et développer avec les acteurs du passé et du présent avignonnais : l’œuvre du poète René Char, les enfants de la classe de CM avec leur institutrice Maud Bertrand de l'école St Roch d'Avignon qui exposeront à nos côtés ainsi que la prestation d'une artiste calligraphe avignonnaise.  Un calendrier de rencontres avec le public sera établi. ";;Tous les jours de 14h à 18h30, sauf les lundis ;f;t;f;LES EXPOSITIONS DU QUARTET, PARC ET JARDINS;20 rue du Portail Boquier                       84000 AVIGNON;;Gratuit;;;;;;;20220718155022.638059;20220718155022.638152;;84007;218400075;Mairie Avignon / Pôle Vivre Ensemble / DPT Culture;LO;;Tableau XLS du service métier, intégration et gécodage SIG;Avignon Intra muros;manuelle;1.0;;t;84007-journeesPatrimoine2022;844868.5927756749;6317731.356693501;4.804576405126583;43.94368633852642;43.94368633852642;4.804576405126583
1392;2022;11;Palais du Roure;Palais du Roure;"Samedi 17 et dimanche 18 septembre de 10h-13h et de 14h-18h ou 19h
Exposition Photographies de Camargue par Pierre Aubanel
Le Palais du Roure va présenter en ses murs une exposition Photographies de Camargue donnant à connaitre Pierre Aubanel (1938-2018), descendant de la famille Baroncelli, manadier et photographe.
Inventaire participatif : « Qui est-ce ? Finalisez l’identification des photos provençales du don Philippe et Maïté Laurent »
Les époux Laurent ont fait don de plus de 10 500 clichés datant de 1901 à 2007 et portant sur la culture provençale. Toutes les personnes photographiées n’ont pas pu être identifiées. Amis avignonnais, vous en connaissez certains : venez nous aider !
Action : Visite libre en famille « Au Roure en famille »
A l’aide d’un livret-jeu, les enfants découvrent de manière ludique les collections du parcours libre du Palais du Roure.";;"Gratuit;
Samedi et dimanche de 10h à 13h et de 14h à 18h ou 19h





";f;t;f;HOTEL DE VILLE ET BATIMENTS MUNICIPAUX;3 rue du Collège du Roure                           84000 AVIGNON;;Gratuit;www.avignon.fr;;palais.roure@mairie-avignon.vom;04 13 60 50 01;;;20220718155022.655942;20220718155022.656031;;84007;218400075;Mairie Avignon / Pôle Vivre Ensemble / DPT Culture;LO;;Tableau XLS du service métier, intégration et gécodage SIG;Avignon Intra muros;manuelle;1.0;;t;84007-journeesPatrimoine2022;844933.8442975271;6318271.640742092;4.8055427999999925;43.94853400002231;43.94853400002231;4.8055427999999925
1393;2022;12;Musée Lapidaire;Musée Lapidaire;"Collections archéologiques du Musée Calvet
Fleuron de l’architecture baroque, œuvre de deux éminents architectes, Etienne Martellange et François des Royers de la Valfenière, l’ancienne chapelle du collègue des Jésuites est depuis 1933  consacrée à la présentation des collections archéologiques du Musée Calvet.
Outre des sculptures celtiques tels la fameuse « Tarasque » de Noves et le « guerrier » de Mondragon, acquis par la Fondation Calvet au XIXe siècle, le Musée Lapidaire permet de découvrir une très riche collection d’œuvres grecques et gallo-romaines. La section égyptienne située dans la nef de l’édifice, se distingue par un remarquable groupe de stèles funéraires mais aussi par l’exceptionnelle présence d’une momie d’enfant dont seulement une dizaine d’exemplaires est à ce jour visible dans le monde. Une mosaïque gallo-romaine, récemment installée dans le chœur de l’édifice, complète le panorama des civilisations de l’Antiquité.";"
Samedi 17 septembre à 11h, 12h, 14h et 15h : Visite animée « le destin des œuvres : d’hier à demain », par Marie PARUSSOLO, médiatrice culturelle
Voyager dans le temps et découvrir les liens qui existent entre nous et les œuvres de l’Antiquité, la manière dont elles font partie de notre vie et de notre quotidien et sont de grandes sources d’inspiration.
Enfant à partir de 6 ans avec un accompagnateur. Dans la limite des places disponibles. 
Durée : 45 min. 
Samedi 17 à 16h30 et dimanche 18 septembre à 11h : Visite « Le réemploi : patrimoine durable ? », par Benoît MARTIN, chargé de collections du Musée Calvet
L’édition 2022 consacrée au Patrimoine durable nous a conduit à interroger la notion du réemploi dans l’architecture et l’art, le Musée Lapidaire illustrant parfaitement un cas de réutilisation des bâtiments et proposant, de manière moins connue, des réemplois d’œuvres. Le public pourra découvrir sous la forme d’une visite guidée, que le bâtiment qui abrite aujourd’hui les collections archéologiques du Musée Calvet n’est autre que l’ancienne chapelle du collège des jésuites et que certaines œuvres présentées portent les traces visibles de réutilisations à des périodes et pour des usages différents. Une manière ludique et curieuse de renouveler notre regard sur notre patrimoine.
Durée : 45 min.

Samedi 17 et dimanche 18 de 10h à 13h et de 14h à 19h :
 Exposition-parcours « Des compagnons pour la vie et pour l’éternité »
A l’occasion de ces Journées européennes du Patrimoine découvrez ou redécouvrez l’exposition « Des compagnons pour la vie et pour l’éternité », qui vous invite à la rencontre des différentes représentations de l’animal dans les collections archéologiques du Musée Lapidaire.
Livret-jeux autour de l’exposition « Des compagnons pour la vie et pour l’éternité »
Le livret est disponible à l’accueil du Musée Lapidaire pour accompagner la visite des plus jeunes de façon ludique et créative.";Gratuit ;f;t;t;HOTEL DE VILLE ET BATIMENTS MUNICIPAUX;27  Rue de la République               84000 AVIGNON;;Gratuit;http://www.musee-lapidaire.org/;Accès handicapés moteurs partiel;;04 90 85 75 38;;;20220718155022.658706;20220718155022.658796;;84007;218400075;Mairie Avignon / Pôle Vivre Ensemble / DPT Culture;LO;;Tableau XLS du service métier, intégration et gécodage SIG;Avignon Intra muros;manuelle;1.0;;t;84007-journeesPatrimoine2022;844971.5869802027;6317978.071624687;4.8059291950289404;43.94588490959521;43.94588490959521;4.8059291950289404
1394;2022;13;Musée du Petit Palais;Musée du Petit Palais;Ouvert depuis 1976, le musée du Petit Palais propose au public des collections provenant de deux origines distinctes : la collection de peintures italiennes rassemblées par le marquis Campana dans la première moitié du XIXe siècle et constituant un dépôt exceptionnel du musée du Louvre et un ensemble de peintures et sculptures provençales du Moyen Âge déposées par la Fondation Calvet. Installé dans l’ancien palais des archevêques, dont la construction commence au début du XIVe siècle lors de l’installation de la papauté à Avignon, le musée du Petit Palais jouit d’un emplacement prestigieux sur la place du Palais des Papes, au cœur du site inscrit sur la liste du patrimoine mondial de l’Unesco. Grâce à cette situation exceptionnelle et à la qualité de ses collections, le musée du Petit Palais peut s’enorgueillir d’être l’un des grands musées européens du Moyen Âge.;"Samedi 17 septembre à 11h et dimanche 18 septembre à 11h : 
Des œuvres à l’épreuve du temps : restauration et durabilité :
S’il est bien un domaine dans lequel on associe durabilité et patrimoine c’est celui de la conservation-restauration, on pourrait même penser que la durabilité est en quelque sorte inscrite dans l’ADN de la restauration des œuvres d’art. Il n’en a pas toujours été ainsi. 
À travers l’exemple de quelques œuvres de la collection du musée du Petit Palais venez découvrir les différentes approches de la restauration au fil du temps et comment aujourd’hui on concilie restauration et durabilité.
Sur inscription au 04 90 86 44 58

Visite libre de l’exposition Les merveilleuses histoires de Thésée 
Depuis sa création en 1976, le musée du Petit Palais présente une très fameuse série de quatre cassoni, coffres de mariage, qui raconte avec force détails l’histoire de Thésée et du Minotaure. Récemment redécouvert un 5ème et un 6ème pannea (déposé par le musée du Louvre pour l’un et prêté par un collectionneur privé pour l’autre) viennent compléter de manière exceptionnelle cet ensemble. L’exposition présente l’histoire matérielle de cette œuvre recomposée mais aussi une nouvelle lecture de sa signification convoquant histoire et littérature.
Samedi 17 septembre à 15h et dimanche 18 septembre à 15h : Visite guidée de l’exposition Les merveilleuses histoires de Thésée sur inscription au 04 90 86 44 58
Samedi 17 septembre à 10h30 et à 14h30 : Découverte en famille de l’exposition Les merveilleuses histoires de Thésée
Petits et grands sont invités à embarquer pour une aventure mythologique unique : Les merveilleuses histoires de Thésée. Venez découvrir en famille, des extraits des Métamorphoses d’Ovide en résonance avec six panneaux peints représentant le cycle de Thésée.
Sur réservation au 04 90 86 44 58, nombre de places limité (enfants à partir de 6 ans)";"Samedi 17 septembre à 11h et dimanche 18 septembre à 11h : 
Des œuvres à l’épreuve du temps : restauration et durabilité :Sur inscription au 04 90 86 44 58   Samedi 17 septembre à 15h et dimanche 18 septembre à 15h : Visite guidée de l’exposition Les merveilleuses histoires de Thésée sur inscription au 04 90 86 44 58
Samedi 17 septembre à 10h30 et à 14h30 : Découverte en famille de l’exposition Les merveilleuses histoires de Thésée
Sur réservation au 04 90 86 44 58, nombre de places limité (enfants à partir de 6 ans).";t;t;t;HOTEL DE VILLE ET BATIMENTS MUNICIPAUX;Palais des Archevêques            Place du Palais des Papes                               84000 AVIGNON;;Gratuit;www.petit-palais.org;;musee.petitpalais@mairie-avignon.com;04 90 86 44 58;;;20220718155022.662843;20220718155022.662945;;84007;218400075;Mairie Avignon / Pôle Vivre Ensemble / DPT Culture;LO;;Tableau XLS du service métier, intégration et gécodage SIG;Avignon Intra muros;manuelle;1.0;;t;84007-journeesPatrimoine2022;845011.5202745146;6318725.264562948;4.80663939999999;43.95259940002227;43.95259940002227;4.80663939999999
1395;2022;14;Musée Calvet;Musée Calvet;Collections Beaux-arts      Le musée Calvet, né du legs consenti par Esprit Calvet (1728-1810), médecin, érudit et curieux avignonnais, à la Fondation Calvet, est abrité dans l’ancien Hôtel de Villeneuve-Martignan, acquis par la Ville en 1833. Ce majestueux édifice du XVIIIe siècle, construit entre cour et jardin nouvellement restauré, sert aujourd’hui d’écrin à une riche collection de peintures, sculptures et arts décoratifs allant du XVe au XXe siècle. ;"Samedi 17 septembre 2022 :
11h-12h : Visite « Reconstituer un jardin historique : entre patrimoine matériel et immatériel », par Sarah BASSEN-PEREZ, chargée de collections du Musée Calvet et Romain LESTRUHAUT, jardinier d’art
Partez à la (re)découverte du jardin du Musée Calvet suite aux récents travaux de reconstitution de cet écrin de verdure. Cette visite à deux voix propose d’appréhender, grâce à un double regard d’historien d’art et de jardinier d’art, les enjeux de cette restitution, entre témoignages historiques et transmission orale. 
Dans la limite des places disponibles.

11h-13h et 14h-18h : Atelier famille (en accès libre), par Katia HOLTZ, médiatrice culturelle
Nous vous proposons de partager un moment complice de découverte, avec sensibilité et créativité.
Enfant à partir de 6 ans avec un accompagnateur. 
Dans la limite des places disponibles. 
Durée de l’atelier : environ 30 min. 

10h-13h et 14h-18h : Coin détente, lecture et création (en accès libre)
Les enfants profiteront pleinement des activités concoctées pour eux : découvrir une sélection d’ouvrages jeunesses ou participer à un concours de dessin.


10h-13h et 14h-19h : Espace famille (en accès libre)
Venez profiter de l’espace famille installé au cœur du musée Calvet qui offre aux petits et aux grands la possibilité de faire une pause ludique à partager en famille : du dessin aux jeux, en passant par un photobooth.

10h-13h et 14h-19h : Exposition-parcours « L’animal : représentations et significations »
Au travers d’un parcours entre les œuvres issues des réserves et celles exposées dans les salles d’exposition permanente, vous découvrirez les différentes significations de la représentation de l’animal dans les collections du Musée Calvet.  

Dimanche 18 septembre 2022
16h30-17h30 : Visite « Reconstituer un jardin historique : entre patrimoine matériel et immaté-riel », par Sarah BASSEN-PEREZ, chargée de collections du Musée Calvet et Romain LESTRUHAUT, jardinier d’art
Partez à la (re)découverte du jardin du Musée Calvet suite aux récents travaux de reconstitution de cet écrin de verdure. Cette visite à deux voix propose d’appréhender, grâce à un double regard d’historien d’art et de jardinier d’art, les enjeux de cette restitution, entre témoignages historiques et transmission orale. 
Dans la limite des places disponibles.

11h-13h et 14h-18h : Atelier famille (en accès libre), par Katia HOLTZ, médiatrice culturelle
Nous vous proposons de partager un moment complice de découverte, avec sensibilité et créativité.
Enfant à partir de 6 ans avec un accompagnateur. 
Dans la limite des places disponibles. Durée de l’atelier : environ 30 min. 

10h-13h et 14h-18h : Coin détente, lecture et création (en accès libre)
Les enfants profiteront pleinement des activités concoctées pour eux : découvrir une sélection d’ouvrages jeunesses ou participer à un concours de dessin.

10h-13h et 14h-19h : Espace famille (en accès libre)
Venez profiter de l’espace famille installé au cœur du musée Calvet qui offre aux petits et aux grands la possibilité de faire une pause ludique à partager en famille : du dessin aux jeux, en passant par un photobooth.

10h-13h et 14h-19h : Exposition-parcours « L’animal : représentations et significations »
Au travers d’un parcours entre les œuvres issues des réserves et celles exposées dans les salles d’exposition permanente, vous découvrirez les différentes significations de la représentation de l’animal dans les collections du Musée Calvet.  ";Gratuit – entrée libre sauf activité dans la limite des places disponibles;f;t;t;HOTEL DE VILLE ET BATIMENTS MUNICIPAUX;65 Rue Joseph Vernet 84000 AVIGNON;;Gratuit;www.musee-calvet.org;;musee.calvet@mairie-avignon.com;04 90 86 33 84;;;20220718155022.666528;20220718155022.666623;;84007;218400075;Mairie Avignon / Pôle Vivre Ensemble / DPT Culture;LO;;Tableau XLS du service métier, intégration et gécodage SIG;Avignon Intra muros;manuelle;1.0;;t;84007-journeesPatrimoine2022;844767.3359624147;6318096.894525303;4.803419500000007;43.946996000022295;43.946996000022295;4.803419500000007
1396;2022;15;Muséum  Requien;Muséum et Bibliothèque Requien;"Le Museum Requien porte le nom de son fondateur Esprit Requien (1788- 1851) qui, passionné de sciences naturelles, de beaux-arts et bibliophile averti donna ses collections à la Fondation Calvet pour les offrir à ses concitoyens. Les collections d’histoire naturelle, rassemblées en l’hôtel de Raphaélis de Soissans, comptent plusieurs centaines de milliers d’échantillons, le seul herbier de Requien comptabilise environ 300.000 plantes. Depuis lors, les dons de particuliers ou d’associations et les achats de la Fondation Calvet n’ont pas cessé et sont venus enrichir cet ensemble naturaliste de tout premier ordre. C’est aussi un centre de recherches reconnu internationalement.« Le Patrimoine scientifique pour tous : à la découverte de Rose Escoffier »
Rose Escoffier née Guérin, était une géologue et paléontologue originaire d’Avignon, qui est présente de nos jours à travers ses collections qui appartiennent à la Fondation Calvet. Elle était également concernée par la botanique, puisqu’elle a constitué un petit herbier.

";"Samedi 17 et dimanche 18 septembre selon horaires d’ouverture du muséum
À 10h30, 14h et 16h : L’herbier d’Esprit Requien, un patrimoine de nature.
Propriété de la Fondation Calvet, l’herbier d’Esprit Requien (1788-1851) est un monument botanique. Soutenue par le Ministère de l’Enseignement supérieur et de la Recherche, la Ville d’Avignon a commencé son conditionnement, avec l’aide de bénévoles. Ce travail minutieux sur des plantes du XIXe siècle constitue une très bonne initiation à la création d’un herbier, de nos jours. Il est aussi le préalable à une meilleure connaissance de la biodiversité passée, pour mieux nous éclairer sur l’évolution de la flore actuelle.
Sur inscription préalable obligatoire au 04 13 60 51 20, à partir de 16 ans. Durée : 1h45 comprenant une formationExposition.                                                                                                   Du 23 août au 24 septembre, Isabelle Rochemars présente ses œuvres au Muséum Requien. Elle y représente les diatomées issues de ses observations. Ces algues unicellulaires, d’une beauté inspirante, se trouvent aussi bien dans l’eau de mer que dans l’eau douce de nos cours d’eau ou nos étangs. C’est avec de la poudre de diatomées, que l’artiste peint, sur fond noir, ces sujets qui aident les scientifiques à mieux comprendre le passé.

Exposition « Les enfants d’Avignon s’exposent ! »
Au cours de l’été 2022, dans différents parcs, les enfants d’Avignon ont pu bénéficier d’ateliers avec des artistes organisés par le Département de la Jeunesse de la Ville d’Avignon. Les œuvres en lien avec les sciences naturelles sont ainsi mises en place par l’artiste Carole Challeau, à travers les expositions permanentes du Muséum Requien.";"Gratuit

";f;f;t;HOTEL DE VILLE ET BATIMENTS MUNICIPAUX;67 Rue Joseph Vernet 84000 AVIGNON;;Gratuit;www.museum-requien.org;Accès handicapés moteurs partiel;musee.requien@mairie-avignon.com;04 90 82 43 51;;;20220718155022.670247;20220718155022.670399;;84007;218400075;Mairie Avignon / Pôle Vivre Ensemble / DPT Culture;LO;;Tableau XLS du service métier, intégration et gécodage SIG;Avignon Intra muros;manuelle;1.0;;t;84007-journeesPatrimoine2022;844766.2939072164;6318063.416180575;4.803397;43.94669500002229;43.94669500002229;4.803397
1397;2022;16;Archives municipales - Ancien Mont-de-piété;Archives municipales - Ancien Mont-de-piété;Les Archives municipales sont un service public administratif, culturel et patrimonial. Grenier de la mémoire, elles s’attachent à faciliter l’accès de tous aux 7 km de documents collectés, pour la recherche scientifique ou pour le plaisir. Elles organisent régulièrement des expositions sur l’histoire de la ville et de ses habitants. Les Archives sont installées depuis 1986 dans l’ancien Mont-de-piété d’Avignon. Situé dans l’ancienne chapelle, un espace muséal présente des objets, des œuvres et des documents retraçant l’histoire du plus ancien mont-de-piété de France (1610) et de l’établissement dédié au conditionnement des soies que ses administrateurs ont créé en 1801.;"Samedi 17 et dimanche 18 septembre - De 14h à 18h
Du plus ancien mont de piété de France aux Archives de la Ville d’Avignon ? Demandez les sous-titres !
Au cœur des collections présentées dans l’ancienne chapelle du Mont-de-piété (rue Saluces) devenu musée, de courtes conférences « flash » vous permettront de comprendre l’articulation entre ces institutions reliées par la destinée d’un bâtiment singulier.
15-20 minutes. 

Patrimoine durable ? Les archives à l’épreuve du temps
La thématique nationale des Journées du patrimoine se décline aux Archives. Au cœur des coulisses des Archives de la Ville, dialoguez avec les archivistes et découvrez comment ces « passeurs de mémoire » défient le temps pour transmettre le patrimoine aux générations futures.

« Devantures et pas de porte » : découverte de la nouvelle exposition des Archives de la Ville et jeux
Grâce à un corpus de documents conservés aux Archives d’Avignon (cartes postales, photographies, dessins), cette exposition en plein air met en lumière ces espaces de représentation et de rencontre que sont les devantures de commerces et les pas de porte de maisons et d’immeubles et interroge leur évolution depuis le XIXe siècle.
Visite libre ou visite ludique : à vous de choisir ! L’équipe des Archives vous propose des jeux en famille, entre amis ou en solo pour aiguisez votre sens de l’observation et parcourir l’exposition autrement. Alors, perdez-vous à la boucherie, rendez-vous au bistrot, ne passez pas par la case boulangerie et arrêtez-vous sur le perron du 4 !
Jeux de 15-20 minutes. Tous publics.

Samedi 17 septembre – de 14h à 18h
Prendre la pose (presque) comme au XIXe siècle
A la façon des photographes ambulants de la fin du XIXe siècle qui étaient rétribués par les habitants posant devant leur commerce, dans leur rue, ou à la terrasse de leur café de quartier, Thomas Bohl, missionné par les Archives municipales, réalisera des portraits à la chambre argentique dans la cour des Archives.
Cour des Archives municipales – Dans la limite des places disponibles – Pas d’inscription préalable possible

Dimanche 18 septembre – 14h15, 15h30, 16h45
Prendre une photographie (presque) comme au XIXème siècle 
Venez en famille, en duo ou en trio découvrir ce qu’est un sténopé et réaliser le vôtre, du chargement de l’appareil au développement.
Ateliers animés par Camille Tomas, médiatrice des Archives municipales
Durée : 1 heure – RDV dans la salle pédagogique des Archives municipales
4 petits groupes simultanément. A partir de 8-9 ans (les enfants doivent être accompagnés d’un adulte)
Inscription recommandée : jusqu’au vendredi 16/09 : 04 90 86 53 12 / archives.municipales@mairie-avignon.com. Sur place aux horaires d’ouverture. Dans la limite des places disponibles
";Samedi et dimanche de 14h à 18h;f;f;f;HOTEL DE VILLE ET BATIMENTS MUNICIPAUX;6 Rue Saluces        84000 AVIGNON;;Gratuit;www.avignon.fr;Accès handicapé moteur partiel;archives.municipales@mairie-avignon.com;04 90 86 53 12;;;20220718155022.673969;20220718155022.674062;;84007;218400075;Mairie Avignon / Pôle Vivre Ensemble / DPT Culture;LO;;Tableau XLS du service métier, intégration et gécodage SIG;Avignon Intra muros;manuelle;1.0;;t;84007-journeesPatrimoine2022;845346.4594162795;6318455.544371351;4.810733764834121;43.95010360891938;43.95010360891938;4.810733764834121
1398;2022;17;Bibliothèque Ceccano;Bibliothèque Ceccano;"Venez découvrir ou redécouvrir le magnifique bâtiment qui abrite aujourd'hui le site centre-ville d'Avignon Bibliothèques. Successivement palais (« livrée ») de cardinaux au 14e siècle puis collège des Jésuites du 16e au 18e siècle, il permet d’admirer des plafonds peints et des peintures murales du 14e siècle remarquablement conservés.
";"Samedi 17 et dimanche 18 septembre : Jouons au patrimoine !
Samedi 17 septembre 2022, 10h30 : Café-philo : peut-on habiter un monde sans ruines ?
Les Journées Européennes du Patrimoine sont l’occasion de poser notre regard sur les monuments et leur histoire. Mais que disent ces bâtiments de notre rapport au temps ? Leur conservation ou leur dégradation ne dit-elle pas quelque chose de notre monde et de notre façon de l’habiter ? 
Réservation obligatoire à cette adresse : bm.patrimoine@mairie-avignon.com , à partir de 16 ans, durée 1h30




Dimanche 18 septembre à 10h15 et à 11h : Atelier « Découvre ton enluminure ! »
Découvre comment les images du Moyen-Âge (les « enluminures ») étaient peintes avec des pigments naturels et, parfois, de l’or, et colorie ensuite ton enluminure, que tu pourras emporter à la maison !
A partir de 6 ans, durée 45 min
Dimanche 18 septembre à 14h30, 15h30 et 16h30 : Atelier « Fabrication d’un carnet cousu ! »
Venez apprendre avec Yohanna Doudoux, relieuse et restauratrice, à confectionner vous-même un carnet ! 
A partir de 9 ans, durée 45 min

Dimanche 18 septembre à 14h30 et à 16h30 : Présentation de documents patrimoniaux
Venez découvrir les trésors cachés des collections patrimoniales conservées à la bibliothèque Ceccano !
Nous vous proposons une présentation de documents patrimoniaux à travers le prisme de la conservation durable et de la restauration, à deux voix, avec Amandine Camp, restauratrice de livres anciens, et Marina Redondo, bibliothécaire du service Patrimoine. 
Gratuit, entrée libre dans la limite des places disponibles (groupes de 15 personnes maximum), durée 1h

Dimanche 18 septembre de 10h à 18h : Visite guidée de la livrée Ceccano
Visite du bâtiment (livrée cardinalice du 14e siècle, collège des Jésuites des 16e-18e siècles, plafonds peints et peintures murales du 14e siècle) : venez découvrir ou redécouvrir le magnifique bâtiment qui abrite aujourd'hui le site centre-ville d'Avignon Bibliothèques, en profitant d’un accès à l’ensemble du bâtiment plus large que lors des visites libres.
Un départ toutes les heures, dernier départ à 17h
Gratuit, entrée libre dans la limite des places disponibles (groupes de 15 personnes maximum), durée 1h

Samedi 17 et dimanche 18 septembre 2022 de 10h à 18h : Visite libre de la livrée Ceccano
Venez découvrir ou redécouvrir le magnifique bâtiment qui abrite aujourd'hui le site centre-ville d'Avignon Bibliothèques. Successivement palais (« livrée ») de cardinaux au 14e siècle puis collège des Jésuites du 16e au 18e siècle, il permet d’admirer des plafonds peints et des peintures murales du 14e siècle remarquablement conservés.
N’hésitez pas à parcourir de manière ludique le bâtiment avec l’application Explorama ! 
Venez également profiter des expositions en cours « Picasso : affiches et lithographies » et « Le Liban des femmes », présentes jusqu’au 24 septembre.
gratuit, entrée libre";"Samedi 17 septembre à 10h30 : Café-philo : peut-on habiter un monde sans ruines ? Réservation obligatoire à cette adresse : bm.patrimoine@mairie-avignon.com , à partir de 16 ans, durée 1h30   Dimanche 18 septembre à 10h15 et à 11h : Atelier « Découvre ton enluminure ! » A partir de 6 ans, durée 45 min
Dimanche 18 septembre à 14h30, 15h30 et 16h30 : Atelier « Fabrication d’un carnet cousu ! » A partir de 9 ans, durée 45 min

Dimanche 18 septembre à 14h30 et à 16h30 : Présentation de documents patrimoniaux  Gratuit, entrée libre dans la limite des places disponibles (groupes de 15 personnes maximum), durée 1h

Dimanche 18 septembre de 10h à 18h : Visite guidée de la livrée Ceccano Un départ toutes les heures, dernier départ à 17h
Gratuit, entrée libre dans la limite des places disponibles (groupes de 15 personnes maximum), durée 1h

Samedi 17 et dimanche 18 septembre de 10h à 18h : Visite libre de la livrée Ceccano gratuit, entrée libre
";f;t;f;HOTEL DE VILLE ET BATIMENTS MUNICIPAUX;2 bis rue Laboureur 84000 AVIGNON;;Gratuit;www.bibliothèques.avignon.fr;Accès handicapé moteur partiel;bm.webmaster@mairie-avignon.com;04 90 85 15 59;;;20220718155022.67813;20220718155022.678224;;84007;218400075;Mairie Avignon / Pôle Vivre Ensemble / DPT Culture;LO;;Tableau XLS du service métier, intégration et gécodage SIG;Avignon Intra muros;manuelle;1.0;;t;84007-journeesPatrimoine2022;845010.8734405345;6318017.160479992;4.806429558363723;43.946228516002265;43.946228516002265;4.806429558363723
1399;2022;18;Palais des Papes;Palais des Papes;Palais-forteresse, résidence des souverains pontifes et siège de la chrétienté au XIVe siècle. Construction de 1335 à 1352, œuvre des papes Benoît XII (Palais Vieux) et Clément VI (Palais Neuf). Cour d’honneur qui doit sa célébrité théâtrale à Jean Vilar et à des artistes tels Gérard Philipe.;" Exposition  Amazônia du célèbre photographe franco-brésilien Sebastião Salgado : plus de 200 photographies, accompagnées de projections, avec une création inédite de Jean-Michel Jarre. 
Pendant sept ans, Sebastião Salgado a sillonné l’Amazonie brésilienne, photographiant la forêt, les fleuves, les montagnes, les peuples qui y vivent. Cet univers profond, où l’immense pouvoir de la nature est ressenti comme dans peu d’endroits sur la planète, a imprimé dans l’œil du photographe des images saisissantes. Accompagnée d’une création sonore, véritable symphonie-monde imaginée par Jean-Michel Jarre à partir des sons concrets de la forêt, l’exposition restitue aussi la voix et le témoignage des communautés amérindiennes photographiées. Imaginée et conçue par Lélia Wanick Salgado, cette exposition immersive au cœur de l’Amazonie est une invitation à voir, à entendre en même temps qu’à penser le devenir de la biodiversité et la place des humains dans le monde vivant.";Samedi et dimanche de 10 h à 18 h (fermeture des grilles à 17 h soit dernière entrée à 17h) : Circuit visite libre sans Histopad Inscriptions Obligatoires par réservation sur : www.avignon-tourisme.com;t;t;f;HOTEL DE VILLE ET BATIMENTS MUNICIPAUX;Place du Palais      84000 AVIGNON;;Gratuit;www.palais-des-papes.com;;;;www.avignon-tourisme.com;;20220718155022.681096;20220718155022.681185;;84007;218400075;Mairie Avignon / Pôle Vivre Ensemble / DPT Culture;LO;;Tableau XLS du service métier, intégration et gécodage SIG;Avignon Intra muros;manuelle;1.0;;t;84007-journeesPatrimoine2022;845071.2033376253;6318504.546646774;4.807319779170511;43.95060124425516;43.95060124425516;4.807319779170511
1400;2022;19;Pont Saint-Bénézet;Pont Saint-Bénézet;Célèbre  pont  de  la  chanson  construit  à  partir  de  1177  et  remanié fréquemment du XIV e  s. au XVII e  s. Chapelle Saint-Bénezet surmontée de la chapelle Saint-Nicolas qui abrite Notre-Dame des Nautoniers.;;"Samedi et dimanche de 10h à 18h (fermeture des grilles à 17h30 soit dernière entrée à 17h30) :
Visite libre sans audioguide Inscriptions obligatoires par réservation sur www.avignon-tourisme.com";t;t;f;HOTEL DE VILLE ET BATIMENTS MUNICIPAUX;Rue Ferruce            84000 AVIGNON;;Gratuit;www.avignon-tourisme.com;;;;www.avignon-tourisme.com;;20220718155022.683917;20220718155022.684007;;84007;218400075;Mairie Avignon / Pôle Vivre Ensemble / DPT Culture;LO;;Tableau XLS du service métier, intégration et gécodage SIG;Avignon Intra muros;manuelle;1.0;;t;84007-journeesPatrimoine2022;844908.7669914523;6318779.733861914;4.8053751978480035;43.95311062578022;43.95311062578022;4.8053751978480035
1402;2022;21;Conseil Départemental;Conseil Départemental;"Construit à partir de 1710 par l’architecte François II Franque et son fils Jean-Baptiste, l’hôtel Desmarets de Montdevergues est classé au titre des monuments historiques depuis 1932. 
La collectivité départementale y est installée depuis 1876 et aujourd’hui encore, c’est là que siègent et délibèrent les conseillers départementaux.";"Visite guidé de l'hémicycle et exposition sur l'histoire de l'Hôtel du département.                                                                                 Visite guidée par un guide conférencier.
";Visite à 13h30 - 14h30 - 15h30 - 16h30.                                                     Nombre de places limité.;f;t;f;CONSEIL DEPARTEMENTAL DE VAUCLUSE ET HOTEL PREFECTORAL DE VAUCLUSE;Place Viala               84000 AVIGNON;;Gratuit;http://archives.vaucluse.fr;;;04 90 16 15 00;;;20220718155022.693195;20220718155022.693284;;84007;218400075;Mairie Avignon / Pôle Vivre Ensemble / DPT Culture;LO;;Tableau XLS du service métier, intégration et gécodage SIG;Avignon Intra muros;manuelle;1.0;;t;84007-journeesPatrimoine2022;844891.8220658245;6318215.651550317;4.805003540582676;43.948038894692395;43.948038894692395;4.805003540582676
1403;2022;22;Maison Jean Vilar et Bibliothèque Nationale de France;Maison Jean Vilar et Bibliothèque Nationale de France;"Maison Jean Vilar 
Samedi 17 septembre de 16h à 17h30 : Conférence ""Stanislavski, Vilar et la pédagogie du jeu"" de Marie-Christine Autant Mathieu
Dans le cadre des Journées Européennes du Patrimoine, l’association Jean Vilar ouvre ses expositions en accès libre et propose une conférence de Marie-Christine Autant Mathieu le samedi 17 septembre à 16h.  A l’occasion de la sortie de son libre sur le système de Stanislavski, Marie Christine Autant Mathieu, directrice de recherche émérite au CNRS et spécialiste du théâtre russe, propose une conférence « Stanislavski, Vilar et la pédagogie du jeu ». 
Cette intervention sera accompagnée de morceaux choisis par les élèves du Conservatoire Grand Avignon, classe de Fabrice Pruvost. 
Accès Libre. 

Samedi 17 septembre de 14h à 18h : 
Expositions en libre accès 
Infiniment Maria Casarès Gérard Philipe Une évocation
L’œil Présent, Photographier le Festival d’Avignon au risque de l’instant suspendu
Ce soir, oui, tous les soirs – Jean Vilar, Notes de service, TNP 1951-1963
contact@maisonjeanvilar.org

Maison Jean Vilar Antenne BNF 
samedi 17 septembre de 14h à 18h
Patrimoines en vitrine : Les trésors de la bibliothèque de la Maison Jean Vilar
La Maison Jean Vilar héberge une bibliothèque patrimoniale rattachée au département des Arts du spectacle de la Bibliothèque nationale de France. Ouverte à tous, elle a pour mission de collecter, conserver et valoriser la documentation et les archives des festivals et des lieux de spectacle d'Avignon et de la région. En cette année marquée par la réouverture du site après 18 mois de fermeture pour travaux, le public est invité à venir admirer une sélection de ses plus belles pièces, exposées en salle de lecture, et à découvrir par la même occasion les coulisses de la bibliothèque.
maison-jean-vilar@bnf.fr  04 90 27 22 84
8, rue de Mons ";"Maison Jean Vilar 
Samedi 17 septembre de 16h / 17h30 : Conférence ""Stanislavski, Vilar et la pédagogie du jeu"" de Marie-Christine Autant Mathieu     samedi 17 septembre de 14h à 18h
Patrimoines en vitrine : Les trésors de la bibliothèque de la Maison Jean Vilar";samedi 17 septembre de 14h à 18h entrée libre ;f;t;f;AUTRES MUSEES ET SITES PARTENAIRES;8 Rue de Mons       84000 AVIGNON;;Gratuit;www.maisonjeanvilar.org;Accès handicapés moteurs partiel;;04 90 86 59 64;;;20220718155022.699197;20220718155022.699337;;84007;218400075;Mairie Avignon / Pôle Vivre Ensemble / DPT Culture;LO;;Tableau XLS du service métier, intégration et gécodage SIG;Avignon Intra muros;manuelle;1.0;;t;84007-journeesPatrimoine2022;845012.6735756922;6318348.933202122;4.8065465147945226;43.949213197589565;43.949213197589565;4.8065465147945226
1404;2022;23;Musée Angladon;Musée Angladon;Découvrez la collection d’art du pionnier de la haute couture Jacques Doucet. Présentation en permanence de chefs-d’œuvre de Modigliani, Picasso, Cézanne, Degas, Sisley, Van Gogh... Salons historiques et Cabinet d’Extrême Orient.;"A l’occasion des Journées européennes du 
patrimoine, le Musée Angladon - Collection 
Jacques Doucet propose :
- A 13h et 16h15 : Visites commentées de 
l’exposition Le désir de la ligne. Henri Matisse 
dans les collections Doucet.
- De 14 à 16h : Ateliers de pratique artistique, 
dans le Jardin, sur le thème Fenêtre ouverte 
sur... la nature, ses formes, ses lignes, ses 
variations : ateliers de composition à partir de 
découpages et de collectes dans l’environnement 
proche pour la réalisation d’une fresque 
dansante et poétique inspirée d’œuvres de 
Matisse.";17 et 18 septembre De 13h à 18h.                                                             Tarif 3 €.                                                                                                                Gratuit pour les moins de 25 ans.;f;f;f;AUTRES MUSEES ET SITES PARTENAIRES;5 rue Laboureur     84000 AVIGNON;;3 euros   Gratuit pour les moins de 25 ans;angladon.com;Accès handicapés moteurs partiel (rez-de-chaussée);accueil@angladon.com;04 90 82 29 03;;;20220718155022.702245;20220718155022.70757;;84007;218400075;Mairie Avignon / Pôle Vivre Ensemble / DPT Culture;LO;;Tableau XLS du service métier, intégration et gécodage SIG;Avignon Intra muros;manuelle;1.0;;t;84007-journeesPatrimoine2022;845048.9760258372;6318002.9705238305;4.806899999999999;43.946093000022294;43.946093000022294;4.806899999999999
1406;2022;25;Collection Lambert;Collection Lambert;"Collection Lambert
Samedi 17 et dimanche 18 septembre de 11h à 19h ""L'art d'aujourd'hui comme patrimoine de demain""  
Durant ces nouvelles journées du Patrimoine, la Collection Lambert proposera une découverte de ses expositions et des ateliers en lien avec ses expositions. Le vivant comme patrimoine durable sera abordé à travers l'exposition de Dana Fiona Armour ainsi qu'une proposition artistique de la miro-école Inspire. Des visites ""Sous un autre jour"" seront programmées autour des expositions de Dan Flavin et Ann Veronica Janssens. L'atelier des fripons se transformera en laboratoire où les enfants et leurs parents pour se livrer à des expériences en lien avec le travail de Ann Veronica Janssens.
";;Tarif : Droit d'entrée sans réservation pour les visites sur pré-inscription pour l'atelier famille sur pedagogie@collectionlambert.com;f;f;f;AUTRES MUSEES ET SITES PARTENAIRES;5 rue Violette           84000 AVIGNON;;2 euros;www.collectionlambert.fr;;information@collectionlambert.com;04 90 16 56 20;;;20220718155022.715306;20220718155022.715436;;84007;218400075;Mairie Avignon / Pôle Vivre Ensemble / DPT Culture;LO;;Tableau XLS du service métier, intégration et gécodage SIG;Avignon Intra muros;manuelle;1.0;;t;84007-journeesPatrimoine2022;844830.8720740055;6317875.8906572005;4.804147824194736;43.94499450588762;43.94499450588762;4.804147824194736
1407;2022;26;Conservatoire de musique à Rayonnement Régional du Grand Avignon - Bâtiment Leclerc;Conservatoire de musique à Rayonnement Régional du Grand Avignon - Bâtiment Leclerc;;;"Conservatoire de Musique à Rayonnement Régional du Grand Avignon – Bâtiment Leclerc
Plus de renseignement sur conservatoiregrandavignon.com
Accès handicapés possible";f;f;f;AUTRES MUSEES ET SITES PARTENAIRES;3 rue du Général Laclerc                        84000 AVIGNON;;Gratuit;www.grandavignon.fr;Accès  handicapés moteurs ;;04 32 73 04 79;;04 32 73 04 81;20220718155022.719929;20220718155022.720021;;84007;218400075;Mairie Avignon / Pôle Vivre Ensemble / DPT Culture;LO;;Tableau XLS du service métier, intégration et gécodage SIG;Avignon Intra muros;manuelle;1.0;;t;84007-journeesPatrimoine2022;845337.179981583;6318316.693667464;4.810578544770574;43.948856245234275;43.948856245234275;4.810578544770574
1408;2022;27;Avignon Université;Avignon Université;;"De l’hôpital Sainte Marthe à Avignon Université
Visites guidées de l’ancien hôpital Sainte Marthe 
Les étudiants et personnels d’Avignon Université se mobilisent pour vous faire redécouvrir l’ancien hôpital devenu université. Les journées du patrimoine sont l’occasion de retrouver ce lieu symbolique de l’histoire de la ville, ses trésors cachés, mais aussi d’en savoir plus sur Avignon, ville universitaire.
Des visites de l’ancienne apothicairerie de l’hôpital seront proposées par Françoise Moreil, historienne. ";"(sur inscription - nombre de places limitées) Départ de visite toutes les 30 minutes
mission-culture@univ-avignon.fr
04 90 16 25 99";f;t;f;AUTRES MUSEES ET SITES PARTENAIRES;74 rue Louis Pasteur 84000 AVIGNON;;Gratuit;;;;;;;20220718155022.72282;20220718155022.722918;;84007;218400075;Mairie Avignon / Pôle Vivre Ensemble / DPT Culture;LO;;Tableau XLS du service métier, intégration et gécodage SIG;Avignon Intra muros;manuelle;1.0;;t;84007-journeesPatrimoine2022;845781.2343142712;6318393.108770604;4.816130419229589;43.94945200582575;43.94945200582575;4.816130419229589
1409;2022;28;Ecole supérieure d'arts d'Avignon;Ecole supérieure d'arts d'Avignon;"L’École Supérieure d’Art d’Avignon déballe sa bibliothèque
Visite du centre de documentation de l’école supérieure d’art d’Avignon 
Venez découvrir la bibliothèque de l’ÉSAA et son fonds documentaire spécialisé en art moderne et contemporain ainsi qu’en conservation-restauration des biens culturels. Bibliothèque d’étude, le pôle documents conserve près de 20 000 ouvrages regroupant des monographies, des catalogues d’expositions, des ouvrages théoriques, des numéros de périodiques, des mémoires, ainsi que des ressources électroniques accessibles depuis son portail documentaire. 
Présentation de quelques mémoires de fin d’études du Diplôme national supérieur d’expression plastique option Art, mention conservation-restauration et d’une sélection d’ouvrages autour de la thématique de l’art et de l’écologie.";;"Vendredi 16 septembre 2022 entre 10h00 et 16h00
Accueil de groupes scolaires en partenariat avec les lycées avignonnais  
Samedi 17 septembre 2022 entre 10h et 18h 
Visite libre ouverte au public ";f;f;f;AUTRES MUSEES ET SITES PARTENAIRES;500 chemin de Baigne-Pieds                            84000 AVIGNON;;Gratuit;;;poledocuments@esaavignon.fr ;04 90 27 04 23;;;20220718155022.726063;20220718155022.726154;;84007;218400075;Mairie Avignon / Pôle Vivre Ensemble / DPT Culture;LO;;Tableau XLS du service métier, intégration et gécodage SIG;Avignon Ouest;manuelle;1.0;;t;84007-journeesPatrimoine2022;844839.1729893588;6315340.553938678;4.803529962240607;43.92218183707032;43.92218183707032;4.803529962240607
1410;2022;29;Festival d’Avignon : La FabricA;Festival d’Avignon : La FabricA;Lors des visites guidées, découvrez l’histoire du Festival à travers la FabricA avec Clément Demontis, guide-conférencier passionné d’histoire. Les visiteurs pourront découvrir les coulisses de ce lieu qui illustre 76 ans d'histoire, de théâtre et de fête à Avignon.;"samedi 17 et dimanche 18 septembre de 14h à 18h. Parcours libre exposition photos de 14h à 18h
Visites guidées, départs à 14h, 15h30 et 17h – durée 1h";"Informations – réservations : festival-avignon.com public@festival-avignon.com
04 90 27 66 50";f;f;f;AUTRES MUSEES ET SITES PARTENAIRES;11 rue Paul Achard   84000 AVIGNON;;Gratuit;;;;;;;20220718155022.728844;20220718155022.728934;;84007;218400075;Mairie Avignon / Pôle Vivre Ensemble / DPT Culture;LO;;Tableau XLS du service métier, intégration et gécodage SIG;Avignon Ouest;manuelle;1.0;;t;84007-journeesPatrimoine2022;844281.6677028295;6316716.134197559;4.7969800719718005;43.934672578123056;43.934672578123056;4.7969800719718005
1412;2022;31;Association Moulin de Notre Dame;Moulin de Notre Dame;"Samedi 17 et dimanche 18 septembre Départ 9 h 30 - Retour vers 11 h 30
L’association Le Moulin de Notre Dame vous invite à une balade entre Durance et canal Puy, au cours de laquelle l’agriculture d’hier et d’aujourd’hui seront évoquées ainsi que le petit patrimoine qu’elles ont bâti : canal, ponts, marteliières, noria…
Itinéraire conseillé par la Rocade, où vous trouvez l’avenue de la Cabrière qui se prolonge par celle de La Bouquetière. Vous arrivez à un croisement et le moulin se dresse devant vous
Ne pas oublier chaussures confortables (terrain plat) ; chapeau, bouteille d’eau…
Inscriptions : tél : 06 87 29 13 43 et par mail à lemoulindenotredame@gmail.com
Rendez-vous Moulin de Notre Dame  
";"Inscriptions : tél : 06 87 29 13 43 et par mail à lemoulindenotredame@gmail.com
Rendez-vous Moulin de Notre Dame  ";"Ne pas oublier chaussures confortables (terrain plat) ; chapeau, bouteille d’eau…
Inscriptions : tél : 06 87 29 13 43 et par mail à lemoulindenotredame@gmail.com
Rendez-vous Moulin de Notre Dame  ";f;f;f;AUTRES MUSEES ET SITES PARTENAIRES;Croisement du chemin du Moulin de Notre Dame, de la rue de la Bouquetière et de l’allée St Martial;;Gratuit;;;lemoulindenotredame@gmail.com;06 87 29 13 43;;;20220718155022.736793;20220718155022.736884;;84007;218400075;Mairie Avignon / Pôle Vivre Ensemble / DPT Culture;LO;;Tableau XLS du service métier, intégration et gécodage SIG;Avignon Sud rocade;manuelle;1.0;;t;84007-journeesPatrimoine2022;846247.107419421;6315506.382890451;4.821102917697698;43.923383034349825;43.923383034349825;4.821102917697698
1413;2022;32;Volubilis;Volubilis;"Samedi 17 et dimanche 18 à 10h : Avignon Eau vivante, eau cachée un parcours dans la ville

Durant cette visite guidée, vous déambulerez dans les rues à la recherche d’indices toponymiques et visuels. Ce parcours sera ponctué de présentations d’œuvres d’art appartenant aux différents musées de la ville, que vous pourrez visionner grâce à des QR Code. Cette promenade urbaine, réalisée en partenariat avec les musées et les archives d’Avignon, vous invite à découvrir la ville au travers du prisme de l’eau.
Laissez-vous porter au fil de l’eau !
Le départ du parcours urbain démarre  8rue Frédéric Mistral, en bas des locaux de l’association Volubilis.";Gratuit sur inscription à contact@volubilis.org ou au 04 32 76 24 66  Durée : 1h30;;f;f;f;AUTRES MUSEES ET SITES PARTENAIRES;8 rue Frédéric Mistral 84000 AVIGNON;;Gratuit;;;;;;;20220718155022.739465;20220718155022.739555;;84007;218400075;Mairie Avignon / Pôle Vivre Ensemble / DPT Culture;LO;;Tableau XLS du service métier, intégration et gécodage SIG;Avignon Intra muros;manuelle;1.0;;t;84007-journeesPatrimoine2022;845042.8221127437;6317975.264472456;4.806815470327514;43.945844988382966;43.945844988382966;4.806815470327514
1419;2022;38;Basilique Saint-Pierre;Basilique Saint-Pierre;Rebâtie en 1358 grâce au cardinal Pierre des Prés. Façade de style gothique flamboyant avec portes en noyer sculpté par Antoine Volard (1551). Reliques du Bienheureux Pierre de Luxembourg. Erigée en collégiale par le pape Innocent VI, puis en basilique en 2012 par le pape Benoit XVI.;"Dimanche 18 septembre à 17h
Concert « UNE VOIX, UN ORGUE LE DUO CANTICEL chante pour le PATRIMOINE Catherine DAGOIS, chant contralto Edgar TEUFEL, orgue »
CATHERINE DAGOIS et EDGAR TEUFEL, les deux virtuoses de CANTICEL feront vibrer ce lieu unique avec Chants d’Allégresse, un voyage musical spécialement choisi pour l’évènement, de l’ouverture du Bourgeois Gentilhomme de Lully à l’Agnus Dei de la Messe Solennelle de Rossini, en passant par les Indes Galantes de Rameau, des oeuvres de Bach, Monteverdi, Ortega et les célèbres chants catalans.";"Gratuit; Entrée libreSamedi 18 : Ouverture de la Basilique de 8h00 à 17h30
Dimanche 19 : Ouverture de la Basilique de 8h00 à 17h30

";f;t;f;PATRIMOINE RELIGIEUX ET PRIVE;Place Saint-Pierre 84000 AVIGNON;;Gratuit;www.diocese-avignon.fr;;;;;;20220718155022.76893;20220718155022.769038;;84007;218400075;Mairie Avignon / Pôle Vivre Ensemble / DPT Culture;LO;;Tableau XLS du service métier, intégration et gécodage SIG;Avignon Intra muros;manuelle;1.0;;t;84007-journeesPatrimoine2022;845123.1239139925;6318352.849480474;4.80792312504665;43.9492256852007;43.9492256852007;4.80792312504665
1414;2022;33;Musée des Arcades - Centre Hospitalier de Montfavet;Musée des Arcades;Le musée les Arcades retrace l’histoire de l’hôpital, l’évolution des soins en psychiatrie et la place de la création artistique. Vous pourrez visiter le site du centre hospitalier, la chapelle, l’atelier de création Marie Laurencin (peinture et sculpture) et la salle d’exposition José-Maria Sanchis inaugurée en avril 2019. L'exposition actuelle « Ceci est mon corps » permet de découvrir le travail de l’atelier Peau d'Âme Une permanence sera assurée par le personnel de l’hôpital qui sera heureux de vous apporter les précisions nécessaires. Nous espérons donc vous accueillir nombreux et curieux… ;;"Dimanche 18 septembre 2022 de 10h00 à 12h00 et de 14h30 à 18h00 Visite libre du musée les Arcades et de la salle d’exposition José-Maria Sanchis. 
Visite guidée historique et culturelle du site, de la chapelle St Jean et de l’atelier Marie Laurencin.
 Visites guidées historique et culturelle du site, des ateliers, de la chapelle à 10h et 14h45. 
Visite dans la colline jusqu’aux vestiges du château : 11h00 et 16h30 (Pas de réservation, se présenter 10 min avant le départ). 
Visite libre de l’atelier peinture-sculpture Marie Laurencin : 10h00 à 12h00 et 14h30 à 18h00. 
Visite libre de la salle d’exposition José-Maria Sanchis : 10h00 à 12h00 et 14h30 à 18h00.
Ouverture du musée de 10h00 à 12h00 et de 14h30 à 18h00 (entrée libre). ";f;f;f;AUTRES MUSEES ET SITES PARTENAIRES;Avenue de la Pinède 84140 AVIGNON;;Gratuit;;;;;;;20220718155022.750532;20220718155022.750623;;84007;218400075;Mairie Avignon / Pôle Vivre Ensemble / DPT Culture;LO;;Tableau XLS du service métier, intégration et gécodage SIG;Avignon Montfavet;manuelle;1.0;;t;84007-journeesPatrimoine2022;850841.215128825;6315799.138022037;4.878375265810118;43.925048530284066;43.925048530284066;4.878375265810118
1415;2022;34;Basilique Métropolitaine Notre-Dame-des-Doms;Basilique Métropolitaine Notre-Dame-des-Doms;"Samedi 17 septembre : Ouverture de la Métropole de 8 heures à 18 heures sans interruption. (Diffusion de musique sacrée au temps des Papes d'Avignon)
10 heures : Messe
Gratuit Entrée libre fermeture à 18h.
";"Conférence par Monsieur le Chanoine Bréhier « La Musique à la Métropole »
Présentation des deux orgues par les organistes : Orgue doré Piantanida, Orgue de chœur Cavaillé-Coll-Mutin, dans des œuvres à un ou deux orgues, de Frescobaldi, Galuppi, Martini, Bellini, Beethoven (avec la participation du violoncelle), Viadana, Haendel…";"Dimanche 18 septembre à 17h 
Conférence par Monsieur le Chanoine Bréhier « La Musique à la Métropole » Entrée libre, fermeture à 18h.";t;t;f;PATRIMOINE RELIGIEUX ET PRIVE;Place du Palais des Papes                         84000 AVIGNON;;Gratuit;www.cathedrale-avignon.fr;;;;;;20220718155022.75642;20220718155022.756514;;84007;218400075;Mairie Avignon / Pôle Vivre Ensemble / DPT Culture;LO;;Tableau XLS du service métier, intégration et gécodage SIG;Avignon Intra muros;manuelle;1.0;;t;84007-journeesPatrimoine2022;845072.4682390128;6318610.798363321;4.807365824795669;43.95155696184975;43.95155696184975;4.807365824795669
1416;2022;35;Collégiale Saint-Agricol;Collégiale Saint-Agricol;Cette église, s’élevant parmi les plus anciennes d’Avignon, a vu sa reconstruction financée au début du XIVème siècle par le pape Jean XXII et fut remaniée au XVème siècle. ;"
Ouverture de l'église : Samedi 09h30-19h Dimanche 14h-18h


Concert Musique Sacrée et Orgue en Avignon Dimanche à 14h30 ""Ouevres de Franck, Saint-Saëns, Vierne"".                                                                                  Afin de mettre à nouveau en valeur la richesse du patrimoine organistique de la Ville d’Avignon, l’association Musique Sacrée et Orgue en Avignon proposera lors des Journées Européennes du Patrimoine 2022, avec le concours de ses organistes, à tous ceux qui le souhaitent, de découvrir ou redécouvrir quelques instruments, aux esthétiques différentes, dans un panorama qui permettra de parcourir des siècles de musique. Eléments de notre patrimoine culturel, les orgues prennent part à la vie des édifices qui les abritent, et sont le reflet des époques qui les ont vu naître. S’opposant à l’éphémère, leur présence est pérenne et fait le lien entre les hommes, entre générations passées, présentes et futures, contribuant ainsi au développement humain dans l’utilisation durable des patrimoines culturels.

";"Gratuit; Entrée lilbre; Ouverture de l'église samedi de 9h30 à 19h et dimanche de 14h à 18h
";f;t;f;PATRIMOINE RELIGIEUX ET PRIVE;Parvis Saint-Agricol 84000 AVIGNON;;Gratuit;www.saintagricol.paroisse84.fr;;stagricol.patrimoinevivant@gmail.com;;;;20220718155022.759613;20220718155022.759705;;84007;218400075;Mairie Avignon / Pôle Vivre Ensemble / DPT Culture;LO;;Tableau XLS du service métier, intégration et gécodage SIG;Avignon Intra muros;manuelle;1.0;;t;84007-journeesPatrimoine2022;844840.0477850296;6318326.115143945;4.804390222500026;43.949043416020295;43.949043416020295;4.804390222500026
1417;2022;36;Collégiale Saint-Didier;Collégiale Saint-Didier;Caractéristique du gothique provençal. Reconstruite au XIVe s grâce au cardinal Bertrand de Déaux. Monument funéraire dans le chœur. A voir le Portement de croix, sculpté et peint par Francesco Laurana au XVe s.;Concert Musique Sacrée et Orgue en Avignon Samedi à 15h "Œuvres à deux et quatre mains : Albrechtsberger, Clérambault, Brahms, Mendelssohn, Morandi".                                                                     Afin de mettre à nouveau en valeur la richesse du patrimoine organistique de la Ville d’Avignon, l’association Musique Sacrée et Orgue en Avignon proposera lors des Journées Européennes du Patrimoine 2022, avec le concours de ses organistes, à tous ceux qui le souhaitent, de découvrir ou redécouvrir quelques instruments, aux esthétiques différentes, dans un panorama qui permettra de parcourir des siècles de musique. Eléments de notre patrimoine culturel, les orgues prennent part à la vie des édifices qui les abritent, et sont le reflet des époques qui les ont vu naître. S’opposant à l’éphémère, leur présence est pérenne et fait le lien entre les hommes, entre générations passées, présentes et futures, contribuant ainsi au développement humain dans l’utilisation durable des patrimoines culturels.;"Gratuit; Samedi : horaires d’ouverture de 9h à 18h
Visite libre de la Collégiale.                             Dimanche : horaires d’ouverture de 10h à 19h.";f;t;f;PATRIMOINE RELIGIEUX ET PRIVE;Place Saint-Didier 84000 AVIGNON;;Gratuit;www.diocese-avignon.fr;;;;;;20220718155022.762462;20220718155022.762559;;84007;218400075;Mairie Avignon / Pôle Vivre Ensemble / DPT Culture;LO;;Tableau XLS du service métier, intégration et gécodage SIG;Avignon Intra muros;manuelle;1.0;;t;84007-journeesPatrimoine2022;845049.3959796255;6318085.79033589;4.806928834296089;43.94683806596872;43.94683806596872;4.806928834296089
1418;2022;37;Église Saint-Symphorien les Carmes;Église Saint-Symphorien les Carmes;Église de l’ancien couvent des Carmes (XIVe s.), prend officiellement le titre paroissial de Saint-Symphorien en 1853. Peintures de N. Mignard, P. Parrocel et G. Grève. Orgue classé. Cloître.;;"Samedi 17 septembre : de 9h00 à 12h00  
Dimanche 18 septembre : Offices de messes dans la matinée.
";f;t;f;PATRIMOINE RELIGIEUX ET PRIVE;Place des Carmes - 84000 Avignon;;Gratuit;www.diocese-avignon.fr;;;;;;20220718155022.765827;20220718155022.765917;;84007;218400075;Mairie Avignon / Pôle Vivre Ensemble / DPT Culture;LO;;Tableau XLS du service métier, intégration et gécodage SIG;Avignon Intra muros;manuelle;1.0;;t;84007-journeesPatrimoine2022;845528.0940764608;6318533.923222446;4.813018200000003;43.95077130002229;43.95077130002229;4.813018200000003
1421;2022;40;Chapelle des Pénitents Noirs;Chapelle des Pénitents Noirs;Commencée au XVIIe s, la chapelle est restaurée au siècle suivant. La façade, le plafond et les boiseries dorées sont de T. Lainée et de J.B. Franque (XVIIIe s.), les peintures de N. et P. Mignard et de Reynaud-Levieux.;"Samedi 17 Sept 2022 de 10 h à 12 h et de 14 h à 19 h : Intervention GRATUITE de Jonathan JEANVOINE Guide Conférencier
A 14h30 et 16h30 :  Connaissances sur le lieu, son Histoire et ses Peintures.
Dimanche 18 Sept 2022 de 14 h à 19 h : Intervention GRATUITE de Jonathan JEANVOINE Guide Conférencier
A 15h et 16h30 :  Connaissances sur le lieu, son Histoire et ses Peintures. Le souci de qualité et satisfaction des visiteurs intéressés par ces interventions, exige un groupe limité à 25 Personnes maximum.";"Entrée libre ; Gratuit ;
Samedi de 10 h à 12 h et de 14 h à 19h,dimanche de 14 h à 19 h.

Pour des raisons de sécurité, la SACRISTIE ne se visite pas.  ";f;t;f;PATRIMOINE RELIGIEUX ET PRIVE;57 Rue Banasterie 84000 AVIGNON;;Gratuit;www.penitents-noirs.fr;;;;;;20220718155022.775729;20220718155022.775826;;84007;218400075;Mairie Avignon / Pôle Vivre Ensemble / DPT Culture;LO;;Tableau XLS du service métier, intégration et gécodage SIG;Avignon Intra muros;manuelle;1.0;;t;84007-journeesPatrimoine2022;845265.821505869;6318725.520686658;4.809806599999991;43.95254930002231;43.95254930002231;4.809806599999991
1422;2022;41;Chapelle de l'Oratoire;Chapelle de l'Oratoire;La Chapelle de l’Oratoire d’Avignon est située dans la rue Joseph Vernet. Cet édifice du XVIIIème siècle fut commencé en 1713, repris en 1730 pour être finalement achevé en 1749. Il est classé monument historique depuis 1912.;Exposition : « Art et Transcendance » qui présente des oeuves de jeunes artistes.;Samedi 17 septembre et dimanche 18 septembre de 09h00 à 18h00.;f;t;f;PATRIMOINE RELIGIEUX ET PRIVE;32 Rue Joseph Vernet 84000 AVIGNON;;Gratuit;www.saintagricol.paroisse84.fr;Accès handicapés moteurs;stagricol.patrimoinevivant@gmail.com;;;;20220718155022.778794;20220718155022.778885;;84007;218400075;Mairie Avignon / Pôle Vivre Ensemble / DPT Culture;LO;;Tableau XLS du service métier, intégration et gécodage SIG;Avignon Intra muros;manuelle;1.0;;t;84007-journeesPatrimoine2022;844755.9303552171;6318304.216676291;4.803336438483493;43.94886368151908;43.94886368151908;4.803336438483493
1423;2022;42;Chapelle Saint-Marthe;Chapelle Saint-Marthe;Édifiée en 1751, cette chapelle fut construite sur la demande des sœurs de Saint Joseph. Sa façade de deux étages est surmontée d’un fronton triangulaire, et l’intérieur présente un chœur carré à pans coupés. Située derrière l’université, cette église fait désormais office d’aumônerie pour les étudiants, et n’est ouverte que pour les offices.;;Samedi 17 septembre de 15h à 18h;f;t;f;PATRIMOINE RELIGIEUX ET PRIVE;Rue Saint Bernard 84000 AVIGNON;;Gratuit;www.saintagricol.paroisse84.fr;;stagricol.patrimoinevivant@gmail.com;;;;20220718155022.781332;20220718155022.781421;;84007;218400075;Mairie Avignon / Pôle Vivre Ensemble / DPT Culture;LO;;Tableau XLS du service métier, intégration et gécodage SIG;Avignon Intra muros;manuelle;1.0;;t;84007-journeesPatrimoine2022;845838.3688892444;6318506.730209221;4.816874509504538;43.95046246039767;43.95046246039767;4.816874509504538
1424;2022;43;Hôtel Adhémar de Cransac;Hôtel d'Adhémar de Cransac;Demeure privée du XVIIe s. Cour intérieure avec calade. Sur la façade sud se trouve une échauguette. Salons décorés. Salons décorés avec une exposition sur les costumes et les traditions provençales.;"Visite guidée uniquement.

";"Visite guidée uniquement. Ouvert le samedi et le dimanche de 14h à 18h.
Tarif unique 6 euros                                                                  En fonction de l’évolution sanitaire plus de renseignement sur le site internet avignon.fr";f;t;f;PATRIMOINE RELIGIEUX ET PRIVE;11  Rue de Taulignan   84000 AVIGNON;;6 euros;;;;;;;20220718155022.783952;20220718155022.784068;;84007;218400075;Mairie Avignon / Pôle Vivre Ensemble / DPT Culture;LO;;Tableau XLS du service métier, intégration et gécodage SIG;Avignon Intra muros;manuelle;1.0;;t;84007-journeesPatrimoine2022;845148.5504285811;6318437.781106176;4.808264000000019;43.94998460002229;43.94998460002229;4.808264000000019
1425;2022;44;Église Notre-Dame-de-Bon-Repos - Montfavet;Église Notre-Dame-de-Bon-Repos - Montfavet;Construite au XIVe s. à l’initiative du cardinal Bertrand de Montfavet, l’église abrite notamment des peintures murales du XIVe s., un maître-autel en bois doré, une Vierge à l’enfant monumentale du XVIIIe s., ainsi qu’un tableau représentant La Visitation par Nicolas Mignard ou encore des tableaux représentants Saint-Antoine, Saint-Joseph ou Saint-Anne, attribués à Quirinius Van Banken, étant exposés dans les Chapelles latérales de l’église.;;Édifice ouvert plus de renseignement : https://www.montfavet. paroisse84.fr /                    www. Diocese-avignon.fr;f;t;f;PATRIMOINE RELIGIEUX ET PRIVE;7 Place de l'Eglise 84140 MONTFAVET;;Gratuit;www.diocese-avignon.fr;Accès handicapés moteurs ;;04 90 32 09 87;;;20220718155022.786806;20220718155022.786896;;84007;218400075;Mairie Avignon / Pôle Vivre Ensemble / DPT Culture;LO;;Tableau XLS du service métier, intégration et gécodage SIG;Avignon Montfavet;manuelle;1.0;;t;84007-journeesPatrimoine2022;850213.3748803578;6316967.261719191;4.870904500747746;43.93569227754189;43.93569227754189;4.870904500747746
1426;2022;45;Hôtel Galéans des Issarts;Hôtel Galléans des Issarts;Niché au pied du Palais des Papes, l’Hôtel Galéans des Issarts –classé monument historique- permettra aux visiteurs amoureux d’Avignon d’apprécier la vie de l’aristocratie au XVIIe siècle. Une visite placée, cette année, sous les auspices du dieu Bacchus…;;"
Visites sur réservation obligatoire par mail à pietersgeneau@gmail.com                                            Sous réserve des nouvelles conditions sanitaires                         Tarif : 6 euros
Horaires : 13h, 14h, 15h, 16h, 17h et 18h.
";f;t;f;PATRIMOINE RELIGIEUX ET PRIVE;5  Rue du Four        84000 AVIGNON;;6 euros;;;;;pietersgeneau@gmail.com;;20220718155022.789212;20220718155022.789323;;84007;218400075;Mairie Avignon / Pôle Vivre Ensemble / DPT Culture;LO;;Tableau XLS du service métier, intégration et gécodage SIG;Avignon Intra muros;manuelle;1.0;;t;84007-journeesPatrimoine2022;845270.8268220598;6318573.454185873;4.809825522078995;43.95118008071191;43.95118008071191;4.809825522078995
1427;2022;46;Hôtel de Montaigu - Maison et Musée des Compagnons du Tour de France;Hôtel de Montaigu - Maison et Musée des Compagnons du Tour de France;"Maison et Musée des Compagnons du Tour de France dans un magnifique hôtel particulier du XVII° siècle, son escalier grandiose et pas loin deux cents « Chefs d’œuvre » qui y sont exposés.
Egalement lieu de vie pour une vingtaine de jeunes itinérants sur leur Tour de France et qui font étape durant une année dans cette maison.
Ateliers de démonstrations des métiers durant ces deux jours.
C’est l’occasion de venir découvrir cet endroit atypique et aller à la rencontre des Compagnons du Tour de France qui se feront un plaisir de vous accueillir et vous commenter les lieux.
";;Animation : visite libre du samedi et dimanche de 10h à 19h.;f;t;f;PATRIMOINE RELIGIEUX ET PRIVE;37 rue du Four de la Terre                            84000 AVIGNON;;Gratuit;;;avignon@compagnonsdutourdefrance.org;09 81 06 29 84;;;20220718155022.791978;20220718155022.792069;;84007;218400075;Mairie Avignon / Pôle Vivre Ensemble / DPT Culture;LO;;Tableau XLS du service métier, intégration et gécodage SIG;Avignon Intra muros;manuelle;1.0;;t;84007-journeesPatrimoine2022;845426.0336017396;6318095.9704826;4.811622;43.9468520000223;43.9468520000223;4.811622
1428;2022;47;Eglise Saint-Joseph de la Barthelasse;Eglise Saint-Joseph de la Barthelasse;La chapelle de Saint Joseph se trouve dans l’Île de la Barthelasse, une île du Rhône située entre Avignon (dont elle est séparée par le « petit Rhône », ou « bras mort ») et Villeneuve-lès-Avignon (le « grand Rhône » ou « bras vif »).;;Visites libres le samedi après-midi de 14h à 17h.;f;f;f;PATRIMOINE RELIGIEUX ET PRIVE;112 Chemin des Poiriers 84000 AVIGNON;;Gratuit;;;paroissesaintagricol84@gmail.com;;;;20220718155022.794444;20220718155022.794536;;84007;218400075;Mairie Avignon / Pôle Vivre Ensemble / DPT Culture;LO;;Tableau XLS du service métier, intégration et gécodage SIG;Avignon Barthelasse-île Piot;manuelle;1.0;;t;84007-journeesPatrimoine2022;847670.6643653312;6320887.241249152;4.840384374443317;43.97149876628744;43.97149876628744;4.840384374443317
1390;2022;9;Hôtel de Ville;Hôtel de Ville;Construit de 1845 à 1856 autour de la Tour du Jacquemart, seul vestige de l'ancienne livrée cardinalice d'Albano (XIVe s.), l’Hôtel de ville est le siège de l’administration communale et le lieu de la démocratie locale et citoyenne. La salle des Fêtes se distingue par son décor Second Empire.;"Visite guidée de l’Hôtel de Ville, du bureau et salon de Madame le Maire le samedi 18 septembre à 15h et le dimanche 19 septembre à 11h.
";Pas de réservation préalable pour les visites mais inscriptions sur place dans la limite des places disponibles (20 personnes par visite) – Les personnes intéressées doivent se présenter 5 minutes avant dans le hall de l’Hôtel de Ville - Place de l'Horloge.;f;t;f;HOTEL DE VILLE ET BATIMENTS MUNICIPAUX;Hôtel de Ville             Place de l'Horloge  84000 AVIGNON;;Gratuit;www.avignon.fr;Accès handicapés moteurs partiel;;04 90 80 80 07;;;20220718155022.650753;20220718155022.650846;;84007;218400075;Mairie Avignon / Pôle Vivre Ensemble / DPT Culture;LO;;Tableau XLS du service métier, intégration et gécodage SIG;Avignon Intra muros;manuelle;1.0;;t;84007-journeesPatrimoine2022;844937.638685574;6318347.0027474705;4.80561151726335;43.94921127297678;43.94921127297678;4.80561151726335
1391;2022;10;Exposition Chambre des Métiers – Emerveillement en Vaucluse.                   Découvrez l’artisanat Vauclusien sous un angle inédit !;Hôtel de Ville;Lors des journées du patrimoine, l’exposition photographique ÉMERVEILLEMENT EN VAUCLUSE vous donne rendez-vous lors des Journées Européennes du Patrimoine au sein du péristyle de l’hôtel de ville d’Avignon ! 20 entreprises labellisées Entreprise du Patrimoine Vivant ont fait immortaliser à travers l’objectif de Thomas BOHL, photographe avignonnais, leurs savoir-faire uniques, parfois même ancestraux. Entre émotions et savoir-faire, l’exposition vous invite au cœur de l’histoire de ces entreprises, et se réinvente de manière ludique. Cliché après cliché, testez vos connaissances et découvrez l’artisanat comme vous ne l’avez certainement jamais vu.;"Péristyle bas Place de l’Horloge de 10h à 18h
Ouverture de 10h à 18h";;f;f;f;HOTEL DE VILLE ET BATIMENTS MUNICIPAUX;Hôtel de Ville             Place de l'Horloge  84000 AVIGNON;;Gratuit;www.avignon.fr;Accès handicapés moteurs partiel;;04 90 80 80 07;;;20220718155022.65338;20220718155022.65347;;84007;218400075;Mairie Avignon / Pôle Vivre Ensemble / DPT Culture;LO;;Tableau XLS du service métier, intégration et gécodage SIG;Avignon Intra muros;manuelle;1.0;;t;84007-journeesPatrimoine2022;844936.9371135121;6318372.960913764;4.805610173638455;43.949444970521256;43.949444970521256;4.805610173638455
1385;2022;4;"Parcours de visite avec Avignon Tourisme  La Bartelasse en vélo

";Parcours de visites avec Avignon Tourisme;"Samedi 17 septembre à 10H30 et Dimanche 18 septembre à 14H30
Découverte champêtre, en vélo, de l’île de la Barthelasse, la plus grande ile fluviale d’Europe et du-rant laquelle de nombreuses anecdotes sur son histoire, sur l’histoire du Rhône ou sur l’histoire d’Avignon vous seront contées.  
Alors si vous avez envie d’une sortie originale, d’un peu d’activité physique et de découvrir le côté vert d’Avignon, ses vergers, ses champs de blé et son château, n’hésitez pas et montez sur vos vélos ! Ils vous attendent !  ";Visite guidée;"Visite conseillée à partir de 12 ans - Tenue de sport + casque + baskets conseillés – limité à 12 personnes
RDV Lieu de départ : Entrée du Pont St Bénezet / devant le Portail (côté Parking Ferruce)  
Se présenter 10 minutes avant le début de la visite. 
La visite se déroule en extérieur. 
Vélo non fourni.  
Inscription obligatoire auprès de l’OFFICE DE TOURISME – www.avignon-tourisme.com";f;f;f;VISITES INEDITES 2022;Rue Ferruce             84000 AVIGNON;;Gratuit;www.avignon-tourisme.com;;www.avignon-tourisme.com;;www.avignon-tourisme.com;;20220718155022.627071;20220718155022.627167;;84007;218400075;Mairie Avignon / Pôle Vivre Ensemble / DPT Culture;LO;;Tableau XLS du service métier, intégration et gécodage SIG;Avignon Intra muros;manuelle;1.0;;t;84007-journeesPatrimoine2022;844964.9999959914;6318768.296770693;4.806072285272892;43.952996150669186;43.952996150669186;4.806072285272892
1411;2022;30;Le Grenier à sel;Le Grenier à sel;"Du sel au pixel #5 


";"Visites guidées :
Des visites guidées sont proposées toutes les heures (à 14h30, 15h30, 16h30 et 17h30) pour retracer l’histoire de ce bâtiment classé monument historique et l’importance du sel dans la vie de la cité sous l’ancien Régime. 

Projections : 
Pour fêter les dix ans du Fonds de dotation EDIS, qui a créé et soutient le Grenier à sel dans sa programmation, une belle sélection de films est projetée en continu dans la salle Wilmotte

 Des films d’animation de l’Ecole des Nouvelles Images, à voir en famille pour des moments drôles et de complicité.
 Des films distingués par le prix Emergences de la SCAM, qui récompense de jeunes artistes pour la qualité de leur production esthétique et narrative

Activités : 
Le Grenier à sel accueille les minots curieux qui veulent en apprendre un peu plus sur le sel et son histoire. Au programme : jeux et activités sur papier comme au casque (VR) !

 

";;f;t;f;AUTRES MUSEES ET SITES PARTENAIRES;2 rue du    Rempart Saint Lazare                         84000 AVIGNON;;Gratuit;;;accueil@legrenierasel-avignon.fr;04 32 74 05 31;;;20220718155022.731969;20220718155022.732063;;84007;218400075;Mairie Avignon / Pôle Vivre Ensemble / DPT Culture;LO;;Tableau XLS du service métier, intégration et gécodage SIG;Avignon Intra muros;manuelle;1.0;;t;84007-journeesPatrimoine2022;845439.9709508921;6318822.515886867;4.812003220145382;43.95338605400858;43.95338605400858;4.812003220145382
1429;2022;48;Hôtel de la Grande Loge de France;Hotel de la Grande Loge de France;Les francs-maçons de la Grande Loge de France à Avignon ouvrent exceptionnellement leurs locaux. Ils sont hébergés dans un ancien grenier à sel datant du XVIIIe siècle et classé monument historique. L’Hôtel de la Grande Loge de France, permet la visite du bâtiment (1er étage) ainsi qu’une découverte de la Franc-maçonnerie. Cette dernière est approchée via une exposition, de courtes conférences et des visites guidées ou libres en fonction des souhaits des visiteurs.;;"Visite du temple maçonnique d’Avignon 17 et 18 Septembre 10h à 18h en continu 
Exposition, conférences publiques à 11h, 14h30 et 16h30 ";f;f;f;PATRIMOINE RELIGIEUX ET PRIVE;28 rue Palapharnerie 84000 AVIGNON;;Gratuit ;;;;;;;20220718155022.797653;20220718155022.797747;;84007;218400075;Mairie Avignon / Pôle Vivre Ensemble / DPT Culture;LO;;Tableau XLS du service métier, intégration et gécodage SIG;Avignon Intra muros;manuelle;1.0;;t;84007-journeesPatrimoine2022;845435.0599464582;6318787.437283767;4.811932029742536;43.953071455581664;43.953071455581664;4.811932029742536
1420;2022;39;Temple Saint-Martial;Temple Saint-Martial;"Le Temple Saint -Martial en fête pour les Journées du patrimoine

Les musiciens de St Martial comme chaque année se donnent rendez-vous le samedi 17 et le dimanche 18 septembre pour une animation historique et musicale
Le temple St Martial, ces 2 jours, accueille le public de 14h à 17h pour découvrir cette splendeur du 14e siècle et écouter autour de son prestigieux orgue les  musiques des XVIIe XVIIIe et XIXe siècles interprétées par organistes, mais aussi flûtistes, violoniste, clarinettiste, pianistes, chanteurs et chanteuses (mezzo-soprano, barytons et basses).
Les années passées ce sont entre 300 et 350 personnes qui sont passées et ont aimé ce moment privilégié.";;"Samedi et dimanche de 14h30 à 17h.
Entré libre (corbeille).";f;t;f;PATRIMOINE RELIGIEUX ET PRIVE;2 rue Jean-Henri Fabre 84000 AVIGNON;;Gratuit;;;;04 90 85 22 18;;;20220718155022.77259;20220718155022.772688;;84007;218400075;Mairie Avignon / Pôle Vivre Ensemble / DPT Culture;LO;;Tableau XLS du service métier, intégration et gécodage SIG;Avignon Intra muros;manuelle;1.0;;t;84007-journeesPatrimoine2022;844988.7069813228;6317879.443240344;4.806114289097146;43.94499399979504;43.94499399979504;4.806114289097146
