id;millesime;num_site;name;name_impression;description;animations;condition_acces;unesco;monument_historique;musee_national;parcours;adresse;logo;tarifs;www;accessibilite;info_mail;info_tel;resa_mail;resa_tel;meta_datcreat;meta_datmaj;meta_datsupp;meta_insee;meta_siren;meta_source;meta_licence;meta_observations;meta_genealogie;meta_mairie_quartier;geocod_methode;geocod_fiability;geocod_real_address;meta_actif;nom_fic;lamb93_x;lamb93_y;gps_x_long;gps_y_lat;latitude;longitude
1314;2021;4;Visite du Cloître des Célestins;Visite du Cloître des Célestins;Découverte du cloître des Célestins, haut lieu de la ville d’Avignon et symbole des relations tumultueuses entre la Papauté d’Avignon et le Royaume de France.;Visite guidée;Samedi de 10h à 12h et de 14h à 16h par groupe de 20 personnes. Réservation au 04 90 80 80 07 ou par mail à culture@mairie-avignon.com Rendez-vous place des Corps Saints.;;;;Les inédits 2021;place des Corps Saints;;gratuit;;;;;culture@mairie-avignon.com;04 90 80 80 07;20210903093720.509053;20210903093720.509053;;84007;218400075;Mairie Avignon / Pôle Vivre Ensemble / DPT Culture;LO;;Tableau XLS du service métier, intégration et gécodage SIG;Avignon Intra muros;manuelle;1.0;;t;84007-journeesPatrimoine2021;845115.371478024;6317732.922163146;4.807649812791179;43.94364962881959;43.94364962881959;4.807649812791179
1324;2021;14;Musée du Petit Palais;Musée du Petit Palais;Ouvert depuis 1976, le musée du Petit Palais propose au public des collections provenant de deux origines distinctes : la collection de peintures italiennes rassemblées par le marquis Campana dans la première moitié du XIXe siècle et constituant un dépôt exceptionnel du musée du Louvre et un ensemble de peintures et sculptures provençales du Moyen Âge déposées par la Fondation Calvet. Installé dans l’ancien palais des archevêques, dont la construction commence au début du XIVe siècle lors de l’installation de la papauté à Avignon, le musée du Petit Palais jouit d’un emplacement prestigieux sur la place du Palais des Papes, au cœur du site inscrit sur la liste du patrimoine mondial de l’Unesco. Grâce à cette situation exceptionnelle et à la qualité de ses collections, le musée du Petit Palais peut s’enorgueillir d’être l’un des grands musées européens du Moyen Âge.;Visite Libre de l'exposition "L'atelier du peintre en Italie" XIIIe-XVIe siècle: Une exposition-parcours d’un genre inédit pour valoriser l’ensemble de la collection de peintures italiennes déposée par le Louvre en 1976. Une invitation à découvrir comment ces peintures ont été conçues et réalisées, par qui, pour qui, avec quels moyens et outils.                                                                                                                                                                                                                                     Visite-éclair: Tout au long du week-end, l'équipe de la conservation et la médiatrice culturelle vous proposent de court rendez-vous pour découvrir une oeuvre, un groupe d'oeuvres ou un élèment d'architecture en 20 minutes.;"Gratuit;

Samedi et Dimanche de 10h à 13h et de 14h à 18h.";t;t;t;Hôtel de ville et établissements municipaux;Palais des Archevêques - Place du Palais des Papes - 84000 Avignon;;Gratuit;www.petit-palais.org;;musee.petitpalais@mairie-avignon.com;04.90.86.44.58;;;20210903093720.535294;20210903093720.535294;;84007;218400075;Mairie Avignon / Pôle Vivre Ensemble / DPT Culture;LO;;Tableau XLS du service métier, intégration et gécodage SIG;Avignon Intra muros;manuelle;1.0;;t;84007-journeesPatrimoine2021;845011.5202745146;6318725.264562948;4.80663939999999;43.95259940002227;43.95259940002227;4.80663939999999
1330;2021;20;Pont Saint-Bénezet;Pont Saint-Bénezet;"Célèbre pont de la chanson construit à partir de 1177 et remanié
fréquemment du XIV e s. au XVII e s. Chapelle Saint-Bénezet surmontée de
la chapelle Saint-Nicolas qui abrite Notre-Dame des Nautoniers.
";"Visite libre du pont- sans audioguide.
Horaires : Samedi et dimanche de 10 h à 17 h (fermeture des grilles à
16h soit 1 h avant)
";" Gratuit ; Samedi et dimanche de 10h à 17h ; fermeture des grille à 16h";t;t;;Hôtel de ville et établissements municipaux;Rue Ferruce - 84000 Avignon;;Gratuit;www.avignon-tourisme.com;;;;;;20210903093720.545689;20210903093720.545689;;84007;218400075;Mairie Avignon / Pôle Vivre Ensemble / DPT Culture;LO;;Tableau XLS du service métier, intégration et gécodage SIG;Avignon Intra muros;manuelle;1.0;;t;84007-journeesPatrimoine2021;844908.7669914523;6318779.733861914;4.8053751978480035;43.95311062578022;43.95311062578022;4.8053751978480035
1342;2021;32;Festival d’Avignon : La FabricA;Festival d’Avignon : La FabricA;"A la découverte des coulisses du Festival d’Avignon
Ouverture des portes samedi 18 et dimanche 19 de 14h à 18h. Parcours libre exposition photos de 14h à 18h. Visites guidées, départs à 14h, 15h30 et 17h, durée 1h
A l’occasion des Journées Européennes du Patrimoine, le Festival d’Avignon ouvre les portes de La FabricA, son seul lieu permanent. Lors des visites guidées, découvrez l’histoire du Festival à travers la FabricA avec Clément Demontis, guide-conférencier passionné d’histoire. Les visiteurs pourront découvrir les coulisses de ce lieu qui illustre 75 ans d'histoire, de théâtre et de fête à Avignon.
Ces journées seront également l’occasion de découvrir les photos de coulisses, de répétitions et de spectacles prises par Christophe Raynaud de Lage, photographe officiel du Festival d’Avignon. Autant de clichés immortalisant les instants d’effervescence artistique en lien avec la FabricA depuis sa création. Vous pourrez également découvrir des maquettes de différents lieux du Festival d’Avignon.
";Ouverture des portes samedi 18 et dimanche 19 de 14h à 18h. Parcours libre exposition photos de 14h à 18h. Visites guidées, départs à 14h, 15h30 et 17h, durée 1h;Informations – réservations : festival-avignon.com;;;;Autre musées et sites partenaires;11 rue Paul Achard;;;;;;;;;20210903093720.577342;20210903093720.577342;;84007;218400075;Mairie Avignon / Pôle Vivre Ensemble / DPT Culture;LO;;Tableau XLS du service métier, intégration et gécodage SIG;Avignon Ouest;manuelle;1.0;;t;84007-journeesPatrimoine2021;844281.6677028295;6316716.134197559;4.7969800719718005;43.934672578123056;43.934672578123056;4.7969800719718005
1311;2021;1-2;Exposition Yan Pei-Ming "Tigres et vautours";Exposition Yan Pei-Ming "Tigres et vautours";Pour la Grande Chapelle du Palais des Papes, l’artiste a réalisé trois œuvres monumentales qui éprouvent toute la dramaturgie de l’histoire complexe de la présence des papes en Avignon au Moyen-Âge et résonnent avec le monde tel que nous le vivons aujourd’hui. Sur le mur Ouest est installé un autoportrait en trois personnes. Au centre, l’artiste y est replié et méditatif dans sa soutane blanche sur un fauteuil-trône qui pourrait être celui du pape Innocent X, quand de chaque côté il est figuré en tenue de tous les jours, tel qu’en lui-même, l’air dubitatif, ou farouche, ou mauvais – on ne sait trop. Installée au-dessus de l’hôtel, une crucifixion incorpore son portrait à la figure du Christ souffrant, dont le regard tombant entraine finalement le spectateur vers bas sur le mur sud de la grande chapelle et l’immense paysage de l’Exode peuplée de chauves-souris qui rappellent de manière saisissante ces bestiaires du Moyen-Âge en même temps qu’elle convoque avec fracas l’histoire des grandes migrations.;"Visite libre de l'exposition : 10h à 17h (dernière entrée à 16h).
Collection Lambert tarif unique 2 euros.";Grande Chapelle du Palais des Papes du 1er juin  - 30 janvier 2022 et à la Collection Lambert du 25 juin - 26 septembre 2021;;;;Les inédits 2021;Place du Palais des Papes et 5 rue Violette;;Gratuit Palais des Papes / 2 euros Collection Lambert;;;www.avignon-tourisme.com;;;;20210903093718.472192;20210903093718.472192;;84007;218400075;Mairie Avignon / Pôle Vivre Ensemble / DPT Culture;LO;;Tableau XLS du service métier, intégration et gécodage SIG;Avignon Intra muros;manuelle;1.0;;t;84007-journeesPatrimoine2021;844869.8628603746;6317865.42816047;4.8046303824530385;43.944892354118814;43.944892354118814;4.8046303824530385
1363;2021;1-1;Exposition Yan Pei-Ming "Tigres et vautours";Exposition Yan Pei-Ming "Tigres et vautours";Pour la Grande Chapelle du Palais des Papes, l’artiste a réalisé trois œuvres monumentales qui éprouvent toute la dramaturgie de l’histoire complexe de la présence des papes en Avignon au Moyen-Âge et résonnent avec le monde tel que nous le vivons aujourd’hui. Sur le mur Ouest est installé un autoportrait en trois personnes. Au centre, l’artiste y est replié et méditatif dans sa soutane blanche sur un fauteuil-trône qui pourrait être celui du pape Innocent X, quand de chaque côté il est figuré en tenue de tous les jours, tel qu’en lui-même, l’air dubitatif, ou farouche, ou mauvais – on ne sait trop. Installée au-dessus de l’hôtel, une crucifixion incorpore son portrait à la figure du Christ souffrant, dont le regard tombant entraine finalement le spectateur vers bas sur le mur sud de la grande chapelle et l’immense paysage de l’Exode peuplée de chauves-souris qui rappellent de manière saisissante ces bestiaires du Moyen-Âge en même temps qu’elle convoque avec fracas l’histoire des grandes migrations.;"Visite libre de l'exposition : 10h à 17h (dernière entrée à 16h).
Collection Lambert tarif unique 2 euros.";Grande Chapelle du Palais des Papes du 1er juin  - 30 janvier 2022 et à la Collection Lambert du 25 juin - 26 septembre 2021;f;f;f;Les inédits 2021;Place du Palais des Papes et 5 rue Violette;;Gratuit Palais des Papes / 2 euros Collection Lambert;;;www.avignon-tourisme.com;;;;20210903093718.472;20210903093718.472;;84007;218400075;Mairie Avignon / Pôle Vivre Ensemble / DPT Culture;LO;;Tableau XLS du service métier, intégration et gécodage SIG;Avignon Intra muros;manuelle;1.0;;t;84007-journeesPatrimoine2021;845037.9553417853;6318498.711974779;4.806904051963743;43.95055559526837;43.95055559526837;4.806904051963743
1312;2021;2;Expositions Côté Jardin par la Maison Jean Vilar;Expositions Côté Jardin par la Maison Jean Vilar;"L’exposition Côté Jardin propose un parcours d’une trentaine de photographies en grand et très grand format. Le travail éditorial de sélection des photographies pour l’exposition est en cours à partir d’un corpus de plus de 1000 images. Ce fonds photographique inédit a été réuni à partir des archives de la Maison Jean Vilar, de la Bibliothèque nationale de France, des Archives nationales, mais également des archives familiales des photographes emblématiques qui ont accompagné Jean Vilar.
Numérisées, certaines de ces images font aussi l’objet d’un travail de restauration afin de proposer au public du jardin un parcours immersif d’une qualité photographique exceptionnelle. Empruntant au langage théâtral du plateau et clin d’œil au lieu de l’exposition, le« côté jardin » désigne l’angle retenu pour le choix des images, celui des « à côté » de la représentation théâtrale. Nulle photographie de spectacle dans Côté Jardin, mais les images des coulisses, celles des répétitions, des temps de pause et de promenades, des moments de détente et de jeux.
";Visite libre dans le jardin du Rocher des Doms.;Visite libre;;;;Les inédits 2021;Jardin du Rocher des Doms Montée des moulins;;Gratuit;;;;;;;20210903093720.506046;20210903093720.506046;;84007;218400075;Mairie Avignon / Pôle Vivre Ensemble / DPT Culture;LO;;Tableau XLS du service métier, intégration et gécodage SIG;Avignon Intra muros;manuelle;1.0;;t;84007-journeesPatrimoine2021;845038.8750607818;6318621.967138341;4.806950638398102;43.951664369201254;43.951664369201254;4.806950638398102
1313;2021;3;"Parcours de visite avec Avignon Tourisme

";Parcours de visites avec Avignon Tourisme;"Avignon racontée aux enfants: Comment apprendre à connaître Avignon en s'amusant ? Les enfants à l'aide d'un livret et encadrés par une guide conférencière devront aider Guillaume, écuyer du Pape et Charlotte, une petite fille de notre temps, à retrouver les clés perdues de la Ville. Rébus, devinettes...On compte sur vous pour les aider ! Pensez à apporter un crayon et une gomme. Un livret sera donné à chaque enfant qu'il gardera en souvenir. Samedi 18 et dimanche 19 à 15h00 : Que cache le Rocher des Doms ?
Le Rocher des Doms, les avignonnais le connaissent bien mais, beaucoup ignorent que dans la montée, une petite porte dérobée , discrète que l’on remarque à peine donne accès à un espace imposant ,composé de 4 nefs séparées par des voûtes en pierre de taille, qui offre par sa splendide baie vitrée une vue panoramique sur le Rhône, le pont Saint Bénezet et Villeneuve les Avignon. Ce sont les anciens réservoirs d’eau du Palais des Papes aujourd’hui utilisés pour l’organisation d’évènementiels. 
Nous vous proposons de les découvrir lors de ces journées européennes du Patrimoine avec un guide conférencier.
Durée : 1h15 à 1h30 Départ  place du Palais des Papes- devant l’escalier en bois (départ visites guidées) Nombre de participants : 20 personnes  Parcours : Métropole ND des Doms – Espace Jeanne Laurent (anciens réservoirs) – chemin de ronde – fin Pont d’Avignon 


Le quartier Champfleury: Une balade urbaine, extra muros, pour découvrir un quartier datant du XXième siècle, aujourd'hui en pleine métamorphose et ponctué de point d'intérêts.

Best OF Avignon: Spécial nouveau habitants ! Pour comprendre l'essentiel d'Avignon, ses monuments emblématiques, les grandes lignes de son histoire, sa personnalité, partez en compagnie d'un guide officel de l'Office de Tourisme à la découverte des MUST d'Avignon: la place de l'Horloge, la place du Palais des Papes, le rocher des Doms avec la vue imprenable sur le pont St Benezetet aussi, des endroits moins connus, plein de charme.

La Barthelasse à vélo: Visite culturelle et sportive (avec guide). Nous vous proposons cette découverte en vélo de l'île de la Barthelasse, de son histoire et de celle d'Avignon ! de nombreux thèmes seront abordés dont la faune, la flore, le Rhône, les duels, l'agriculture... A vos vélos !";"Avignon racontée aux enfants (1h45): dimanche 19 , départ Office de Tourisme à 10h30 (20 personnes maximum, dès 7 ans, sur inscription).                                                                               

Le Quartier Champfleury (2h): samedi 18 et dimanche 19 , départ Office de Tourisme à 14h30 (20 personnes maximum, sur inscription).          Samedi 18 et dimanche 19 à 15h00 : Que cache le Rocher des Doms ?Durée : 1h15 à 1h30 Départ  place du Palais des Papes- devant l’escalier en bois (départ visites guidées) Nombre de participants : 20 personnes  Parcours : Métropole ND des Doms – Espace Jeanne Laurent (anciens réservoirs) – chemin de ronde – fin Pont d’Avignon ?                                                                       

Best OF Avignon (1h30): samedi 18 , départ Office de Tourisme à 10h30 (20 personnes maximum, sur inscription).

La Barthelasse à vélo (4h): dimanche 19 , départ de la porte d'entrée du Pont Saint-Bénezet à 14h (12 personnes maximum, sur inscription).
";Gratuit, sur inscription auprès de l'Office de Tourisme - 41 cours Jean Jaurès - https://avignon-tourisme.com/;;;;Les inédits 2021;41 Cours Jean Jaurès;;Gratuit;;;www.avignon-tourisme.com;;;;20210903093720.507397;20210903093720.507397;;84007;218400075;Mairie Avignon / Pôle Vivre Ensemble / DPT Culture;LO;;Tableau XLS du service métier, intégration et gécodage SIG;Avignon Intra muros;manuelle;1.0;;t;84007-journeesPatrimoine2021;844952.7412996343;6317875.072985737;4.805665178595544;43.94496208137917;43.94496208137917;4.805665178595544
1315;2021;5;Visite de l'église des Ortolans;Visite de l'église des Ortolans;Édifice méconnu des avignonnais, la visite de la chapelle des Ortolans permettra de découvrir ce lieu, chef d’œuvre architectural et artistique des XVIIe et XVIIIe siècles.;Visite guidée;"Dimanche de 10h à 12h et de 14h à 16h par groupe de 10 personnes. Réservation au 04 90 80 80 07 ou par mail à  culture@mairie-avignon.com
Rendez-vous rue des Ortolans";;;;Les inédits 2021;rue des Ortolans;;gratuit;;;;;culture@mairie-avignon.com;04 90 80 80 07;20210903093720.510526;20210903093720.510526;;84007;218400075;Mairie Avignon / Pôle Vivre Ensemble / DPT Culture;LO;;Tableau XLS du service métier, intégration et gécodage SIG;Avignon Intra muros;manuelle;1.0;;t;84007-journeesPatrimoine2021;844914.1919240163;6318106.820989941;4.805251127775727;43.94705511344336;43.94705511344336;4.805251127775727
1316;2021;6;Hotel de Beaumont;;L’Hôtel de Beaumont, partiellement classé Monument Historique et son jardin  ont été légués à la Ville d’Avignon par Michèle Azémar, dernière propriétaire en 2017. En 2019 la ville reçoit également, grâce à son épouse Françoise, le legs d’Yvon Taillandier, critique d’art et artiste prolixe et joyeux, inventeur du Taillandier-Land et de la « figuration libératrice ». Dans le respect de ces legs, la Ville d’Avignon a imaginé un projet de reconversion  envisageant la création d’une nouvelle place culturelle dans ce lieu remarquable. Historiques. Le projet de réaménagement de l’Hôtel de Beaumont entend ainsi accueillir et mettre en valeur les collections d’Yvon Taillandier et de Madame Azémar, ouvrir le jardin au public, créer des espaces d’expositions temporaires …;Visite guidée;Samedi et dimanche de 13h30 et 17h30 : Visite par groupe de 15 personnes maximum, départ tous les 30 minutes. Sur réservation au 04 32 74 32 74 ou sur www.avignon-tourisme.com à partir du 6 septembre.;;;;Les inédits 2021;9 rue de la croix;;gratuit;;;;;www.avignon-tourisme.com; 04 32 74 32 74;20210903093720.511833;20210903093720.511833;;84007;218400075;Mairie Avignon / Pôle Vivre Ensemble / DPT Culture;LO;;Tableau XLS du service métier, intégration et gécodage SIG;Avignon Intra muros;manuelle;1.0;;t;84007-journeesPatrimoine2021;845307.5328447721;6318413.57162615;4.810236999999998;43.94973400002226;43.94973400002226;4.810236999999998
1317;2021;7;Exposition Goddog;Exposition Goddog;« Goddog » est le pseudonyme d’un artiste urbain autodidacte de la scène avignonnaise. L’univers de Goddog se situe aux frontières de l’art urbain, de l’abstraction et de la figuration libre. Des fresques à grande échelle aux toiles exposées en galeries, lignes et formes dévoilent des mondes imaginaires géométriques où se dissimulent paysages, visages et symboles. La répétition de canevas emblématiques dans ses œuvres, les apparentes par leur récurrence à des totems contemporains. Sans volonté mystique affichée, le travail de Goddog est truffé d’évocations symboliques, ethniques et oniriques. La Ville d’Avignon lui donne carte blanche pour une création inspirée par le quartier Saint-Ruf, où il vit et travaille dans le quartier Saint-Ruf d’Avignon, son jardin et sa belle abbaye.;Exposition des oeuvres de Goddog en visite libre.;"Entrée libre - Jardin de l'abbaye Saint Ruf
";;;;Les inédits 2021;Jardin de l'Abbaye Saint-Ruf - avenuedu Moulin de Notre-Dame;;gratuit;;;;04 90 80 80 07;;;20210903093720.513116;20210903093720.513116;;84007;218400075;Mairie Avignon / Pôle Vivre Ensemble / DPT Culture;LO;;Tableau XLS du service métier, intégration et gécodage SIG;Avignon Nord rocade;manuelle;1.0;;t;84007-journeesPatrimoine2021;845537.6244304939;6316480.230088794;4.8125496924131;43.93229177946808;43.93229177946808;4.8125496924131
1318;2021;8;Exposition Bande Dessinée "Les dessous d'Avignon" par Romain Lecocq;Exposition "Les dessous d'Avignon" par Romain Lecocq;La ville d’Avignon vous propose un voyage à travers le temps grâce à des extraits de la bande dessinée Les Dessous d’Avignon de Romain Lecocq. Au travers d'un parcours inédit et original dans les rues d'Avignon et dans son histoire, cette bande dessinée propose de découvrir une multitude d'anecdotes : la construction du pont Saint-Bénezet, l’inondation de 1856, l'histoire du théâtre, Frédéric Mistral et le félibrige, le palais du Roure, le premier Mont de Piété de France, les papes et les richesses de la cité papale et bien d'autres encore... Romain Lecocq, illustrateur et co-scénariste avec la Jeune Chambre Économique du Grand Avignon, nous fait voyager dans l’histoire du territoire en mettant en valeur des histoires et personnalités, parfois ignorées.;Exposition de la BD "Les dessous d'Avignon" réalisée par Romain Lecocq.;Entrée libre - Square Agricol Perdiguier;;;;Les inédits 2021;Square Agricol Perdiguier - Cours Jean Jaurès;;gratuit;;;;04 90 80 80 07;;;20210903093720.514359;20210903093720.514359;;84007;218400075;Mairie Avignon / Pôle Vivre Ensemble / DPT Culture;LO;;Tableau XLS du service métier, intégration et gécodage SIG;Avignon Intra muros;manuelle;1.0;;t;84007-journeesPatrimoine2021;845028.6522055333;6317881.861292915;4.8066123994249015;43.945007532557234;43.945007532557234;4.8066123994249015
1319;2021;9;Exposition Yvon Taillandier;Exposition Yvon Taillandier au Parc Génicoud;Avez-vous remarqué ? Des oeuvres de l’artiste avignonnais Yvon Taillandier ont été installées au parc Génicoud. Une exposition en plein air à découvrir sans plus tarder. Cette exposition de quelques œuvres d’Yvon Taillandier met en avant son univers coloré, proche de la bande-dessinée, et peuplé de créatures souvent hybrides issues de l’imagination de l’artiste et inspirées de ses différents voyages. Qu’ils aient plusieurs visages, une multitude de membres, ou encore seulement une tête et des jambes, ces joyeux habitants du « Taillandier Land » vivent en parfaite harmonie et sont connectés les uns aux autres par un tube. En plus des personnages, ce monde est occupé par de nombreux engins motorisés tels que des avions, des véhicules.;Exposition Yvon Taillandier sur les grilles du Parc Génicoud.;Entrée libre - Parc Génicoud;;;;Les inédits 2021;Parc Génicoud - Avenue du Blanchissage;;gratuit;;;;04 90 80 80 07;;;20210903093720.515637;20210903093720.515637;;84007;218400075;Mairie Avignon / Pôle Vivre Ensemble / DPT Culture;LO;;Tableau XLS du service métier, intégration et gécodage SIG;Avignon Ouest;manuelle;1.0;;t;84007-journeesPatrimoine2021;844582.925049947;6317239.170921277;4.800879375555792;43.93931670548709;43.93931670548709;4.800879375555792
1320;2021;10;Cloître Saint-Louis;Exposition "A deux au jardin";« A deux au jardin » : De fer et de papier. Art de l’écriture chinoise apparue il y a plus de 3 000 ans… Source d’inspiration, source inépuisable de formes vivantes… Champ d’expression très large, foisonnant… Traces écrites à travers le temps et l’espace. La calligraphie… Les pleins et les déliés, porteurs d’émotions, se succèdent, s’enchaînent pour former des tableaux, parfois d’une rare finesse, parfois d’une forte intensité. Christine Dabadie-Fabreguettes et Sybille Friedel. Les pleins et les déliés des deux artistes-peintres-calligraphes exposant au cloître Saint-Louis s’assemblent, se séparent, se cherchent, se réunissent… en résonance. Il en résulte un ensemble d’une belle harmonie, fruit d’une grande complicité. Un pas de deux au jardin… dans lequel le public est invité à cheminer et à participer au dialogue des deux artistes. Promenade visuelle, musicale, sensorielle.;Du 5 au 19 septembre : « A deux au jardin » proposé par la MACA – Gratuit – entrée libre – tous les jours de 14h à 18h – ouverture le matin sur réservation pour les collèges et lycées du département.;"Gratuit ; mardi au dimanche de 14h à 18h.   ";;;;Les expositions du Quartet;20 rue du Portail Boquier - 84000 Avignon;;Gratuit;;;;;;;20210903093720.52396;20210903093720.52396;;84007;218400075;Mairie Avignon / Pôle Vivre Ensemble / DPT Culture;LO;;Tableau XLS du service métier, intégration et gécodage SIG;Avignon Intra muros;manuelle;1.0;;t;84007-journeesPatrimoine2021;844868.2885358959;6317743.469154993;4.804576064203395;43.94379538011177;43.94379538011177;4.804576064203395
1321;2021;11;Hôtel de Ville;Hôtel de Ville;Construit de 1845 à 1856 autour de la Tour du Jacquemart, seul vestige de l'ancienne livrée cardinalice d'Albano (XIVe s.), l’Hôtel de ville est le siège de l’administration communale et le lieu de la démocratie locale et citoyenne. La salle des Fêtes se distingue par son décor Second Empire.;"Visite libre

Visite guidée de l’Hôtel de Ville, du bureau et salon de Madame le Maire le samedi 18 septembre à 15h et le dimanche 19 septembre à 11h
";"Gratuit; Visite libre ; Pas de réservation préalable pour les visites mais inscriptions sur place dans la limite des places disponibles (20 personnes par visite) – Les personnes intéressées doivent se présenter 5 minutes avant dans le hall de l’Hôtel de Ville";;t;;Hôtel de ville et établissements municipaux;Hôtel de Ville, Place de l'Horloge - 84000 Avignon;;Gratuit;www.avignon.fr;Accès handicapé moteur partiel;;04.90.80.80.07;;;20210903093720.530683;20210903093720.530683;;84007;218400075;Mairie Avignon / Pôle Vivre Ensemble / DPT Culture;LO;;Tableau XLS du service métier, intégration et gécodage SIG;Avignon Intra muros;manuelle;1.0;;t;84007-journeesPatrimoine2021;844936.7308067179;6318378.8006904125;4.8056092676765205;43.94949755514887;43.94949755514887;4.8056092676765205
1322;2021;12;Palais du Roure;Palais du Roure;"ÀÀ proximité de la rue de la République, on découvre une porte cochère surmontée d’entrelacs de feuilles de mûriers sculptées. En la franchissant, on quitte le temps. Derrière elle se laisse goûter la beauté et le calme de l’hôtel de Baroncelli-Javon. Il fut pendant cinq siècles la résidence des Baroncelli (1462-1907), famille noble d’origine florentine. Construit dans le style du gothique tardif, il fut remanié vers 1700. Vers 1890, Frédéric Mistral, habitué des lieux, devait lui donner son nom de Palais du Roure, suite à une confusion. Au début du XXe s. la famille, ruinée, dut se résigner à vendre l’hôtel, qui connut alors dix ans de vicissitudes. En 1918, Jeanne de Flandreysy (1874-1959) l’achetait, le restaurait, le faisait refleurir, avant de le donner à la Ville d’Avignon en 1959. De ce passé privé, l’hôtel a conservé son esprit de demeure habitée, où les collections sont présentées naturellement. Amie de Frédéric Mistral et de Folco de Baroncelli, passionnée de culture latine, Jeanne de Flandreysy en fit à la fois un musée, une bibliothèque et un centre d’études réputés, à la gloire de la Provence et des cultures latines en général. En 1936, elle épousa Émile Espérandieu (1857-1939), archéologue de grand renom, dont les archives, les collections et la bibliothèque archéologiques vinrent rehausser le prestige des lieux. Enrichie depuis 1959 de nombreux dons, comme celui des archives personnelles de la famille Baroncelli depuis le XIVe s. la demeure continue ainsi de vivre, se distinguant par l’âme particulière que l’on y ressent. De 10h à 13h et de 14h à 18h : « Une demeure et ses collections » - Exposition temporaire
Une « demeure d’atmosphère », une « corne d’abondance », un « cabinet de curiosités »… Les qua-lificatifs pour décrire le Palais du Roure ont été nombreux et aucun, aussi bon soit-il, ne sait en des-siner les contours avec perfection et concision. Au carrefour entre plusieurs types d’institutions (musée, bibliothèque, centre d’archives et de documentation, Monument historique…), le lieu se caractérise surtout par son esprit, son ambiance, son âme, hérités de son histoire et des collections qui en ont découlé. Ainsi le lieu, meublé, se visite-t-il comme une demeure encore habitée et ses possesseurs passés semblent encore présents. C’est Jeanne de Flandreysy (1874-1959), proprié-taire à partir de 1918, qui a cristallisé l’identité du Roure et l’a transmis avec ses collections à la Ville d’Avignon. Femme très active et passionnée par de multiples domaines, elle a su réunir des collections d’une certaine diversité thématique, organisées d’une manière naturelle.
Salle d’exposition Marcel Bosqui jusqu’au 8 janvier 2022
A 10h30, 11h30, 14h30, 15h30, 16h30, 17h30 : « Une œuvre, une anecdote »
Visites-anecdotes sur l’exposition « Une demeure et ses collections »
Au sein de l’exposition « Une demeure et ses collections », en dix minutes, toutes les heures nous vous contons l’anecdote qui se cache derrière une œuvre, à chaque fois différente.
Dans la limite des places disponible – Durée 10 minutes
Salle d’exposition Marcel Bosqui

De 10h à 13h et de 14h à 18h : « Trouvez l’intrus »
visites des collections permanentes
Visite des collections permanentes à la recherche des objets insolites. En lien avec l’exposition « Une demeure et ses collections », des objets insolites ont été disséminés au 1e étage du Palais du Roure, dans les collections permanentes. A vous de trouver les intrus à l’aide d’un livret de visite.
1e étage du Palais du Roure

De 10h à 13h et de 14h à 18h:« Qui est-ce ? » Finalisez l’identification des photos provençales du Don Philippe et Maïté Laurent – Inventaire Participatif
Pendant la fermeture des musées, le travail de l’ombre s’est poursuivi. Nous avons notamment trai-té les acquisitions récentes : classement, inventaire, numérisation, conditionnement, rangement... Ce fut spécialement le sort des photographies du Fonds Laurent : plus de 10 500 clichés datant de 1901 à 2007 et portant sur la culture provençale (fêtes, défilés en costumes, inaugurations, surtout des années 1980 aux années 2000…). Toutes ces photographies n’ont pas pu être identifiées. Amis avignonnais, vous connaissez certains personnages pris en photo : venez nous aider !
Cour du Palais du Roure
De 10h à 13h et de 14h à 18h : « Le Roure un jeu d’enfant » - Jeu de société en famille
Des jeux de société en lien avec les collections du Palais du Roure sont proposés aux visiteurs en famille : puzzle, memory, jeu des sept familles.
Salle de médiation
De 10h à 13h et de 14h à 18h : « Au Roure en Famille » - Visite des collections
A l’aide d’un livret-jeu, les enfants découvrent de manière ludique les collections du parcours libre du Palais du Roure.
Accueil



";"Samedi et Dimanche de 10h à 13h et de 14h à 18h:                                                                                                       - Exposition temporaire: ""Une demeure et ses collections"" - Salle Marcel Bosqui Samedi 18 à 15h : Jeanne de Flandreysy, collectionneuse passionnée : entre Provence et Italie
Venez découvrir Jeanne de Flandreysy, valentinoise d’origine mais avignonnaise d’adoption, une femme passionnée par la latinité et la culture provençale qui fit de l’hôtel de Baroncelli-Javon un écrin de culture méditerranéenne.
Durée : 25 minutes
Salle d’exposition Marcel Bosqui – rez-de-chaussée (à l’occasion de l’exposition temporaire « Une demeure et ses collections »)
Samedi 18 toute la journée : Cartel détaillé de l’œuvre « Portrait de Jeanne de Flandreysy » par Paul-César HELLEU (1859-1927) toute la journée
Boudoir – 1er étage


- Une oeuvre, une anecdote"" Salle Marcel Bosqui - 10h30, 11h30, 14h30, 15h30, 16h30, 17h30                                                                                                                                                                                                                 - ""Qui est-ce ?"" Finalisez l'identification des photos provençales du don Philippe et Maïté Laurent - Inventaire Participatif - Gratuit                                                                                                                                                                                                                - ""Le Roure un jeu d'enfant"" - Jeu de société en famille - salle de médiation - Gratuit                                                                                                                                                                                                                - ""Au Roure en famille"" - Livret-jeu - accueil - gratuit";"Gratuit;
Samedi et dimanche de 10h à 13h et de 14h à 18h





";;t;t;Hôtel de ville et établissements municipaux;3 rue du Collège du Roure - 84000 Avignon;;Gratuit;www.avignon.fr;;palais.roure@mairie-avignon.vom;04.13.60.50.01;;04.13.60.50.01;20210903093720.532237;20210903093720.532237;;84007;218400075;Mairie Avignon / Pôle Vivre Ensemble / DPT Culture;LO;;Tableau XLS du service métier, intégration et gécodage SIG;Avignon Intra muros;manuelle;1.0;;t;84007-journeesPatrimoine2021;844933.8442975271;6318271.640742092;4.8055427999999925;43.94853400002231;43.94853400002231;4.8055427999999925
1323;2021;13;Musée Lapidaire;Musée Lapidaire;"Collections archéologiques du Musée Calvet
Ce fleuron de l’architecture baroque est l’œuvre de deux éminents architectes, Etienne Martellange et François des Royers de la Valfenière. La construction débute en 1620 sous l’égide de Martellange. L’édifice est consacré en 1655. Outre des sculptures celtiques tels la fameuse « Tarasque » de Noves, un monstre androphage ithyphallique, le « guerrier » de Mondragon, acquis par la Fondation Calvet au XIXe siècle, de nombreuses œuvres gallo-romaines. La section égyptienne se distingue par un groupe de stèles funéraires, dont deux magnifiques dépôts consentis par le musée du Louvre. Une mosaïque gallo-romaine, récemment installée dans le chœur de l’édifice, complète le panorama des civilisations de l’Antiquité.
""Un trésor méconnu de la collection du marquis Campana : Un pithos étrusque"" : A l’occasion des JEP, le musée sort de ses réserves une pièce emblématique de la collection étrusque, un spectaculaire pithos (une grande jarre) en terre cuite, ornée d’un décor géométrique et figuré : une magnifique frise de sphinges, créatures féminines fantastiques, courant sur la panse. Ce décor est fort intéressant sur cette classe de monuments. Dans les coulisses du Céramique : atelier autour de la matière : En grec, le terme, kerameus, potier, fait référence au savoir-faire de l’artisan qui surveille et supervise la cuisson des vases d’argile, étape cruciale dans la chaîne de production. À Athènes, les ateliers de potiers étaient regroupés dans un quartier situé en dehors de la cité, appelé précisément Le Céramique. Dans le cadre de l’exposition La Chanson du potier, une animation est proposée pour explorer la fabrication, les formes, le décor des vases grecs, attique, italiotes. Après la découverte de l’exposition, un atelier sera proposé et chacun pourra mettre la main à la pâte ! Après une visite au musée Lapidaire, nous nous rendrons au musée Calvet et l’atelier se déroulera en extérieur, pour profiter du magnifique jardin.
Enfant à partir de 6 ans accompagné d’un adulte. Réservation obligatoire dans la limite des places disponibles : 04 90 85 75 38 ou sur place à l’accueil du musée Calvet aux horaires d’ouverture.
Samedi 18 de 15h à 16h30 – Gratuit, sur réservation à l’accueil du musée Calvet ou au 04 90 85 75 38 Médiation sur mesure : Le médiateur du musée Lapidaire sera présent à vos côtés toute la journée pour partager avec ceux qui le souhaitent des moments d'échanges avant, pendant et après votre visite libre. Il répondra à vos interrogations, partagera quelques astuces de visite… vous indiquera les meilleurs ""spots"" pour se poser un instant et dessiner devant une œuvre. Votre fille est une aventurière et rêve de voyage, votre petit fils est passionné par les animaux …. Le médiateur pourra vous orienter pour que chacun trouve son bonheur parmi les œuvres de nos collections ... pour que votre expérience de visite en famille soit unique et sous le signe du plaisir et de la convivialité.
Dimanche 19 de 10h à 13h et de 14h à 18h avec Etienne DI PIPPA, médiateur culturel.
Dimanche 19 à 11h30, visite guidée de la collections avec Odile CAVALIER, conservatrice en chef.";Un trésor méconnu – exposition d’un pithos étrusque – samedi et dimanche – entrée libre.                                                                                                                                             Dans les coulisses du Céramique : atelier autour de la matière – Gratuit – Inscription à l’accueil du musée Calvet ou au 04 85 75 38                                                                                                                                                       Médiation sur mesure : Dimanche de 10h à 13h et de 14h à 18h avec Etienne DI PIPPA, médiateur culturel, dimanche 19 à 11h30 avec Odile CAVALIER, conservatrice en chef.;Gratuit – entrée libre sauf inscription pour l’atelier céramique au 04 85 75 38;;t;t;Hôtel de ville et établissements municipaux;27  Rue de la République- 84000 Avignon;;Gratuit;http://www.musee-lapidaire.org/;Accès handicapé moteur partiel;;04.90.85.75.38;;04.90.85.75.38;20210903093720.533905;20210903093720.533905;;84007;218400075;Mairie Avignon / Pôle Vivre Ensemble / DPT Culture;LO;;Tableau XLS du service métier, intégration et gécodage SIG;Avignon Intra muros;manuelle;1.0;;t;84007-journeesPatrimoine2021;844971.5869802027;6317978.071624687;4.8059291950289404;43.94588490959521;43.94588490959521;4.8059291950289404
1325;2021;15;Musée Calvet;Musée Calvet;"Collections Beaux-arts
Le musée, né du legs consenti par Esprit Calvet (1728-1810), médecin, érudit et curieux avignonnais, à la Fondation Calvet, est abrité dans l’ancien hôtel de Villeneuve-Martignan, acquis par la Ville en 1833. Ce somptueux écrin architectural, construit entre cour et jardin, a été édifié entre 1741 et 1753 par Jean-Baptiste Franque et son fils, François II, ancien pensionnaire de l’Académie de France à Rome, architecte du roi à Paris. Les œuvres exposées appartenant à la Fondation Calvet ou déposées par l’État, offrent un vaste panorama de la peinture et de la sculpture française, italienne, flamande, du XVe au XXe siècle.
Samedi 18 à 20h : Projection du film « Brûlez Molière ! »
De Jacques Malaterre, dans la Galerie Vernet. La projection du film Brûlez Molière ! Ramène éga-lement l’attention sur l’illustre peintre avignonnais Nicolas Mignard (1606-1668). L’atelier de l’artiste jouxtait le bâtiment du Jeu de paume où se produisait alors la troupe itinérante dirigée par Molière et Dufresne. En 1658, Mignard exécuta un premier portrait de Molière. Plusieurs salles du musée Cal-vet réunissent des œuvres du fondateur de la dynastie dont un portrait de Louis XIV. Mignard se fit connaître du souverain lors du passage de ce dernier à Avignon en 1660.
Gratuit Sur réservation dans la limite des places disponibles au 04 90 86 33 84
Visites :
Samedi 18 à 11h30 : « Portrait de la cantatrice Giuseppina Grassini » par Elisabeth Vigée-Lebrun
Par Odile Cavalier, conservateur en Chef du Patrimoine, Focus sur le « Portrait de la cantatrice Giuseppina Grassini » par Elisabeth Vigée- Lebrun, vers 1806 (?). En 1827, la mezzo-soprano fut reçue à l’Académie de Vaucluse. Elle légua son tableau à cette institution. Le tableau, longtemps en dépôt au musée Calvet fut acquise par la Fondation Calvet en 1998.
Un patrimoine universel : A la découverte des collections extra-occidentales
Le musée sort de ses riches réserves quelques pièces provenant d’Afrique, d’Océanie, d’Inde, d’Amérique du Sud, un olifant en ivoire, une statuette féminine moai kavakava en bois de rose, un instrument de toilette en bois et verre étamé, des chaussures en gomme d’hévéa.
Entrée libre

L’ubiquité du Beau, la Collection Lambert investit le Musée Calvet jusqu’au 30 septembre 2021 :
La collection Lambert investit le Musée Calvet jusqu’au 30 septembre 2021 L’exposition qui se tient au musée Calvet poursuit la fructueuse collaboration avec la Collection Lambert, inaugurée en 2020 dans le cadre de L’Artiste en majesté. Le propos s’avère ici à la fois plus large et ambitieux. La Collection Lambert, à travers des prêts prestigieux, consentis par le C.N.A.P. et un collectionneur privé – se détachent notamment les noms d’Andres Serrano, Nan Goldin, Miquel Barceló, Douglas Gordon, Louise Lawler, Robert Barry - investit toutes les salles où, pour l’occasion, plusieurs pein-tures ont été décrochées des cimaises. Outre la parenté architecturale unissant les deux institu-tions, abritées l’une et l’autre dans un somptueux hôtel particulier du XVIIIe siècle, sur le plan histo-rique, des liens amicaux unirent le marquis de Caumont (1692-1745) un des premiers collection-neurs d’antiques en Papimanie et le marquis de Calvière (1693-1777) dont le cabinet aboutit en par-tie dans celui d’Esprit Calvet (1728-1810). En 1811, le legs consenti à la Fondation Calvet par le médecin et érudit donna naissance au musée portant son nom. Par ailleurs, les deux musées of-frent la particularité d’être habités par la présence ou le souvenir des amateurs pour lesquels, sui-vant Baudelaire, « la collection devait apparaître comme une famille et une famille de leur choix ». Yvon Lambert, Joseph de Seytres, marquis de Caumont, Charles-François de Calvière, Esprit Cal-vet, le médecin Sauvan, Joseph Rignault et en dernier lieu, la flamboyante figure de Marcel Puech, un proche d’Yvon Lambert, ont en commun d’aimer ou d’avoir passionnément aimé « les objets de beauté et de curiosité », se vouant à la quête dévorante de la pièce rare ou manquante. Dans chaque salle, les collections permanentes sont confrontées à des œuvres de la Collection Lambert. Qu’il s’agisse d’allégories, de portraits, paysages, scènes de genre, nus, de peintures d’histoire, les peintures, photographies, sculptures, prêtées par la Collection Lambert, dialoguent avec ces œuvres, tissant des correspondances subtiles ou inattendues et questionnent également la question du Beau, manifestant, suivant la suggestive formule de Charles Cordier (1827-1905), son ubiquité. Au cours de sa déambulation, le visiteur ne manquera pas d’être frappé par la pérennité et la capaci-té à produire du sens des grandes figures mythiques, bibliques, la puissance suggestive des sym-boles, codes religieux, immarcescible source d’inspiration pour l’imaginaire des artistes. Un poème de Pessoa, Ulysse en témoigne avec force : Le mythe est le rien qui dit tout…. Lui qui put jeter l’ancre ici / a existé de n’être pas / Sans exister il nous combla / Pour n’être pas venu, il vint / A nous et nous créa / La légende ainsi se distille / pénétrant la réalité qu’elle pénètre et féconde / En contrebas, la réalité, moitié de rien, va se mourant.
Dimanche 19 à 11 h 30 : Visite guidée de la salle des Maîtres du Nord par Franck Guillaume, Documentaliste scientifique.
De 10h à 13h et de 14h à 18h
";"Projection du film Brûlez Molière ! Samedi 20h – Gratuit, sur réservation au 04 90 86 33 84 Visites :
Samedi 18 à 11h30 : « Portrait de la cantatrice Giuseppina Grassini » par Elisabeth Vigée-Lebrun
Un patrimoine universel : A la découverte des collections extra-occidentales Entrée libre L’ubiquité du Beau, la Collection Lambert investit le Musée Calvet jusqu’au 30 septembre 2021 Dimanche 19 à 11 h 30 : Visite guidée de la salle des Maîtres du Nord par Franck Guillaume, Documentaliste scientifique.";Gratuit – entrée libre sauf inscription pour la projection du film au 04 90 86 33 84;;t;t;Hôtel de ville et établissements municipaux;65 Rue Joseph Vernet - 84000 Avignon;;Gratuit;www.musee-calvet.org;;musee.calvet@mairie-avignon.com;04,90,86,33,84;;;20210903093720.53746;20210903093720.53746;;84007;218400075;Mairie Avignon / Pôle Vivre Ensemble / DPT Culture;LO;;Tableau XLS du service métier, intégration et gécodage SIG;Avignon Intra muros;manuelle;1.0;;t;84007-journeesPatrimoine2021;844767.3359624147;6318096.894525303;4.803419500000007;43.946996000022295;43.946996000022295;4.803419500000007
1326;2021;16;Muséum  Requien;Muséum et Bibliothèque Requien;"Le Museum Requien porte le nom de son fondateur Esprit Requien (1788- 1851) qui, passionné de sciences naturelles, de beaux-arts et bibliophile averti donna ses collections à la Fondation Calvet pour les offrir à ses concitoyens. Les collections d’histoire naturelle, rassemblées en l’hôtel de Raphaélis de Soissans, comptent plusieurs centaines de milliers d’échantillons, le seul herbier de Requien comptabilise environ 300.000 plantes. Depuis lors, les dons de particuliers ou d’associations et les achats de la Fondation Calvet n’ont pas cessé et sont venus enrichir cet ensemble naturaliste de tout premier ordre. C’est aussi un centre de recherches reconnu internationalement.« Le Patrimoine scientifique pour tous : à la découverte de Rose Escoffier »
Rose Escoffier née Guérin, était une géologue et paléontologue originaire d’Avignon, qui est présente de nos jours à travers ses collections qui appartiennent à la Fondation Calvet. Elle était également concernée par la botanique, puisqu’elle a constitué un petit herbier.
Comme chaque année pour les Journées européennes du Patrimoine, l’équipe du Muséum Requien aura le plaisir d’accueillir les visiteuses et les visiteurs sur l’ensemble de la fin de semaine, avec une ouverture le dimanche, de 10h à 13h et de 14h à 18h.
Samedi 18 et dimanche 19, une séance à 14h30 et une séance à 16h30 :
Atelier « les fossiles de Mme Escoffier »
Après avoir observé des spécimens de fossiles de la collection de Rose Escoffier (propriété de la Fondation Calvet), Katia Holtz de Diego accompagnera toute la famille pour créer des empreintes et des sculptures de ces animaux pétrifiés. Manipulation d’objets véritables, de matériaux et collections sorties pour l’occasion seront au programme !
Atelier pour les familles, pour les enfants dès 5 ans (obligatoirement accompagnés d’un adulte).
Durée : 1h30 Nombre de places limité : réservation recommandée au 04.13.60.51.20 ou museum.requien@mairie-avignon.com
Samedi 18, pendant la période d’ouverture du muséum : Animations autour de la paléontologie de Rose Escoffier
Alain Pavanello, chargé des collections de géologie et de malacologie, passionné d’histoire des sciences et de biographie des personnes qui ont apporté leurs collections au Muséum Requien, sera présent dans les expositions de l’établissement. Tout au long de la journée, à la demande ou spontanément, il proposera explications et anecdotes sur les fossiles de Rose Escoffier.
Sans réservation, inclus dans la visite des expositions.
A partir du 18 septembre : L’herbier de Rose Escoffier
Propriété de la Fondation Calvet, à laquelle il a été donné en 1947, l’herbier de Rose Escoffier sera partiellement dévoilé dans des vitrines du Muséum Requien. Ces différentes planches donneront l’occasion de parler de botanique, de l’histoire d’Avignon et de cette femme hors du commun.
Sans réservation, inclus dans la visite des expositions
De 10h à 13h et de 14h à 18h
";"Atelier pour les familles, dès 5 ans (obligatoirement accompagnés d'un adulte, sans réservation):                                                                                        - Samedi: Animations autour de la paleontologie de Rose Escoffier.                                                                                            - Samedi et Dimanche: Animations l'herbier de Rose Escoffier                                                                                                                                                                                                            Atelier ""les fossiles de Rose Escoffier"" (1h30): samedi 18 et dimanche 19, séance à 14h30 puis 16h30, nombre de place limitée, réservation au 04 13 60 51 20 ou par mail à musueum.requien@maiire-avignon.com

Entrée libre de 10h à 13h et de 14h à 18h
";"Gratuit;

Samedi et dimanche de 10h à 13h et 14h à 18h";;;t;Hôtel de ville et établissements municipaux;67 Rue Joseph Vernet - 84000 Avignon;;Gratuit;www.museum-requien.org;Accès handicapé moteur partiel;musee.requien@mairie-avignon.com;04.90.82.43.51;;;20210903093720.538986;20210903093720.538986;;84007;218400075;Mairie Avignon / Pôle Vivre Ensemble / DPT Culture;LO;;Tableau XLS du service métier, intégration et gécodage SIG;Avignon Intra muros;manuelle;1.0;;t;84007-journeesPatrimoine2021;844766.2939072164;6318063.416180575;4.803397;43.94669500002229;43.94669500002229;4.803397
1327;2021;17;Archives municipales - Ancien Mont-de-piété;Archives municipales - Ancien Mont-de-piété;Les Archives municipales sont un service public administratif, culturel et patrimonial. Grenier de la mémoire, elles s’attachent à faciliter l’accès de tous aux 7 km de documents collectés, pour la recherche scientifique ou pour le plaisir. Elles organisent régulièrement des expositions sur l’histoire de la ville et de ses habitants. Les Archives sont installées depuis 1986 dans l’ancien Mont-de-piété d’Avignon. Situé dans l’ancienne chapelle, un espace muséal présente des objets, des œuvres et des documents retraçant l’histoire du plus ancien mont-de-piété de France (1610) et de l’établissement dédié au conditionnement des soies que ses administrateurs ont créé en 1801.;"Samedi 18 et dimanche 19 de 14h à 18h :

- Coulisses des Archives : visites et (re)découverte

Installée dans l’ancien Mont de piété d’Avignon depuis 1986, l’équipe des Archives municipales accueillera le public tout le week-end et répondra à ses questions au fil de visites libres ou lors de visites « flash » (selon les contraintes sanitaires).

- Découverte du musée du Mont-de-piété et de la Condition-des-soies

Cet espace muséal est installé dans l’ancienne chapelle du Mont-de-piété, rue Saluces. Grâce à des objets, documents et œuvres, il restitue l’histoire du plus ancien mont-de-piété de France.

- Découverte de l’exposition « Fêtes et trouble-fêtes »

Grâce à un corpus de documents d’archives (cartes postales, photographies, affiches, etc.), cette exposition en plein air dessine un portrait à facettes de la fête et du loisir, interroge les débordements et la notion d’encadrement.

- « En quête de fêtes » : jeu en famille, entre amis ou en solo

Aiguisez votre sens de l’observation et découvrez de manière différente l’univers de l’exposition « Fêtes et trouble-fêtes » 15-20 minutes. Tous publics.

- À vos albums ! Collecte de photographies de fêtes

Enrichissez les fonds des Archives municipales d’Avignon en envoyant ou en apportant des photographies datées et localisées de vos fêtes ! Vous transmettrez ainsi à la postérité un peu de vous et un témoignage de notre époque. Vous pouvez joindre à votre don un texte, une explication ou encore les conditions de réutilisation de vos photos.

Samedi 18 et dimanche 19 à 14h15 et 16h15 : Ateliers famille : « La fête au placard ? »

Découvrez tout des codes du « placard », cette affiche administrative qui s’imposait dans l’espace public pour informer les habitants, et de son rôle dans l’encadrement et la régulation des moments festifs. Concevez et mettez en forme votre affiche trouble-fête et garde-fou !
Ateliers animés par Camille Tomas, médiatrice des Archives municipales. Durée : 1 heure - Salle pédagogique des Archives municipales.
Salle pédagogique des Archives municipales 14 personnes à partir de 8-9 ans (les enfants doivent être accompagnés d’un adulte). Inscription recommandée : Jusqu’au vendredi 17/09 : 04 90 86 53 12 / archives.municipales@mairie-avignon.com. Sur place aux horaires d’ouverture.



Samedi 18 à 16h30 : « Avant les Archives, le Mont-de-piété »

Présentation de l’histoire du Mont-de-piété d’Avignon par Sylvestre Clap, directeur des Archives municipales.

Durée : 1 heure – Cour des Archives municipales – Dans la limite des places disponibles.


Dimanche 19 à 16h30 : « Fête et spectacle vivant dans les collections de la Bibliothèque nationale de France »

Faire des ponts entre les institutions et découvrir un aperçu des collections complémentaires sur la thématique de la fête et du loisir, c’est ce que propose cette prometteuse rencontre avec Jean-Baptiste Raze, conservateur des bibliothèques, responsable de l’antenne de la Bnf à la Maison Jean Vilar.
Durée : 1 heure – Cour des Archives municipales – Dans la limite des places disponibles.
                                                    ";Samedi et dimanche de 14h à 18h;;t;;Hôtel de ville et établissements municipaux;6 Rue Saluces - 84000 Avignon;;Gratuit;www.avignon.fr;Accès handicapé moteur partiel;archives.municipales@mairie-avignon.com;04.90.86.53.12;;;20210903093720.540659;20210903093720.540659;;84007;218400075;Mairie Avignon / Pôle Vivre Ensemble / DPT Culture;LO;;Tableau XLS du service métier, intégration et gécodage SIG;Avignon Intra muros;manuelle;1.0;;t;84007-journeesPatrimoine2021;845346.4594162795;6318455.544371351;4.810733764834121;43.95010360891938;43.95010360891938;4.810733764834121
1329;2021;19;Palais des Papes;Palais des Papes;Palais-forteresse, résidence des souverains pontifes et siège de la chrétienté au XIV e siècle. Construction de 1335 à 1352, œuvre des papes Benoît XII (Palais Vieux) et Clément VI (Palais Neuf). Cour d’honneur qui doit sa célébrité théâtrale à Jean Vilar et à des artistes tels Gérard Philipe. Depuis 1947 lieu principal du Festival d’Avignon. Circuit visite libre sans histopad intégrant des salles non ouvertes habituellement au public : Cour d’Honneur, Cloître Benoît XII, Grand Tinel, Chambre de Parement, Bibliothèque Haute, Chapelle Saint Michel, Grand Promenoir, Tour de la Gâche, Chambre Neuve du Camérier, Grande Chapelle, Escalier d’Honneur, Grande Audience, salle de la Théologie.;"Circuit visite libre sans histopad  et exposition dans la Grande chapelle avec actuellement Yan Pei-Ming ""Tigres et vautours"".



";"Samedi et dimanche de 10 h à 17h (fermeture des grilles à 16h soit 1h avant). Inscription obligatoire par réservation sur www;avignon-tourisme.com ";t;t;;Hôtel de ville et établissements municipaux;Place du Palais - 84000 Avignon;;Gratuit;www.palais-des-papes.com;;;;;;20210903093720.544053;20210903093720.544053;;84007;218400075;Mairie Avignon / Pôle Vivre Ensemble / DPT Culture;LO;;Tableau XLS du service métier, intégration et gécodage SIG;Avignon Intra muros;manuelle;1.0;;t;84007-journeesPatrimoine2021;845071.2033376253;6318504.546646774;4.807319779170511;43.95060124425516;43.95060124425516;4.807319779170511
1331;2021;21;Archives départementales de Vaucluse;Archives départementales de Vaucluse;Des visites guidées vous donneront accès au patrimoine conservé aux archives départementales de Vaucluse. La découverte de documents originaux du Moyen Âge à aujourd’hui, des missions contemporaines d’un service d’archives et de la Chapelle de Benoît XII constitue le programme de votre visite des archives départementales.;Samedi 18 de 15h à 20h. Départ toutes les 30 minutes. durée 1h.  Dimanche 19 de 13h à 18h. Départ toutes les 30 minutes. durée 1h.;"Visites gratuites, sur inscription, limitées à 15 personnes
archivess84@vaucluse.fr - 04 90 86 16 18 – https://archives.vaucluse.fr
";;;;Conseil départemental de Vaucluse et Hôtel Préfectoral de Vaucluse;Palais des Papes, Place du Palais - 84000 Avignon;;Gratuit;http://archives.vaucluse.fr;;;04.90.86.16.18;;04.90.86.71.72;20210903093720.553926;20210903093720.553926;;84007;218400075;Mairie Avignon / Pôle Vivre Ensemble / DPT Culture;LO;;Tableau XLS du service métier, intégration et gécodage SIG;Avignon Intra muros;manuelle;1.0;;t;84007-journeesPatrimoine2021;845059.5939915865;6318543.987034513;4.807186442116591;43.95095849211742;43.95095849211742;4.807186442116591
1332;2021;22;Chapelle Saint-Charles par le Service Archéologie du Département de Vaucluse;Chapelle Saint-Charles par le Service Archéologie du Département de Vaucluse;"Du 27 août au 24 septembre dans la chapelle Saint-Charles à Avignon, du mardi au dimanche, de 10h à 18h : Exposition Archéo-sexisme et visages d’archéologues vauclusiennes
Quelle place les femmes occupent-elles en archéologie ? A travers l’exposition Archéo-sexisme, qui regroupe des témoignages sur le sexisme en archéologie recueillis par le collectif Paye ta truelle, et les portraits de personnalités féminines marquantes de l’archéologie vauclusienne, cette présentation tente d’éclairer la question de la place des femmes dans le domaine professionnel de l’archéologie (activité de terrain, recherche, valorisation…) et de mettre en lumière leur apport à la connaissance et à la valorisation de ce patrimoine.
Visites gratuites
Samedi 18 à 15h : Une conférence consacrée aux enjeux du sexisme en archéologie, à la question de l’archéologie du genre et aux problématiques scientifiques en lien avec ce thème, assurée par l’une des conceptrices de l’exposition Archéo-sexisme sera, par ailleurs, proposée samedi 18 sep-tembre à 15h, dans la Cour de la Chapelle Saint-Charles. Elle sera suivie d’un temps d’échanges et de débat.


";Du 27 août au 24 septembre dans la Chapelle Saint-Charles à Avignon, du mardi au dimanche, de 10h à 18h. Samedi 18 à 15h : Une conférence consacrée aux enjeux du sexisme en archéologie dans la Cour de la Chapelle Saint-Charles;Entrée libre Renseignement sur www.vaucluse.fr;;;;Conseil départemental de Vaucluse et Hôtel Préfectoral de Vaucluse;4 rue Saint-Charles;;Gratuit;;;;;;;20210903093720.555356;20210903093720.555356;;84007;218400075;Mairie Avignon / Pôle Vivre Ensemble / DPT Culture;LO;;Tableau XLS du service métier, intégration et gécodage SIG;Avignon Intra muros;manuelle;1.0;;t;84007-journeesPatrimoine2021;844780.189432993;6317933.511432904;4.803533085219187;43.94552335473752;43.94552335473752;4.803533085219187
1334;2021;24;Hôtel Forbin de Sainte Croix - Hôtel Préfectoral de Vaucluse;Hôtel Forbin de Sainte Croix - Hôtel Préfectoral de Vaucluse;"Hôtel Forbin de Sainte Croix - Hôtel Préfectoral de Vaucluse
Hôtel Forbin de Sainte Croix - Hôtel Préfectoral de Vaucluse Sur l’emplacement de l’Hôtel Forbin de Sainte-Croix s’élevait au XIVe siècle la livrée de Poitiers. L’un des occupants en fut Pedro de Luna, le futur Benoît XIII, pape du schisme, le dernier à avoir séjourné à Avignon (de 1394 à 1403). Au XVe siècle, l’édifice est acquis par le Cardinal-Légat Julien de la Rovere qui y installe, en 1476, un collège destiné à accueillir des étudiants en droit civil et droit canon. Au XVIIe siècle des travaux y sont effectués par François des Royers de la Valfenière (1641-1642) et entre 1697 et 1702, Pierre Mignard dresse une nouvelle façade. L’Hôtel, confisqué à la Révolution, accueille le Directoire du département (1793-1795) avant d’être affecté en 1798 à l’Administration départementale et devenir avec la création du corps préfectoral, la Préfecture de Vaucluse.L’Hôtel de Forbin a fait l’objet d’une inscription partielle à l’inventaire supplémentaire des Monuments Historiques, le 4 octobre 1932. Sont concernés : la façade sur la place, le mur de soutènement du jardin, la salle voûtée du rez-de-chaussée et le grand escalier. Il abrite aujourd’hui les salons de réception du Préfet. 
En fonction de l’évolution sanitaire plus de renseignement sur le site internet de la Préfecture : vaucluse.gouv.fr 
3 Rue Viala
";En fonction de l'évolution sanitaire plus de renseignement sur vaucluse.gouv.fr;Voir sur le site pour plus d’informations.;;;;Conseil départemental de Vaucluse et Hôtel Préfectoral de Vaucluse;3 Rue Viala - 84000 Avignon;;Gratuit;http://www.vaucluse.gouv.fr/;;;;;;20210903093720.558204;20210903093720.558204;;84007;218400075;Mairie Avignon / Pôle Vivre Ensemble / DPT Culture;LO;;Tableau XLS du service métier, intégration et gécodage SIG;Avignon Intra muros;manuelle;1.0;;t;84007-journeesPatrimoine2021;844892.4503912407;6318235.480480312;4.805017010987253;43.948217172003304;43.948217172003304;4.805017010987253
1335;2021;25;Maison Jean Vilar et Bibliothèque Nationale de France;Maison Jean Vilar et Bibliothèque Nationale de France;En raison de travaux de mise aux normes, la bibliothèque de la Maison Jean Vilar sera fermée au public au cours de l’année 2020-2021. Retrouvez l’exposition « Côté jardin » au Jardin du Rocher des Doms et  une conférence menée par Jean-Baptiste RAZE aux Archives Municipales le dimanche 19 à 16h30 : «  Fête et spectacle vivant dans les collections de la Bibliothèque Nationale de France »;;;;t;;Autre musées et sites partenaires;8 Rue de Mons - 84000 Avignon;;Gratuit;www.maisonjeanvilar.org;Accès handicapés moteurs partiel;;04.90.86.59.64;;;20210903093720.566861;20210903093720.566861;;84007;218400075;Mairie Avignon / Pôle Vivre Ensemble / DPT Culture;LO;;Tableau XLS du service métier, intégration et gécodage SIG;Avignon Intra muros;manuelle;1.0;;t;84007-journeesPatrimoine2021;845012.6735756922;6318348.933202122;4.8065465147945226;43.949213197589565;43.949213197589565;4.8065465147945226
1336;2021;26;Musée Angladon;Musée Angladon;Découvrez la collection d’art du pionnier de la haute couture Jacques Doucet. Présentation en permanence de chefs-d’œuvre de Modigliani, Picasso, Cézanne, Degas, Sisley, Van Gogh... Salons historiques et Cabinet d’Extrême Orient.;"Samedi 18 de 14h à 16h : Visite de l’exposition May Ray, atelier de cadavre exquis, dessin poé-tique.
Dimanche 19, deux performances de danse programmées en alternance à 15h, 15h30, 16h, 16h30, 17h et 17h30 : Attitudes habillées. Les soli. Création de Balkis Moutashar, chorégraphe et danseuse. Attitudes habillées propose un voyage dans l’histoire du vêtement, et dans l’histoire des formes du corps que les vêtements ont dessiné au fil du temps. Des corsets qui ont modifié organiquement la morphologie des femmes aux coiffes démesurées ou aux chaussures à plateaux fantastiques créant l’illusion de corps immenses, le vêtement a dessiné au fil du temps des sil-houettes parfois spectaculaires, influant sur les possibilités de mouvement et de déplacement de ceux qui les portaient, sur leur façon d’être au monde, engageant d’emblée le corps dans la repré-sentation. Dans le cadre de La saison Degas, en partenariat avec Les Hivernales – CDCN d’Avignon. Avec le soutien de Marty de Cambiaire – Tableaux & Dessins.
";Visite exposition May Ray le samedi de 14h à 16h. Deux performances de danse en alternance à 15h, 15h30, 16h, 16h30, 17h et 17h30. Réservation à accueil@angladon.com ou au 04 90 82 29 03 - Tarif 3€.;;;;Autre musées et sites partenaires;5 rue Laboureur - 84000 Avignon;;3;angladon.com;Accès handicapés moteurs partiel (rez-de-chaussée);accueil@angladon.com;04.90.82.29.03;;;20210903093720.568447;20210903093720.568447;;84007;218400075;Mairie Avignon / Pôle Vivre Ensemble / DPT Culture;LO;;Tableau XLS du service métier, intégration et gécodage SIG;Avignon Intra muros;manuelle;1.0;;t;84007-journeesPatrimoine2021;845048.9760258372;6318002.9705238305;4.806899999999999;43.946093000022294;43.946093000022294;4.806899999999999
1337;2021;27;Musée Vouland;Musée Vouland;Ce musée à échelle humaine dit « maison du XVIIIe siècle » est l’ancienne demeure de l’industriel de l’agro-alimentaire et collectionneur Louis VOULAND (1883-1973). Une atmosphère intimiste émane des collections d’Arts Décoratifs des XVIIe et XVIIIe siècles et du jardin. Mobilier et objets d’art exceptionnels, chaise à porteurs, sièges et commodes, encoignures et secrétaires, tables de jeux, chambre chinoise, faïences, de Marseille, Moustiers, Montpellier, Lyon..., porcelaines d’Extrême-Orient et de Sèvres. Ouvert en 1982, le musée est géré par la fondation Louis Vouland, reconnue d’utilité publique.;"Exposition « On sort de notre réserve ! »
Samedi 18 de 14h à 15h30 : Portrait, trait pour trait ?
« S’il est vrai que le portrait permet l’idéalisation, la ressemblance doit pourtant y dominer ; c’est l’image idéale de tel ou tel homme, non l’image idéale de l’homme en général » écrivait le critique et théoricien allemand Lessing en 1766 à propos du portrait.
A partir de portraits présentés au musée, dessinés, gravés, sculptés et peints, des XVIIe, XVIIIe, XIXe et XXe siècles, cette visite nous invite à nous interroger sur ce qu’a pu être le portrait avant l’invention de la photographie, et sur sa place aujourd’hui, dans la sphère publique ou privée. Avec Odile Guichard, conservatrice.
Participation libre et solidaire – sur inscription au 04 90 86 03 79 ou à musee.vouland@wanadoo.fr
Samedi 18 de 16h à 17h30 : Derrière des images, des femmes
Qui sont ces femmes du XVIIIe au XXe siècle que l’on peut croiser au musée, représentées ou ci-tées ? Cette visite propose de s’arrêter sur des figures féminines, à partir de leurs portraits peints, dessinés, sculptés ou gravés, de leur création ou d’objets qui ont été fabriqués pour elles ou leur ont appartenu. Et, à partir d’elles, nous évoquerons l’évolution de la place et du rôle des femmes dans la société. Avec Coline Robert, médiatrice culturelle.
Participation libre et solidaire – sur inscription au 04 90 86 03 79 ou à mu-see.vouland@wanadoo.fr
Samedi 18 et dimanche 19 de 13h à 18h : Petit, Grand, Famille
Le musée propose différents documents, parcours-jeux, parcours « première visite » ou livret de visite qui vous permettent de découvrir le musée, l’exposition et le jardin à votre rythme, sérieuse-ment ou en vous amusant. Que diriez-vous d’une murder party au coeur de l’après-guerre (1939-1945) ?
Participation libre et solidaire renseignement au 04 90 86 03 79 ou à mu-see.vouland@wanadoo.fr
Dimanche 19 de 16h à 17h30 : Amateur et curieux
Cette visite s’adresse à tous les curieux qui souhaitent découvrir la collection d’arts décoratifs des XVIIe et XVIIIe siècles de Louis Vouland (1883-1973), industriel de l’agroalimentaire né à Noves, mais aussi les dessins et peintures des XIXe et XXe siècle de l’exposition « On sort de notre ré-serve ! », l’architecture et le jardin du musée.Il s’agit de vous apporter quelques repères tant sur l’histoire du quartier du musée que sur les ébénistes parisiens et les fabriques de faïence du XVIIIe siècle, tant sur des portraits ou scènes de genre que sur des peintres des XIXe et XXe siècles qui ont travaillé en Provence. Avec Odile Guichard, conservatrice.
Participation libre et solidaire – sur inscription au 04 90 86 03 79 ou à mu-see.vouland@wanadoo.fr
Dimanche 19 à 18h : En Provence sur les pas de Bosco
Rencontre autour du livre « En Provence sur les pas de Bosco » (Equinoxe, 2015) avec Jean-François Jung et lecture de textes d’Henri Bosco par Philippe Chauché, journaliste et écrivain.
Illustrant un choix d’extraits romanesques de l’écrivain, ces images invitent à un étonnant voyage dans ces véritables territoires de l’esprit créés par Henri Bosco (Avignon, 1888 – Nice, 1976). Elles ne visent pas à l’enquête topographique, mais à l’évocation du mystérieux pays créé par l’auteur : un pays intérieur bien sûr, une vaste terre de poésie qui résiste aux cartes, guides touristiques et bulletins météo…Un merveilleux livre d’images sur une terre comme inventée, à la fois bois enchan-té et site moral, qui, comme le dit Bosco, « peut être ou non propice à l’implantation de l’homme et de sa domus.
Avec Jean-François Jung, photographe et Philippe Chauché, journaliste et auteur.
Participation libre et solidaire – sur inscription au 04 90 86 03 79 ou à mu-see.vouland@wanadoo.fr
";participation libre & solidaire (sur inscription) 04 90 86 03 79  / musee.vouland@wanadoo.fr  - www.vouland.com;;;;Autre musées et sites partenaires;17 rue Victor Hugo - 84000 Avignon;;Gratuit;www.vouland.com;;musee.vouland@wanadoo.fr;04.90.86.03.79;musee.vouland@wanadoo.fr;04.90.86.03.81;20210903093720.569852;20210903093720.569852;;84007;218400075;Mairie Avignon / Pôle Vivre Ensemble / DPT Culture;LO;;Tableau XLS du service métier, intégration et gécodage SIG;Avignon Intra muros;manuelle;1.0;;t;84007-journeesPatrimoine2021;844541.0460147109;6318127.149762244;4.800610094596972;43.94731468698438;43.94731468698438;4.800610094596972
1338;2021;28;Collection Lambert;Collection Lambert;"La Collection Lambert en Avignon est un grand musée d’art contemporain né en 2000 (et agrandi en 2015) à l’initiative d’un marchand d’art et collectionneur, Yvon Lambert, qui a fait don à l’État d’une collection exceptionnelle d’œuvres majeures de la seconde moitié du XXe siècle et du début du XXIe siècle, auxquelles s’ajoutent de nombreux dépôts pour atteindre environ 2 000 œuvres.
Abritée au sein de deux magnifiques hôtels particuliers du XVIIIe siècle au centre d’Avignon, au cœur de la Provence, la Collection Lambert y présente régulièrement, sur 4 000 m2, des expositions ambitieuses et un programme culturel et éducatif varié, avec le soutien de l’État, de la Ville d’Avignon, de la Région, du Département et de mécènes privés.
";"Samedi 18 à 14h : Mimosa Echard, sous le regard de la conservatrice restauratrice du musée
La conservatrice restauratrice vous parlera de la conservation des matériaux organiques dans l’exposition de Sluggy me de Mimosa Echard.
Sur réservation : a.arvis@collectionlambert.com
Samedi 18 à 15h : A la recherche du Fripon Perdu
Participez à la chasse aux énigmes. À la recherche du fripon perdu, proposée dans le musée pour les 7-11 ans !
Sur réservation : d.haudiquet@collectionlambert.com
Dimanche 19 : Les visiteurs vous parlent
Après des longs mois sans visiteur, la Collection Lambert met à l’honneur son public avignonnais, le plus fidèle, en lui proposant de raconter à sa manière une œuvre parmi nos expositions qui le touche particulièrement.
Sur réservation : a.arvis@collectionlambert.com 04 90 16 56 20
"; Animation sur réservation au 04 90 16 56 20 ou a.arvis@collectionlambert.com Samedi 18 à 15h : A la recherche du Fripon Perdu Sur réservation : d.haudiquet@collectionlambert.com Tarif unique accès à la collection 2€;;;;Autre musées et sites partenaires;5 rue Violette - 84000 Avignon;;2;www.collectionlambert.fr;;information@collectionlambert.com;04.90.16.56.20;z.renaudie@collectionlambert.com / alice.collectionlambert@gmail.com;;20210903093720.571385;20210903093720.571385;;84007;218400075;Mairie Avignon / Pôle Vivre Ensemble / DPT Culture;LO;;Tableau XLS du service métier, intégration et gécodage SIG;Avignon Intra muros;manuelle;1.0;;t;84007-journeesPatrimoine2021;844830.8720740055;6317875.8906572005;4.804147824194736;43.94499450588762;43.94499450588762;4.804147824194736
1339;2021;29;Conservatoire de musique à Rayonnement Régional du Grand Avignon - Bâtiment Leclerc;Conservatoire de musique à Rayonnement Régional du Grand Avignon - Bâtiment Leclerc;Le Bâtiment LECLERC du CONSERVATOIRE situé, rue du Général LECLERC, face aux Halles Centrales de la Ville, est classé Monument Historique depuis le début du XX° Siècle. Après avoir été une Livrée Cardinalice à l’époque de la Papauté en Avignon, il devint au XVII° Siècle le couvent des Annonciades Célestes puis le Séminaire de Sainte Garde au XVIII°. Sa Chapelle, récemment rénovée, est de style Baroque. Ses voutes plates sont particulièrement remarquables. Après la Révolution, cet ensemble immobilier a accueilli les Tribunaux Civil, Correctionnel, et de Commerce. Lors du départ de ceux-ci à la nouvelle cité judiciaire, leurs anciens locaux, désormais vacants, ont été cédés par le Département de Vaucluse, pour 1 euro symbolique, à la Communauté d’Agglomération du Grand Avignon. Celle-ci a décidé de les restaurer et de les aménager pour les besoins d’un Conservatoire à Rayonnement Régional, labellisé, comme tel, par le Ministère de la Culture en Octobre 2008. Désormais Avignon, Ville Européenne de la Culture, dispose d’un établissement d’enseignement culturel adapté à sa réputation et accueillant des étudiants et des enseignants internationaux. L’on peut y suivre des cours de Musique, Danse, Théâtre, très variés, suivant les évolutions pédagogiques, technologiques et sociales actuelles.;"Samedi 18 et dimanche 19 :
1/ Visites du Site Leclerc
-14h30 : Accueil du Public dans le Hall et la Cour -15h00 : Visite patrimoniale de l’ensemble des locaux
(Vestiges des Livrées Cardinalices, Couvent des Annonciades Célestes, Séminaire de Sainte Garde, salles de l’ancien Palais de justice)
2/ Concert dans l’Amphithéâtre Mozart
-15h45 : Installation du public -16h00 : Début des prestations d’élèves du Conservatoire
-17h00 : Fin et sortie du Public -17h30 : évacuation des locaux -18h : Fermeture
Visites individuelles interdites – Respect obligatoire du protocole sanitaire de l’établissement et des consignes de sécurité.
";"Gratuit ; samedi et dimanche; port du masque obligatoire/ pas de visites individuelles";;t;;Autre musées et sites partenaires;3 Rue du Général Laclerc - 84000 Avignon;;Gratuit;www.grandavignon.fr;Accès  handicapés moteurs ;;04.32.73.04.79;;04.32.73.04.81;20210903093720.572731;20210903093720.572731;;84007;218400075;Mairie Avignon / Pôle Vivre Ensemble / DPT Culture;LO;;Tableau XLS du service métier, intégration et gécodage SIG;Avignon Intra muros;manuelle;1.0;;t;84007-journeesPatrimoine2021;845337.179981583;6318316.693667464;4.810578544770574;43.948856245234275;43.948856245234275;4.810578544770574
1340;2021;30;Avignon Université;Avignon Université;Créée en 1303 par le Pape Boniface VIII, l’Université d’Avignon s’installe en 1997 dans les locaux de l’ancien hôpital Sainte Marthe.;- Visites guidées du campus de 14h à 18h, départ toutes les 30 minutes.                                                                                                                                                                                   - Visites guidées de l'apothicairerie de 14h à 18h, départ toutes les 30 minutes - sur inscription le jour même.;Visite guidée samedi 18 septembre, entréee libre, sous réserve de l’évolution des consignes sanitaires. mission-culture@univ-avignon.com 04 90 16 25 99;;;;Autre musées et sites partenaires;74 rue Louis Pasteur;;Gratuit;;;;;;;20210903093720.574119;20210903093720.574119;;84007;218400075;Mairie Avignon / Pôle Vivre Ensemble / DPT Culture;LO;;Tableau XLS du service métier, intégration et gécodage SIG;Avignon Intra muros;manuelle;1.0;;t;84007-journeesPatrimoine2021;845781.2343142712;6318393.108770604;4.816130419229589;43.94945200582575;43.94945200582575;4.816130419229589
1341;2021;31;Ecole supérieure d'arts d'Avignon;Ecole supérieure d'arts d'Avignon;"L’Ecole Supérieur d’Art déballe sa bibliothèque
Visite du centre de documentation de l’Ecole Supérieure d’Art d’Avignon
Venez découvrir la bibliothèque de l’ESAA et son fonds documentaire spécialisé en art moderne et contemporain ainsi qu’en conservation-restauration des biens culturels. Bibliothèque d’étude réservée aux enseignants et étudiants de l’école, le pôle documents conserve près de 20 000 ouvrages, regroupant des monographies, des catalogues d’expositions, des ouvrages théoriques, des numéros périodiques, des mémoires, des fonds sonores et audio-visuels, ainsi que des ressources électroniques accessibles par internet depuis son portail documentaire. Un fond patrimonial qui témoigne de l’histoire de l’établissement et des diverses communautés d’enseignement qui l’ont traversé.
visite en entrée libre
";Samedi 18 entre 10h et 18h : des ateliers d’écriture seront proposés à cette occasion au public, animés par l’artiste Claire Thiriet.;Samedi 18 septembre 2021 de 10h à 18h - visite libre poledocuments@esaavignon.fr 04 90 27 04 23;;;;Autre musées et sites partenaires;500 chemin de Baigne-pieds;;;;;;;;;20210903093720.576041;20210903093720.576041;;84007;218400075;Mairie Avignon / Pôle Vivre Ensemble / DPT Culture;LO;;Tableau XLS du service métier, intégration et gécodage SIG;Avignon Ouest;manuelle;1.0;;t;84007-journeesPatrimoine2021;844839.1729893588;6315340.553938678;4.803529962240607;43.92218183707032;43.92218183707032;4.803529962240607
1343;2021;33;Le Grenier à sel;Le Grenier à sel;"Edifié en 1758 et situé à proximité immédiate du Palais des Papes, l’ancien Grenier à sel d’Avignon affiche sa belle façade Louis XV et ses anciens espaces de stockage de sel réhabilités par l’architecte Jean-Michel Wilmotte.
";"Du sel au pixel #4 Des visites guidées seront proposées toutes les heures pour retracer l'histoire de cette bâtisse d'envergure et l'importance du sel dans la vie de la cité sous l'ancien Régime. Pour approfondir, les visiteurs seront invités à expérimenter notre balade sonore et découvrir des secrets dénichés du Grenier à sel. Atelier: Tout l'après-midi, les enfants pourront raconter l'histoire du sel en découpant, pliant, dessinant, collant depuis des images d'archives et créer un petit film en stop motion. A partir de 7 ans.



";"Gratuit
Ouvert de 14h à 18h
Visites guidées à 14h15, 15h15, 16h15 et 17h15 et ateliers
Samedi 18et dimanche 19 septembre




";;t;;Autre musées et sites partenaires;2 Rue du rempart Saint Lazare - 84000 Avignon;;Gratuit;;;accueil@legrenierasel-avignon.fr;04 32 74 05 31;;;20210903093720.578609;20210903093720.578609;;84007;218400075;Mairie Avignon / Pôle Vivre Ensemble / DPT Culture;LO;;Tableau XLS du service métier, intégration et gécodage SIG;Avignon Intra muros;manuelle;1.0;;t;84007-journeesPatrimoine2021;845439.3686977163;6318815.870500768;4.811993819875691;43.953326387871556;43.953326387871556;4.811993819875691
1344;2021;34;Parcours Saint Ruf;;Plaisir de la déambulation dans le labyrinthe des rues bordées de jardins entrouverts sur l’espace public. Plaisir aussi, celui de la découverte d’un patrimoine qui traverse tous les grands courants de l’histoire de l’architecture depuis le XIe siècle – l’abbaye Saint-Ruf – jusqu’à aujourd’hui – le collège Anselme Mathieu (2015).L’apport de populations nouvelles, la volonté de coller à la modernité, la variété des décors et des techniques ont créé au fil des générations ce paysage urbain au pittoresque attachant que l’on parcourt le plus souvent sans les voir. Voilà ce que propose cette balade urbaine. « Archi histoire-Avignon-Saint Ruf » est une application numérique conçue comme un outil de découverte patrimonial du quartier en autonomie, à travers trois parcours thématiques : Urbanisme - L’aventure urbaine du quartier Saint-Ruf, Histoire et société - Voyage au cœur du faubourg d’autrefois, Architecture-Quand le quartier dévoile ses pépites. Toute l’histoire urbaine et sociale du quartier et la révélation des éléments patrimoniaux et architecturaux qui font sa spécificité.;"Visite guidée Samedi 18 à 10h départ de l’école Saint Ruf. Pour utiliser l’application sur smartphone :
1. Téléchargez l’application en cherchant Archistoire Avignon Saint-Ruf sur l’App Store ou Google Play
2. Sélectionnez le parcours Livret de découverte - contenus bonus dans la liste proposée
Gratuit
 Place Saint Ruf
";Entrée libre;;;;Autre musées et sites partenaires;2 place Saint Ruf;;Gratuit;;;;;;;20210903093720.579885;20210903093720.579885;;84007;218400075;Mairie Avignon / Pôle Vivre Ensemble / DPT Culture;LO;;Tableau XLS du service métier, intégration et gécodage SIG;Avignon Nord rocade;manuelle;1.0;;t;84007-journeesPatrimoine2021;845355.015586439;6316877.567237136;4.810389684477435;43.935904397044325;43.935904397044325;4.810389684477435
1345;2021;35;Association Moulin de Notre Dame;;L’association Le Moulin de Notre Dame organise, deux balades entre Canal Puy et Durance. Au cours de ces balades, l’agriculture d’hier etcelle d’aujourd’hui seront évoquées et le public partira à la découverte du petit patrimoine qu’elles ont bâti (canal, ponts, martellières, norias...), des bâtiments remarquables tels le moulin de Notre Dame ou la Chapelle Saint-Gabriel , et le paysage agricole encore présent dans cette zone d'Avignon. Rendez-vous au Moulin de Notre Dame, muni de chaussures confortables (terrain plat), d’un chapeau et d’une bouteille d’eau. Le Moulin est situé au carrefour entre le chemin du Moulin de Notre Dame, la rue de la Bouquetière et l’allée St Martial.;Rendez-vous au Moulin de Notre Dame, une grande bâtisse implantée au carrefour entre le chemin du Moulin de Notre Dame, la rue de la Bouquetière et l’allée St Martial.;"Samedi 18 et dimanche 19 Départ 9h30 retour prévu 11h30 : Balade dans la ceinture Verte d’Avignon à la découverte du patrimoine rural.
Rendez-vous au Moulin de Notre Dame, muni de chaussures confortables (terrain plat), d’un chapeau et d’une bouteille d’eau. Le Moulin est situé au carrefour entre le chemin du Moulin de Notre Dame, la rue de la Bouquetière et l’allée St Martial.
Inscriptions : tél : 06 87 29 13 43 et par mail à lemoulindenotredame@gmail.com
Rendez-vous Moulin de Notre Dame  
";;;;Autre musées et sites partenaires;entre le chemin du Moulin de Notre Dame, la rue de la Bouquetière et l’allée St Martial.;;Gratuit;;;lemoulindenotredame@gmail.com;06 87 29 13 43;;;20210903093720.581107;20210903093720.581107;;84007;218400075;Mairie Avignon / Pôle Vivre Ensemble / DPT Culture;LO;;Tableau XLS du service métier, intégration et gécodage SIG;Avignon Sud rocade;manuelle;1.0;;t;84007-journeesPatrimoine2021;846247.107419421;6315506.382890451;4.821102917697698;43.923383034349825;43.923383034349825;4.821102917697698
1346;2021;36;Volubilis;;Cette promenade urbaine réalisée par l’association Volubilis, en partenariat avec les musées d’Avignon vous invite à découvrir la ville au travers du prisme l’eau. Vous allez déambuler dans les rues à la recherche d’indices toponymiques et visuels. Ce parcours sera ponctué de présentation d’œuvres d’art appartenant aux différents musées de la ville grâce à des QR Code. Laissez-vous porter au fil de l’eau ! Livret téléchargeable sur le site : https://www.volubilis.org/;Promenade Avignon eau vivante, eau cachée: un parcours dans la ville. Livret téléchargeable sur https://www.volubilis.org/;Visite libre;;;;Autre musées et sites partenaires;;;Gratuit;;;;;;;20210903093720.582888;20210903093720.582888;;84007;218400075;Mairie Avignon / Pôle Vivre Ensemble / DPT Culture;LO;;Tableau XLS du service métier, intégration et gécodage SIG;Avignon Intra muros;manuelle;1.0;;t;84007-journeesPatrimoine2021;845042.8221127437;6317975.264472456;4.806815470327514;43.945844988382966;43.945844988382966;4.806815470327514
1347;2021;37;Chapelle des Italiens;;La "Chapelle des Italiens" est un Théâtre et lieu culturel dynamique en plein cœur d'Avignon dans la Chapelle Notre Dame de Conversion.;"Samedi 18 à 20h : « ÍTÍNÉRAIRE D’UN FÍLS DE JARDÍNÍER » 
« La Renaissance provençale au XIXème siècle, Joseph Roumanille, Frédéric Mistral, le Félibrige et son rayonnement en Europe et dans le monde »
Valérie SIAUD raconte l’« Itinéraire d’un fils de Jardinier », ou le singulier parcours de l’aîné de sept enfants de pauvres jardiniers (petits agriculteurs) de Saint-Rémy de Provence, le jeune Joseph Roumanille, qui grâce à son génie, sa simplicité, son tempérament, et sa rencontre providentielle avec Frédéric Mistral de Maillane, de douze ans son cadet, refera une littérature, et éditera en 1859 dans sa librairie d’Avignon le chef d’Œuvre national de la Provence MIREILLE de F.Mistral, prix Nobel de littérature en 1904 . Un extrait du film tourné par ARTE  « Provence Terre Inspirée », sera également projeté, dévoilant quelques trésors de cette mémoire.
";Tarif 10 euros;;;;Autre musées et sites partenaires;33 Rue Paul Sain 84000 Avignon;;;http://chapelledesitaliens.fr/;;;;;;20210903093720.5841;20210903093720.5841;;84007;218400075;Mairie Avignon / Pôle Vivre Ensemble / DPT Culture;LO;;Tableau XLS du service métier, intégration et gécodage SIG;Avignon Intra muros;manuelle;1.0;;t;84007-journeesPatrimoine2021;845474.1930140404;6318261.520879674;4.81226905169923;43.94833155616643;43.94833155616643;4.81226905169923
1348;2021;38;Basilique Métropolitaine Notre-Dame-des-Doms;Basilique Métropolitaine Notre-Dame-des-Doms;;Samedi 18 septembre : ouverture de la métropole de 8h à 18h sans interruption, diffusion de musique sacrée au temps des Papes d’Avignon                                                                                                                                                      Dimanche 19 septembre : ouverture de 9h à 12h. A 10h, Messe aevc pièces grégoriennes et provençales. 15H30 : Ouverture de l’orgue doré. A 15h45 conférence « Pour une connaissance renouvelée de Sauveur Clerc, orfèvre avignonnais » (D’après les œuvres visibles au trésor de la Basilique) par Mme Blandine Silvestre, conservatrice déléguée des Antiquités et Objets d’Art de Vaucluse. A 16h30, pièces italiennes à l’orgue doré.;Entrée libre, fermeture à 18h.;;t;;Patrimoine religieux et privé;Place du Palais des Papes - 84000 Avignon;;Gratuit;www.cathedrale-avignon.fr;;;;;;20210903093720.595542;20210903093720.595542;;84007;218400075;Mairie Avignon / Pôle Vivre Ensemble / DPT Culture;LO;;Tableau XLS du service métier, intégration et gécodage SIG;Avignon Intra muros;manuelle;1.0;;t;84007-journeesPatrimoine2021;845072.4682390128;6318610.798363321;4.807365824795669;43.95155696184975;43.95155696184975;4.807365824795669
1349;2021;39;Collégiale Saint-Agricol;Collégiale Saint-Agricol;Cette église, s’élevant parmi les plus anciennes d’Avignon, a vu sa reconstruction financée au début du XIVème siècle par le pape Jean XXII et fut remaniée au XVème siècle. Parmi les œuvres les plus importantes qui y sont conservées, nous pouvons citer le retable des Doni, la chapelle des Brantes, le grand bénitier en marbre blanc du XVème siècle, le Couronnement de la Vierge de Simon de Châlons (1539) et une Adoration des bergers de Nicolas Mignard (vers 1650).;"
Ouverture de l'église : Samedi 09h30-19h Dimanche 14h-18h
Visite guidée : Samedi à 18h (rendez-vous devant la chapelle Saint-Agricol au fond de l'église).

";"Gratuit; Entrée lilbre; Ouverture de l'église samedi de 9h30 à 19h et dimanche de 14h à 18h
";;t;;Patrimoine religieux et privé;Parvis Saint-Agricol - 84000 Avignon;;Gratuit;www.saintagricol.paroisse84.fr;;stagricol.patrimoinevivant@gmail.com;;;;20210903093720.597105;20210903093720.597105;;84007;218400075;Mairie Avignon / Pôle Vivre Ensemble / DPT Culture;LO;;Tableau XLS du service métier, intégration et gécodage SIG;Avignon Intra muros;manuelle;1.0;;t;84007-journeesPatrimoine2021;844840.0477850296;6318326.115143945;4.804390222500026;43.949043416020295;43.949043416020295;4.804390222500026
1350;2021;40;Collégiale Saint-Didier;Collégiale Saint-Didier;Caractéristique du gothique provençal. Reconstruite au XIVe s grâce au cardinal Bertrand de Déaux. Monument funéraire dans le chœur. A voir le Portement de croix, sculpté et peint par Francesco Laurana au XVe s.;"Samedi 18: Visite libre de la Collégiale de 9h00 à 18h00
 Visites guidées de la Collégiale à 10h, 11h, 15h, 17h
Samedi 18 à 15 h : Inauguration des travaux de relevage de l’orgue Mader
Diaporama de présentation des travaux et récital Bach, Mozart, Mendelssohn, Franck, Widor, Vierne, Dupré. Jean-Pierre Lecaudey, orgue. Luc Antonini, orgue.
Dans le cadre de la mise en valeur, confiée à l’association Musique Sacrée et Orgue en Avignon, du patrimoine des orgues de la Ville d’Avignon, un éclairage particulier sera proposé cette année autour des travaux de relevage effectués sur l’orgue Mader de la Collégiale Saint-Didier.Ces travaux, coordonnés par l’association Musique Sacrée et Orgue en Avignon, grâce à sa personne ressource, Jean-Pierre Lecaudey, ont été réalisé par les Ateliers Quoirin de Saint-Didier dans le Vaucluse. Aprés l’orgue Barker et Verschneider de la Collégiale Saint-Agricol, il est donc naturel qu’un focus soit  réalisé sur l’orgue Mader de la Collégiale Saint-Dider pour ces Journées du Patrimoine.
Entrée libre
Dimanche 19 : Visite libre de la Collégiale de 10h00 à 19h00
Visites guidées de la Collégiale à 11h, 15h, 17h, 18h

";"Gratuit; Samedi: horaires d’ouverture de 9h à 18h
Visite libre de la Collégiale. Visites guidées de la Collégiale à 10h, 11h, 15h, 17h dimanche: horaires d’ouverture de 10h à 19h : Visite libre de la Collégiale Visites guidées de la Collégiale à 11h, 15h, 17h, 18h";;t;;Patrimoine religieux et privé;Place Saint-Didier - 84000 Avignon;;Gratuit;www.diocese-avignon.fr;;;;;;20210903093720.598355;20210903093720.598355;;84007;218400075;Mairie Avignon / Pôle Vivre Ensemble / DPT Culture;LO;;Tableau XLS du service métier, intégration et gécodage SIG;Avignon Intra muros;manuelle;1.0;;t;84007-journeesPatrimoine2021;845049.3959796255;6318085.79033589;4.806928834296089;43.94683806596872;43.94683806596872;4.806928834296089
1351;2021;41;Église Saint-Symphorien les Carmes;Église Saint-Symphorien les Carmes;Église de l’ancien couvent des Carmes (XIVe s.), prend officiellement le titre paroissial de Saint-Symphorien en 1853. Peintures de N. Mignard, P. Parrocel et G. Grève. Orgue classé. Cloître.;"samedi : Ouverture de l’église : 9h - 12h
Visite libre de l’Eglise Saint-Symphorien
dimanche : Offices de messes dans la matinée…
Ouverture de l’église pour les visites : 12h - 14h
Visite libre de l’Eglise Saint-Symphorien.
";samedi 19 septembre : Ouverture de l’église : 9h - 18h00.dimanche 20 septembre Ouverture de l’église pour les visites : 12h - 18h;;t;;Patrimoine religieux et privé;Place des Carmes - 84000 Avignon;;Gratuit;www.diocese-avignon.fr;;;;;;20210903093720.599802;20210903093720.599802;;84007;218400075;Mairie Avignon / Pôle Vivre Ensemble / DPT Culture;LO;;Tableau XLS du service métier, intégration et gécodage SIG;Avignon Intra muros;manuelle;1.0;;t;84007-journeesPatrimoine2021;845528.0940764608;6318533.923222446;4.813018200000003;43.95077130002229;43.95077130002229;4.813018200000003
1352;2021;42;Basilique Saint-Pierre;Basilique Saint-Pierre;Rebâtie en 1358 grâce au cardinal Pierre des Prés. Façade de style gothique flamboyant avec portes en noyer sculpté par Antoine Volard (1551). Reliques du Bienheureux Pierre de Luxembourg. Erigée en collégiale par le pape Innocent VI, puis en basilique en 2012 par le pape Benoit XVI.;"Samedi 18 : Ouverture de la Basilique de 8h00 à 17h30
Dimanche 19 : Ouverture de la Basilique de 8h00 à 17h30



";"Gratuit; Entrée libre



Samedi 18 : Ouverture de la Basilique de 8h00 à 17h30
Dimanche 19 : Ouverture de la Basilique de 8h00 à 17h30

";;t;;Patrimoine religieux et privé;Place Saint-Pierre - 84000 Avignon;;Gratuit;www.diocese-avignon.fr;;;;;;20210903093720.60107;20210903093720.60107;;84007;218400075;Mairie Avignon / Pôle Vivre Ensemble / DPT Culture;LO;;Tableau XLS du service métier, intégration et gécodage SIG;Avignon Intra muros;manuelle;1.0;;t;84007-journeesPatrimoine2021;845123.1239139925;6318352.849480474;4.80792312504665;43.9492256852007;43.9492256852007;4.80792312504665
1353;2021;43;Temple Saint-Martial;Temple Saint-Martial;Les instrumentistes (orgue, flûte, violon, violoncelle, piano, saxo), les chanteurs (mezzo-soprano, baryton, contre-ténor) se relaient tour à tour au pied du bel orgue Quoirin pour donner le meilleur de leur art. C’est devenu une tradition à Saint Martial : offrir au public habitué mais aussi aux personnes de passage et aux touristes un moment musical sous les voûtes gothiques (14e siècle) de cette ancienne église bénédictine. Chaque année, depuis maintenant 6 ans, il est de tradition que les journées du Patrimoine au Temple Saint Martial marquent le lancement de l’année musicale. Si les précautions sanitaires sont encore en vigueur à cette époque, tout sera fait pour qu’elles soient respectées. L’an dernier ce sont entre 300 et 350 personnes qui se sont succédées sans jamais dépasser le nombre de 50 en même temps.;"Samedi de 14h à 17h et Dimanche de 14h à 17h :
""Patrimoine - Architecture - Musique au temple Saint Martial d'Avignon""
L’après-midi de ces 2 journées de 14h à 17h (musique non-stop).";"Gratuit; Entrée libre; Samedi et dimanche de 14h à 17h
";;t;;Patrimoine religieux et privé;2 Rue Jean-Henri Fabre - 84000 Avignon;;Gratuit;;;;04.90.85.22.18;;;20210903093720.602306;20210903093720.602306;;84007;218400075;Mairie Avignon / Pôle Vivre Ensemble / DPT Culture;LO;;Tableau XLS du service métier, intégration et gécodage SIG;Avignon Intra muros;manuelle;1.0;;t;84007-journeesPatrimoine2021;844983.0824280673;6317879.493522227;4.806044263183687;43.944995609879776;43.944995609879776;4.806044263183687
1354;2021;44;Chapelle des Pénitents Noirs;Chapelle des Pénitents Noirs;Commencée au XVIIe s, la chapelle est restaurée au siècle suivant. La façade, le plafond et les boiseries dorées sont de T. Lainée et de J.B. Franque (XVIIIe s.), les peintures de N. et P. Mignard et de Reynaud-Levieux.;"Samedi de 10h à 12h et de 14h à 19h: visite gratuite - classée monument historique. En lien avec les consignes sanitaires exceptionnelle, la sacristie sera fermée au public durant les deux jours.
";"Entrée libre ; Gratuit ;
- Samedi de 10 h à 12 h et de 14 h à 19 h,dimanche de 14 h à 19 h

(Nous reportant aux consignes de sécurité, exceptionnellement la sacristie ne sera pas ouverte au public";;t;;Patrimoine religieux et privé;57 Rue Banasterie - 84000 Avignon;;Gratuit;www.penitents-noirs.fr;;;;;;20210903093720.603546;20210903093720.603546;;84007;218400075;Mairie Avignon / Pôle Vivre Ensemble / DPT Culture;LO;;Tableau XLS du service métier, intégration et gécodage SIG;Avignon Intra muros;manuelle;1.0;;t;84007-journeesPatrimoine2021;845265.821505869;6318725.520686658;4.809806599999991;43.95254930002231;43.95254930002231;4.809806599999991
1355;2021;45;Chapelle de l'Oratoire;Chapelle de l'Oratoire;La Chapelle de l’Oratoire d’Avignon est située dans la rue Joseph Vernet. Cet édifice du XVIIIème siècle fut commencé en 1713, repris en 1730 pour être finalement achevé en 1749. Il est classé monument historique depuis 1912.;"Visite libre de la chapelle (sous réserve de surveillance) et exposition ""Art et spiritualité"".



";"Gratuit; Samedi et dimanche de 9h à 18h";;t;;Patrimoine religieux et privé;32 Rue Joseph Vernet - 84000 Avignon;;Gratuit;www.saintagricol.paroisse84.fr;Accès handicapés moteurs total;stagricol.patrimoinevivant@gmail.com;;;;20210903093720.604871;20210903093720.604871;;84007;218400075;Mairie Avignon / Pôle Vivre Ensemble / DPT Culture;LO;;Tableau XLS du service métier, intégration et gécodage SIG;Avignon Intra muros;manuelle;1.0;;t;84007-journeesPatrimoine2021;844755.9303552171;6318304.216676291;4.803336438483493;43.94886368151908;43.94886368151908;4.803336438483493
1356;2021;46;Chapelle Saint-Marthe;Chapelle Saint-Marthe;Édifiée en 1751, cette chapelle fut construite sur la demande des sœurs de Saint Joseph. Sa façade de deux étages est surmontée d’un fronton triangulaire, et l’intérieur présente un chœur carré à pans coupés. Située derrière l’université, cette église fait désormais office d’aumônerie pour les étudiants, et n’est ouverte que pour les offices.;"Visite libre de la chapelle


";"Gratuit; Samedi de 15h à 18h ";;t;;Patrimoine religieux et privé;Rue Saint Bernard - 84000 Avignon;;Gratuit;www.saintagricol.paroisse84.fr;;stagricol.patrimoinevivant@gmail.com;;;;20210903093720.606116;20210903093720.606116;;84007;218400075;Mairie Avignon / Pôle Vivre Ensemble / DPT Culture;LO;;Tableau XLS du service métier, intégration et gécodage SIG;Avignon Intra muros;manuelle;1.0;;t;84007-journeesPatrimoine2021;845838.3688892444;6318506.730209221;4.816874509504538;43.95046246039767;43.95046246039767;4.816874509504538
1357;2021;47;Chapelle Saint-Louis (Noviciat des Jésuites);Chapelle Saint-Louis (Noviciat des Jésuites);En 1589, un noviciat de la compagnie de Jésus est fondé vingt-cinq ans après l’installation de la congrégation à Avignon. La construction de la Chapelle débute en 1601 et sa consécration à lieu dix ans plus tard. Cet édifice introduit une nouvelle esthétique venant d’Italie dans une ville dominée par l’architecture médiévale avec notamment une coupole surplombant la partie centrale de l’église.;"Visite libre de la chapelle (sous réserve de surveillance)

";"Gratuit; Samedi et dimanche de 15h à 18h";;t;;Patrimoine religieux et privé;18 Rue du Portail Boquier 84000 Avignon;;Gratuit;www.saintagricol.paroisse84.fr;;stagricol.patrimoinevivant@gmail.com;;;;20210903093720.607523;20210903093720.607523;;84007;218400075;Mairie Avignon / Pôle Vivre Ensemble / DPT Culture;LO;;Tableau XLS du service métier, intégration et gécodage SIG;Avignon Intra muros;manuelle;1.0;;t;84007-journeesPatrimoine2021;844894.4822859224;6317768.869155019;4.804909468340013;43.94401852324534;43.94401852324534;4.804909468340013
1358;2021;48;Hôtel d'Adhémar de Cransac;Hôtel d'Adhémar de Cransac;Demeure privée du XVIIe s. Cour intérieure avec calade. Sur la façade sud se trouve une échauguette. Salons décorés. Salons décorés avec une exposition sur les costumes et les traditions provençales.;"Visite guidée uniquement.

";Samedi 18 et Dimanche 19 septembre de 14h à 18h.Tarif unique 6€.;;t;;Patrimoine religieux et privé;11  Rue de Taulignan - 84 000 Avignon;;6 euros;;;;;;;20210903093720.609238;20210903093720.609238;;84007;218400075;Mairie Avignon / Pôle Vivre Ensemble / DPT Culture;LO;;Tableau XLS du service métier, intégration et gécodage SIG;Avignon Intra muros;manuelle;1.0;;t;84007-journeesPatrimoine2021;845148.5504285811;6318437.781106176;4.808264000000019;43.94998460002229;43.94998460002229;4.808264000000019
1359;2021;49;Église Notre-Dame-de-Bon-Repos - Montfavet;Église Notre-Dame-de-Bon-Repos - Montfavet;Construite au XIVe s. à l’initiative du cardinal Bertrand de Montfavet, l’église abrite notamment des peintures murales du XIVe s., un maître-autel en bois doré, une Vierge à l’enfant monumentale du XVIIIe s., ainsi qu’un tableau représentant La Visitation par Nicolas Mignard ou encore des tableaux représentants Saint-Antoine, Saint-Joseph ou Saint-Anne, attribués à Quirinius Van Banken, étant exposés dans les Chapelles latérales de l’église.;En fonction de l'évolution sanitaire plus de renseignement sur avignon.fr ou sur https://www.montfavet.paroisse84.fr/;;;t;;Patrimoine religieux et privé;7 Place de l'Eglise - 84140 Montfavet;;Gratuit;www.diocese-avignon.fr;Accès handicapés moteurs ;;04.90.32.09.87;;;20210903093720.610481;20210903093720.610481;;84007;218400075;Mairie Avignon / Pôle Vivre Ensemble / DPT Culture;LO;;Tableau XLS du service métier, intégration et gécodage SIG;Avignon Montfavet;manuelle;1.0;;t;84007-journeesPatrimoine2021;850213.3748803578;6316967.261719191;4.870904500747746;43.93569227754189;43.93569227754189;4.870904500747746
1360;2021;50;Hôtel Galéans des Issarts;Hôtel Galléans des Issarts;"Niché au pied du Palais des Papes, l’Hôtel Galéans des Issarts –classé monument historique- permettra aux visiteurs amoureux d’Avignon d’apprécier la vie de l’aristocratie au XVII° et XVIII° siècle… De Molière à Mignard, du jeu de paume au jeu du tric trac, venez découvrir un condensé d’arts et de divertissements !
";"Samedi 18 et dimanche 19 : visites à 13h, 14h, 15h, 16h, 17h, 18h.
Réservation par mail : pietersgeneau@gmail.com
Sous réserve des nouvelles conditions sanitaires
Tarif : 6€.
";"
Visites sur réservation obligatoire par mail à pietersgeneau@gmail.com Tarif : 6 €
Horaires : 13, 14, 15, 16, 17 et 18H
";;;;Patrimoine religieux et privé;5  Rue du Four - 84000 Avignon;;6 euros;;;;;pietersgeneau@gmail.com;;20210903093720.611759;20210903093720.611759;;84007;218400075;Mairie Avignon / Pôle Vivre Ensemble / DPT Culture;LO;;Tableau XLS du service métier, intégration et gécodage SIG;Avignon Intra muros;manuelle;1.0;;t;84007-journeesPatrimoine2021;845270.8268220598;6318573.454185873;4.809825522078995;43.95118008071191;43.95118008071191;4.809825522078995
1361;2021;51;Hôtel de Montaigu - Maison et Musée des Compagnons du Tour de France;Hôtel de Montaigu - Maison et Musée des Compagnons du Tour de France;"Maison et Musée des Compagnons du Tour de France dans un magnifique hôtel particulier du XVII° siècle, son escalier grandiose et pas loin deux cents « Chefs d’œuvre » qui y sont exposés.
Egalement lieu de vie pour une vingtaine de jeunes itinérants sur leur Tour de France et qui font étape durant une année dans cette maison.
Ateliers de démonstrations des métiers durant ces deux jours.
C’est l’occasion de venir découvrir cet endroit atypique et aller à la rencontre des Compagnons du Tour de France qui se feront un plaisir de vous accueillir et vous commenter les lieux.
";"Animation : visite libre du samedi et dimanche de 10h à 19h
09.81.06.29.84 / avignon@compagnonsdutourdefrance.org
Gratuit.
";"Gratuit; Entrée libre; Samedi et dimanche de 10h à 19h";;;;Patrimoine religieux et privé;37 rue du Four de la Terre - 84000 Avignon;;Gratuit;;;avignon@compagnonsdutourdefrance.org;09.81.06.29.84;;;20210903093720.613021;20210903093720.613021;;84007;218400075;Mairie Avignon / Pôle Vivre Ensemble / DPT Culture;LO;;Tableau XLS du service métier, intégration et gécodage SIG;Avignon Intra muros;manuelle;1.0;;t;84007-journeesPatrimoine2021;845426.0336017396;6318095.9704826;4.811622;43.9468520000223;43.9468520000223;4.811622
1362;2021;52;Eglise Saint-Joseph de la Barthelasse;Eglise Saint-Joseph de la Barthelasse;La chapelle de Saint Joseph se trouve dans l’Île de la Barthelasse, une île du Rhône située entre Avignon (dont elle est séparée par le « petit Rhône », ou « bras mort ») et Villeneuve-lès-Avignon (le « grand Rhône » ou « bras vif »).;Visites libres le samedi après-midi de 14h à 17h.;Gratuit.;;;;Patrimoine religieux et privé;112 Chemin des Poiriers;;Gratuit;;;paroissesaintagricol84@gmail.com;;;;20210903093720.614254;20210903093720.614254;;84007;218400075;Mairie Avignon / Pôle Vivre Ensemble / DPT Culture;LO;;Tableau XLS du service métier, intégration et gécodage SIG;Avignon Barthelasse-île Piot;manuelle;1.0;;t;84007-journeesPatrimoine2021;847670.6643653312;6320887.241249152;4.840384374443317;43.97149876628744;43.97149876628744;4.840384374443317
